{
"type": "FeatureCollection",
"name": "destinations",
"crs": { "type": "name", "properties": { "name": "urn:ogc:def:crs:OGC:1.3:CRS84" } },
"features": [
{ "type": "Feature", "properties": { "destination_id": "construction_849103852", "destination_weight": 1.0, "osm_id": 849103852, "name": "" }, "geometry": { "type": "Point", "coordinates": [ 35.20233772, 28.00205224 ] } },
{ "type": "Feature", "properties": { "destination_id": "construction_849103853", "destination_weight": 1.0, "osm_id": 849103853, "name": "" }, "geometry": { "type": "Point", "coordinates": [ 35.20718594, 28.0024302 ] } },
{ "type": "Feature", "properties": { "destination_id": "construction_849103881", "destination_weight": 1.0, "osm_id": 849103881, "name": "" }, "geometry": { "type": "Point", "coordinates": [ 35.1994858, 28.0073651 ] } },
{ "type": "Feature", "properties": { "destination_id": "construction_849103882", "destination_weight": 1.0, "osm_id": 849103882, "name": "" }, "geometry": { "type": "Point", "coordinates": [ 35.20172254, 28.0075305 ] } },
{ "type": "Feature", "properties": { "destination_id": "construction_849103883", "destination_weight": 1.0, "osm_id": 849103883, "name": "" }, "geometry": { "type": "Point", "coordinates": [ 35.203261, 28.0076408 ] } },
{ "type": "Feature", "properties": { "destination_id": "construction_849103884", "destination_weight": 1.0, "osm_id": 849103884, "name": "" }, "geometry": { "type": "Point", "coordinates": [ 35.20707594, 28.00790642 ] } },
{ "type": "Feature", "properties": { "destination_id": "construction_849103885", "destination_weight": 1.0, "osm_id": 849103885, "name": "" }, "geometry": { "type": "Point", "coordinates": [ 35.2092578, 28.0049175 ] } }
]
}
