{
"type": "FeatureCollection",
"name": "streets",
"crs": { "type": "name", "properties": { "name": "urn:ogc:def:crs:OGC:1.3:CRS84" } },
"features": [
{ "type": "Feature", "properties": { "osm_id": 131685204, "highway": "tertiary", "name": "", "segments": 1, "oneway": "yes", "surface": "", "lanes": "2", "parent_osm_id": 131685204, "segment_index": 1, "segment_id": 0 }, "geometry": { "type": "LineString", "coordinates": [ [ 35.196889, 28.0004966 ], [ 35.1973759, 28.0005314 ] ] } },
{ "type": "Feature", "properties": { "osm_id": 131685204, "highway": "tertiary", "name": "", "segments": 1, "oneway": "yes", "surface": "", "lanes": "2", "parent_osm_id": 131685204, "segment_index": 2, "segment_id": 1 }, "geometry": { "type": "LineString", "coordinates": [ [ 35.1973759, 28.0005314 ], [ 35.2040677, 28.0010086 ] ] } },
{ "type": "Feature", "properties": { "osm_id": 131685204, "highway": "tertiary", "name": "", "segments": 1, "oneway": "yes", "surface": "", "lanes": "2", "parent_osm_id": 131685204, "segment_index": 3, "segment_id": 2 }, "geometry": { "type": "LineString", "coordinates": [ [ 35.2040677, 28.0010086 ], [ 35.2111913, 28.0015341 ] ] } },
{ "type": "Feature", "properties": { "osm_id": 849103759, "highway": "residential", "name": "", "segments": 1, "oneway": "yes", "surface": "", "lanes": "2", "parent_osm_id": 849103759, "segment_index": 0, "segment_id": 3 }, "geometry": { "type": "LineString", "coordinates": [ [ 35.2036096, 28.005289 ], [ 35.2038346, 28.00273 ] ] } },
{ "type": "Feature", "properties": { "osm_id": 849103759, "highway": "residential", "name": "", "segments": 1, "oneway": "yes", "surface": "", "lanes": "2", "parent_osm_id": 849103759, "segment_index": 1, "segment_id": 4 }, "geometry": { "type": "LineString", "coordinates": [ [ 35.2038346, 28.00273 ], [ 35.2039624, 28.0011134 ] ] } },
{ "type": "Feature", "properties": { "osm_id": 849103759, "highway": "residential", "name": "", "segments": 1, "oneway": "yes", "surface": "", "lanes": "2", "parent_osm_id": 849103759, "segment_index": 2, "segment_id": 5 }, "geometry": { "type": "LineString", "coordinates": [ [ 35.2039624, 28.0011134 ], [ 35.2040677, 28.0010086 ] ] } },
{ "type": "Feature", "properties": { "osm_id": 849103759, "highway": "residential", "name": "", "segments": 1, "oneway": "yes", "surface": "", "lanes": "2", "parent_osm_id": 849103759, "segment_index": 3, "segment_id": 6 }, "geometry": { "type": "LineString", "coordinates": [ [ 35.2040677, 28.0010086 ], [ 35.2041, 28.0011278 ] ] } },
{ "type": "Feature", "properties": { "osm_id": 849103759, "highway": "residential", "name": "", "segments": 1, "oneway": "yes", "surface": "", "lanes": "2", "parent_osm_id": 849103759, "segment_index": 4, "segment_id": 7 }, "geometry": { "type": "LineString", "coordinates": [ [ 35.2041, 28.0011278 ], [ 35.2039634, 28.0027426 ] ] } },
{ "type": "Feature", "properties": { "osm_id": 849103759, "highway": "residential", "name": "", "segments": 1, "oneway": "yes", "surface": "", "lanes": "2", "parent_osm_id": 849103759, "segment_index": 5, "segment_id": 8 }, "geometry": { "type": "LineString", "coordinates": [ [ 35.2039634, 28.0027426 ], [ 35.203735, 28.005304 ] ] } },
{ "type": "Feature", "properties": { "osm_id": 849103760, "highway": "residential", "name": "", "segments": 1, "oneway": "yes", "surface": "", "lanes": "", "parent_osm_id": 849103760, "segment_index": 0, "segment_id": 9 }, "geometry": { "type": "LineString", "coordinates": [ [ 35.2035504, 28.0054752 ], [ 35.2033447, 28.005436 ] ] } },
{ "type": "Feature", "properties": { "osm_id": 849103760, "highway": "residential", "name": "", "segments": 1, "oneway": "yes", "surface": "", "lanes": "", "parent_osm_id": 849103760, "segment_index": 1, "segment_id": 10 }, "geometry": { "type": "LineString", "coordinates": [ [ 35.2033447, 28.005436 ], [ 35.2023301, 28.0053649 ] ] } },
{ "type": "Feature", "properties": { "osm_id": 849103760, "highway": "residential", "name": "", "segments": 1, "oneway": "yes", "surface": "", "lanes": "", "parent_osm_id": 849103760, "segment_index": 2, "segment_id": 11 }, "geometry": { "type": "LineString", "coordinates": [ [ 35.2023301, 28.0053649 ], [ 35.2013784, 28.0052982 ] ] } },
{ "type": "Feature", "properties": { "osm_id": 849103760, "highway": "residential", "name": "", "segments": 1, "oneway": "yes", "surface": "", "lanes": "", "parent_osm_id": 849103760, "segment_index": 3, "segment_id": 12 }, "geometry": { "type": "LineString", "coordinates": [ [ 35.2013784, 28.0052982 ], [ 35.1998376, 28.0051903 ] ] } },
{ "type": "Feature", "properties": { "osm_id": 849103760, "highway": "residential", "name": "", "segments": 1, "oneway": "yes", "surface": "", "lanes": "", "parent_osm_id": 849103760, "segment_index": 4, "segment_id": 13 }, "geometry": { "type": "LineString", "coordinates": [ [ 35.1998376, 28.0051903 ], [ 35.1980797, 28.0050671 ] ] } },
{ "type": "Feature", "properties": { "osm_id": 849103760, "highway": "residential", "name": "", "segments": 1, "oneway": "yes", "surface": "", "lanes": "", "parent_osm_id": 849103760, "segment_index": 5, "segment_id": 14 }, "geometry": { "type": "LineString", "coordinates": [ [ 35.1980797, 28.0050671 ], [ 35.1963137, 28.0049434 ] ] } },
{ "type": "Feature", "properties": { "osm_id": 849103761, "highway": "residential", "name": "", "segments": 1, "oneway": "yes", "surface": "", "lanes": "", "parent_osm_id": 849103761, "segment_index": 5, "segment_id": 15 }, "geometry": { "type": "LineString", "coordinates": [ [ 35.1962315, 28.0048297 ], [ 35.1966793, 28.0048608 ] ] } },
{ "type": "Feature", "properties": { "osm_id": 849103761, "highway": "residential", "name": "", "segments": 1, "oneway": "yes", "surface": "", "lanes": "", "parent_osm_id": 849103761, "segment_index": 6, "segment_id": 16 }, "geometry": { "type": "LineString", "coordinates": [ [ 35.1966793, 28.0048608 ], [ 35.198085, 28.0049584 ] ] } },
{ "type": "Feature", "properties": { "osm_id": 849103761, "highway": "residential", "name": "", "segments": 1, "oneway": "yes", "surface": "", "lanes": "", "parent_osm_id": 849103761, "segment_index": 7, "segment_id": 17 }, "geometry": { "type": "LineString", "coordinates": [ [ 35.198085, 28.0049584 ], [ 35.1989714, 28.00502 ] ] } },
{ "type": "Feature", "properties": { "osm_id": 849103761, "highway": "residential", "name": "", "segments": 1, "oneway": "yes", "surface": "", "lanes": "", "parent_osm_id": 849103761, "segment_index": 8, "segment_id": 18 }, "geometry": { "type": "LineString", "coordinates": [ [ 35.1989714, 28.00502 ], [ 35.19917, 28.0050338 ] ] } },
{ "type": "Feature", "properties": { "osm_id": 849103761, "highway": "residential", "name": "", "segments": 1, "oneway": "yes", "surface": "", "lanes": "", "parent_osm_id": 849103761, "segment_index": 9, "segment_id": 19 }, "geometry": { "type": "LineString", "coordinates": [ [ 35.19917, 28.0050338 ], [ 35.1998371, 28.0050801 ] ] } },
{ "type": "Feature", "properties": { "osm_id": 849103761, "highway": "residential", "name": "", "segments": 1, "oneway": "yes", "surface": "", "lanes": "", "parent_osm_id": 849103761, "segment_index": 10, "segment_id": 20 }, "geometry": { "type": "LineString", "coordinates": [ [ 35.1998371, 28.0050801 ], [ 35.2003109, 28.005113 ] ] } },
{ "type": "Feature", "properties": { "osm_id": 849103761, "highway": "residential", "name": "", "segments": 1, "oneway": "yes", "surface": "", "lanes": "", "parent_osm_id": 849103761, "segment_index": 11, "segment_id": 21 }, "geometry": { "type": "LineString", "coordinates": [ [ 35.2003109, 28.005113 ], [ 35.2004787, 28.0051247 ] ] } },
{ "type": "Feature", "properties": { "osm_id": 849103761, "highway": "residential", "name": "", "segments": 1, "oneway": "yes", "surface": "", "lanes": "", "parent_osm_id": 849103761, "segment_index": 12, "segment_id": 22 }, "geometry": { "type": "LineString", "coordinates": [ [ 35.2004787, 28.0051247 ], [ 35.2013241, 28.0051834 ] ] } },
{ "type": "Feature", "properties": { "osm_id": 849103761, "highway": "residential", "name": "", "segments": 1, "oneway": "yes", "surface": "", "lanes": "", "parent_osm_id": 849103761, "segment_index": 13, "segment_id": 23 }, "geometry": { "type": "LineString", "coordinates": [ [ 35.2013241, 28.0051834 ], [ 35.2014435, 28.0051925 ] ] } },
{ "type": "Feature", "properties": { "osm_id": 849103761, "highway": "residential", "name": "", "segments": 1, "oneway": "yes", "surface": "", "lanes": "", "parent_osm_id": 849103761, "segment_index": 14, "segment_id": 24 }, "geometry": { "type": "LineString", "coordinates": [ [ 35.2014435, 28.0051925 ], [ 35.2023512, 28.0052617 ] ] } },
{ "type": "Feature", "properties": { "osm_id": 849103761, "highway": "residential", "name": "", "segments": 1, "oneway": "yes", "surface": "", "lanes": "", "parent_osm_id": 849103761, "segment_index": 15, "segment_id": 25 }, "geometry": { "type": "LineString", "coordinates": [ [ 35.2023512, 28.0052617 ], [ 35.2027979, 28.0052958 ] ] } },
{ "type": "Feature", "properties": { "osm_id": 849103761, "highway": "residential", "name": "", "segments": 1, "oneway": "yes", "surface": "", "lanes": "", "parent_osm_id": 849103761, "segment_index": 16, "segment_id": 26 }, "geometry": { "type": "LineString", "coordinates": [ [ 35.2027979, 28.0052958 ], [ 35.2030217, 28.0053129 ] ] } },
{ "type": "Feature", "properties": { "osm_id": 849103761, "highway": "residential", "name": "", "segments": 1, "oneway": "yes", "surface": "", "lanes": "", "parent_osm_id": 849103761, "segment_index": 17, "segment_id": 27 }, "geometry": { "type": "LineString", "coordinates": [ [ 35.2030217, 28.0053129 ], [ 35.2030621, 28.005316 ] ] } },
{ "type": "Feature", "properties": { "osm_id": 849103761, "highway": "residential", "name": "", "segments": 1, "oneway": "yes", "surface": "", "lanes": "", "parent_osm_id": 849103761, "segment_index": 18, "segment_id": 28 }, "geometry": { "type": "LineString", "coordinates": [ [ 35.2030621, 28.005316 ], [ 35.2033804, 28.0053318 ] ] } },
{ "type": "Feature", "properties": { "osm_id": 849103761, "highway": "residential", "name": "", "segments": 1, "oneway": "yes", "surface": "", "lanes": "", "parent_osm_id": 849103761, "segment_index": 19, "segment_id": 29 }, "geometry": { "type": "LineString", "coordinates": [ [ 35.2033804, 28.0053318 ], [ 35.2035367, 28.0053454 ] ] } },
{ "type": "Feature", "properties": { "osm_id": 849103764, "highway": "residential", "name": "", "segments": 1, "oneway": "yes", "surface": "", "lanes": "", "parent_osm_id": 849103764, "segment_index": 0, "segment_id": 30 }, "geometry": { "type": "LineString", "coordinates": [ [ 35.2106773, 28.0060106 ], [ 35.210507, 28.0059586 ] ] } },
{ "type": "Feature", "properties": { "osm_id": 849103764, "highway": "residential", "name": "", "segments": 1, "oneway": "yes", "surface": "", "lanes": "", "parent_osm_id": 849103764, "segment_index": 1, "segment_id": 31 }, "geometry": { "type": "LineString", "coordinates": [ [ 35.210507, 28.0059586 ], [ 35.209197, 28.0058629 ] ] } },
{ "type": "Feature", "properties": { "osm_id": 849103764, "highway": "residential", "name": "", "segments": 1, "oneway": "yes", "surface": "", "lanes": "", "parent_osm_id": 849103764, "segment_index": 2, "segment_id": 32 }, "geometry": { "type": "LineString", "coordinates": [ [ 35.209197, 28.0058629 ], [ 35.2089674, 28.0058462 ] ] } },
{ "type": "Feature", "properties": { "osm_id": 849103764, "highway": "residential", "name": "", "segments": 1, "oneway": "yes", "surface": "", "lanes": "", "parent_osm_id": 849103764, "segment_index": 3, "segment_id": 33 }, "geometry": { "type": "LineString", "coordinates": [ [ 35.2089674, 28.0058462 ], [ 35.2083115, 28.0057983 ] ] } },
{ "type": "Feature", "properties": { "osm_id": 849103764, "highway": "residential", "name": "", "segments": 1, "oneway": "yes", "surface": "", "lanes": "", "parent_osm_id": 849103764, "segment_index": 4, "segment_id": 34 }, "geometry": { "type": "LineString", "coordinates": [ [ 35.2083115, 28.0057983 ], [ 35.2059651, 28.0056223 ] ] } },
{ "type": "Feature", "properties": { "osm_id": 849103764, "highway": "residential", "name": "", "segments": 1, "oneway": "yes", "surface": "", "lanes": "", "parent_osm_id": 849103764, "segment_index": 5, "segment_id": 35 }, "geometry": { "type": "LineString", "coordinates": [ [ 35.2059651, 28.0056223 ], [ 35.2054197, 28.0055814 ] ] } },
{ "type": "Feature", "properties": { "osm_id": 849103764, "highway": "residential", "name": "", "segments": 1, "oneway": "yes", "surface": "", "lanes": "", "parent_osm_id": 849103764, "segment_index": 6, "segment_id": 36 }, "geometry": { "type": "LineString", "coordinates": [ [ 35.2054197, 28.0055814 ], [ 35.2051334, 28.00556 ] ] } },
{ "type": "Feature", "properties": { "osm_id": 849103764, "highway": "residential", "name": "", "segments": 1, "oneway": "yes", "surface": "", "lanes": "", "parent_osm_id": 849103764, "segment_index": 7, "segment_id": 37 }, "geometry": { "type": "LineString", "coordinates": [ [ 35.2051334, 28.00556 ], [ 35.203924, 28.0054693 ] ] } },
{ "type": "Feature", "properties": { "osm_id": 849103764, "highway": "residential", "name": "", "segments": 1, "oneway": "yes", "surface": "", "lanes": "", "parent_osm_id": 849103764, "segment_index": 8, "segment_id": 38 }, "geometry": { "type": "LineString", "coordinates": [ [ 35.203924, 28.0054693 ], [ 35.2037561, 28.0054815 ] ] } },
{ "type": "Feature", "properties": { "osm_id": 849103765, "highway": "residential", "name": "", "segments": 1, "oneway": "yes", "surface": "", "lanes": "", "parent_osm_id": 849103765, "segment_index": 0, "segment_id": 39 }, "geometry": { "type": "LineString", "coordinates": [ [ 35.2037772, 28.0053477 ], [ 35.2038564, 28.0053619 ] ] } },
{ "type": "Feature", "properties": { "osm_id": 849103765, "highway": "residential", "name": "", "segments": 1, "oneway": "yes", "surface": "", "lanes": "", "parent_osm_id": 849103765, "segment_index": 1, "segment_id": 40 }, "geometry": { "type": "LineString", "coordinates": [ [ 35.2038564, 28.0053619 ], [ 35.2048519, 28.0054344 ] ] } },
{ "type": "Feature", "properties": { "osm_id": 849103765, "highway": "residential", "name": "", "segments": 1, "oneway": "yes", "surface": "", "lanes": "", "parent_osm_id": 849103765, "segment_index": 2, "segment_id": 41 }, "geometry": { "type": "LineString", "coordinates": [ [ 35.2048519, 28.0054344 ], [ 35.2049313, 28.0054402 ] ] } },
{ "type": "Feature", "properties": { "osm_id": 849103765, "highway": "residential", "name": "", "segments": 1, "oneway": "yes", "surface": "", "lanes": "", "parent_osm_id": 849103765, "segment_index": 3, "segment_id": 42 }, "geometry": { "type": "LineString", "coordinates": [ [ 35.2049313, 28.0054402 ], [ 35.2051418, 28.0054555 ] ] } },
{ "type": "Feature", "properties": { "osm_id": 849103765, "highway": "residential", "name": "", "segments": 1, "oneway": "yes", "surface": "", "lanes": "", "parent_osm_id": 849103765, "segment_index": 4, "segment_id": 43 }, "geometry": { "type": "LineString", "coordinates": [ [ 35.2051418, 28.0054555 ], [ 35.2054312, 28.0054766 ] ] } },
{ "type": "Feature", "properties": { "osm_id": 849103765, "highway": "residential", "name": "", "segments": 1, "oneway": "yes", "surface": "", "lanes": "", "parent_osm_id": 849103765, "segment_index": 5, "segment_id": 44 }, "geometry": { "type": "LineString", "coordinates": [ [ 35.2054312, 28.0054766 ], [ 35.2059734, 28.0055161 ] ] } },
{ "type": "Feature", "properties": { "osm_id": 849103765, "highway": "residential", "name": "", "segments": 1, "oneway": "yes", "surface": "", "lanes": "", "parent_osm_id": 849103765, "segment_index": 6, "segment_id": 45 }, "geometry": { "type": "LineString", "coordinates": [ [ 35.2059734, 28.0055161 ], [ 35.2071793, 28.005604 ] ] } },
{ "type": "Feature", "properties": { "osm_id": 849103765, "highway": "residential", "name": "", "segments": 1, "oneway": "yes", "surface": "", "lanes": "", "parent_osm_id": 849103765, "segment_index": 7, "segment_id": 46 }, "geometry": { "type": "LineString", "coordinates": [ [ 35.2071793, 28.005604 ], [ 35.2072672, 28.0056104 ] ] } },
{ "type": "Feature", "properties": { "osm_id": 849103765, "highway": "residential", "name": "", "segments": 1, "oneway": "yes", "surface": "", "lanes": "", "parent_osm_id": 849103765, "segment_index": 8, "segment_id": 47 }, "geometry": { "type": "LineString", "coordinates": [ [ 35.2072672, 28.0056104 ], [ 35.2077645, 28.0056467 ] ] } },
{ "type": "Feature", "properties": { "osm_id": 849103765, "highway": "residential", "name": "", "segments": 1, "oneway": "yes", "surface": "", "lanes": "", "parent_osm_id": 849103765, "segment_index": 9, "segment_id": 48 }, "geometry": { "type": "LineString", "coordinates": [ [ 35.2077645, 28.0056467 ], [ 35.2079745, 28.005662 ] ] } },
{ "type": "Feature", "properties": { "osm_id": 849103765, "highway": "residential", "name": "", "segments": 1, "oneway": "yes", "surface": "", "lanes": "", "parent_osm_id": 849103765, "segment_index": 10, "segment_id": 49 }, "geometry": { "type": "LineString", "coordinates": [ [ 35.2079745, 28.005662 ], [ 35.2083202, 28.0056872 ] ] } },
{ "type": "Feature", "properties": { "osm_id": 849103765, "highway": "residential", "name": "", "segments": 1, "oneway": "yes", "surface": "", "lanes": "", "parent_osm_id": 849103765, "segment_index": 11, "segment_id": 50 }, "geometry": { "type": "LineString", "coordinates": [ [ 35.2083202, 28.0056872 ], [ 35.2104439, 28.0058591 ] ] } },
{ "type": "Feature", "properties": { "osm_id": 849103765, "highway": "residential", "name": "", "segments": 1, "oneway": "yes", "surface": "", "lanes": "", "parent_osm_id": 849103765, "segment_index": 12, "segment_id": 51 }, "geometry": { "type": "LineString", "coordinates": [ [ 35.2104439, 28.0058591 ], [ 35.2106196, 28.0058353 ] ] } },
{ "type": "Feature", "properties": { "osm_id": 849103765, "highway": "residential", "name": "", "segments": 1, "oneway": "yes", "surface": "", "lanes": "", "parent_osm_id": 849103765, "segment_index": 13, "segment_id": 52 }, "geometry": { "type": "LineString", "coordinates": [ [ 35.2106196, 28.0058353 ], [ 35.2107274, 28.005799 ] ] } },
{ "type": "Feature", "properties": { "osm_id": 849103765, "highway": "residential", "name": "", "segments": 1, "oneway": "yes", "surface": "", "lanes": "", "parent_osm_id": 849103765, "segment_index": 14, "segment_id": 53 }, "geometry": { "type": "LineString", "coordinates": [ [ 35.2107274, 28.005799 ], [ 35.2108314, 28.0056324 ] ] } },
{ "type": "Feature", "properties": { "osm_id": 849103765, "highway": "residential", "name": "", "segments": 1, "oneway": "yes", "surface": "", "lanes": "", "parent_osm_id": 849103765, "segment_index": 15, "segment_id": 54 }, "geometry": { "type": "LineString", "coordinates": [ [ 35.2108314, 28.0056324 ], [ 35.2111834, 28.0016486 ] ] } },
{ "type": "Feature", "properties": { "osm_id": 849103765, "highway": "residential", "name": "", "segments": 1, "oneway": "yes", "surface": "", "lanes": "", "parent_osm_id": 849103765, "segment_index": 16, "segment_id": 55 }, "geometry": { "type": "LineString", "coordinates": [ [ 35.2111834, 28.0016486 ], [ 35.2111913, 28.0015341 ] ] } },
{ "type": "Feature", "properties": { "osm_id": 849103783, "highway": "service", "name": "", "segments": 1, "oneway": "yes", "surface": "", "lanes": "", "parent_osm_id": 849103783, "segment_index": 0, "segment_id": 56 }, "geometry": { "type": "LineString", "coordinates": [ [ 35.2003109, 28.005113 ], [ 35.2004052, 28.0049787 ] ] } },
{ "type": "Feature", "properties": { "osm_id": 849103783, "highway": "service", "name": "", "segments": 1, "oneway": "yes", "surface": "", "lanes": "", "parent_osm_id": 849103783, "segment_index": 1, "segment_id": 57 }, "geometry": { "type": "LineString", "coordinates": [ [ 35.2004052, 28.0049787 ], [ 35.2004787, 28.0051247 ] ] } },
{ "type": "Feature", "properties": { "osm_id": 849103786, "highway": "service", "name": "", "segments": 1, "oneway": "no", "surface": "", "lanes": "", "parent_osm_id": 849103786, "segment_index": 0, "segment_id": 58 }, "geometry": { "type": "LineString", "coordinates": [ [ 35.2004052, 28.0049787 ], [ 35.2004222, 28.0047941 ] ] } },
{ "type": "Feature", "properties": { "osm_id": 849103786, "highway": "service", "name": "", "segments": 1, "oneway": "no", "surface": "", "lanes": "", "parent_osm_id": 849103786, "segment_index": 1, "segment_id": 59 }, "geometry": { "type": "LineString", "coordinates": [ [ 35.2004222, 28.0047941 ], [ 35.2004434, 28.0045636 ] ] } },
{ "type": "Feature", "properties": { "osm_id": 849103786, "highway": "service", "name": "", "segments": 1, "oneway": "no", "surface": "", "lanes": "", "parent_osm_id": 849103786, "segment_index": 2, "segment_id": 60 }, "geometry": { "type": "LineString", "coordinates": [ [ 35.2004434, 28.0045636 ], [ 35.2004735, 28.0042371 ] ] } },
{ "type": "Feature", "properties": { "osm_id": 849103786, "highway": "service", "name": "", "segments": 1, "oneway": "no", "surface": "", "lanes": "", "parent_osm_id": 849103786, "segment_index": 3, "segment_id": 61 }, "geometry": { "type": "LineString", "coordinates": [ [ 35.2004735, 28.0042371 ], [ 35.2004813, 28.0041525 ] ] } },
{ "type": "Feature", "properties": { "osm_id": 849103786, "highway": "service", "name": "", "segments": 1, "oneway": "no", "surface": "", "lanes": "", "parent_osm_id": 849103786, "segment_index": 4, "segment_id": 62 }, "geometry": { "type": "LineString", "coordinates": [ [ 35.2004813, 28.0041525 ], [ 35.2005144, 28.0038341 ] ] } },
{ "type": "Feature", "properties": { "osm_id": 849103786, "highway": "service", "name": "", "segments": 1, "oneway": "no", "surface": "", "lanes": "", "parent_osm_id": 849103786, "segment_index": 5, "segment_id": 63 }, "geometry": { "type": "LineString", "coordinates": [ [ 35.2005144, 28.0038341 ], [ 35.2005976, 28.0030347 ] ] } },
{ "type": "Feature", "properties": { "osm_id": 849103786, "highway": "service", "name": "", "segments": 1, "oneway": "no", "surface": "", "lanes": "", "parent_osm_id": 849103786, "segment_index": 6, "segment_id": 64 }, "geometry": { "type": "LineString", "coordinates": [ [ 35.2005976, 28.0030347 ], [ 35.2005295, 28.0029495 ] ] } },
{ "type": "Feature", "properties": { "osm_id": 849103786, "highway": "service", "name": "", "segments": 1, "oneway": "no", "surface": "", "lanes": "", "parent_osm_id": 849103786, "segment_index": 7, "segment_id": 65 }, "geometry": { "type": "LineString", "coordinates": [ [ 35.2005295, 28.0029495 ], [ 35.199533, 28.002889799999988 ] ] } },
{ "type": "Feature", "properties": { "osm_id": 849103786, "highway": "service", "name": "", "segments": 1, "oneway": "no", "surface": "", "lanes": "", "parent_osm_id": 849103786, "segment_index": 8, "segment_id": 66 }, "geometry": { "type": "LineString", "coordinates": [ [ 35.199533, 28.002889799999988 ], [ 35.1992749, 28.0028743 ] ] } },
{ "type": "Feature", "properties": { "osm_id": 849103786, "highway": "service", "name": "", "segments": 1, "oneway": "no", "surface": "", "lanes": "", "parent_osm_id": 849103786, "segment_index": 9, "segment_id": 67 }, "geometry": { "type": "LineString", "coordinates": [ [ 35.1992749, 28.0028743 ], [ 35.1992462, 28.0031748 ] ] } },
{ "type": "Feature", "properties": { "osm_id": 849103786, "highway": "service", "name": "", "segments": 1, "oneway": "no", "surface": "", "lanes": "", "parent_osm_id": 849103786, "segment_index": 10, "segment_id": 68 }, "geometry": { "type": "LineString", "coordinates": [ [ 35.1992462, 28.0031748 ], [ 35.1991809, 28.0038594 ] ] } },
{ "type": "Feature", "properties": { "osm_id": 849103786, "highway": "service", "name": "", "segments": 1, "oneway": "no", "surface": "", "lanes": "", "parent_osm_id": 849103786, "segment_index": 11, "segment_id": 69 }, "geometry": { "type": "LineString", "coordinates": [ [ 35.1991809, 28.0038594 ], [ 35.1991681, 28.0039934 ] ] } },
{ "type": "Feature", "properties": { "osm_id": 849103817, "highway": "service", "name": "", "segments": 1, "oneway": "no", "surface": "", "lanes": "", "parent_osm_id": 849103817, "segment_index": 0, "segment_id": 70 }, "geometry": { "type": "LineString", "coordinates": [ [ 35.2005144, 28.0038341 ], [ 35.2014975, 28.0039087 ] ] } },
{ "type": "Feature", "properties": { "osm_id": 849103817, "highway": "service", "name": "", "segments": 1, "oneway": "no", "surface": "", "lanes": "", "parent_osm_id": 849103817, "segment_index": 1, "segment_id": 71 }, "geometry": { "type": "LineString", "coordinates": [ [ 35.2014975, 28.0039087 ], [ 35.2021673, 28.0039595 ] ] } },
{ "type": "Feature", "properties": { "osm_id": 849103819, "highway": "service", "name": "", "segments": 1, "oneway": "no", "surface": "", "lanes": "", "parent_osm_id": 849103819, "segment_index": 0, "segment_id": 72 }, "geometry": { "type": "LineString", "coordinates": [ [ 35.2004222, 28.0047941 ], [ 35.2006851, 28.0048122 ] ] } },
{ "type": "Feature", "properties": { "osm_id": 849103819, "highway": "service", "name": "", "segments": 1, "oneway": "no", "surface": "", "lanes": "", "parent_osm_id": 849103819, "segment_index": 1, "segment_id": 73 }, "geometry": { "type": "LineString", "coordinates": [ [ 35.2006851, 28.0048122 ], [ 35.2013662, 28.0048591 ] ] } },
{ "type": "Feature", "properties": { "osm_id": 849103819, "highway": "service", "name": "", "segments": 1, "oneway": "no", "surface": "", "lanes": "", "parent_osm_id": 849103819, "segment_index": 2, "segment_id": 74 }, "geometry": { "type": "LineString", "coordinates": [ [ 35.2013662, 28.0048591 ], [ 35.2014632, 28.0048658 ] ] } },
{ "type": "Feature", "properties": { "osm_id": 849103819, "highway": "service", "name": "", "segments": 1, "oneway": "no", "surface": "", "lanes": "", "parent_osm_id": 849103819, "segment_index": 3, "segment_id": 75 }, "geometry": { "type": "LineString", "coordinates": [ [ 35.2014632, 28.0048658 ], [ 35.2029309, 28.004967 ] ] } },
{ "type": "Feature", "properties": { "osm_id": 849103820, "highway": "service", "name": "", "segments": 1, "oneway": "yes", "surface": "", "lanes": "", "parent_osm_id": 849103820, "segment_index": 0, "segment_id": 76 }, "geometry": { "type": "LineString", "coordinates": [ [ 35.2013784, 28.0052982 ], [ 35.2013241, 28.0051834 ] ] } },
{ "type": "Feature", "properties": { "osm_id": 849103820, "highway": "service", "name": "", "segments": 1, "oneway": "yes", "surface": "", "lanes": "", "parent_osm_id": 849103820, "segment_index": 1, "segment_id": 77 }, "geometry": { "type": "LineString", "coordinates": [ [ 35.2013241, 28.0051834 ], [ 35.2013502, 28.0050454 ] ] } },
{ "type": "Feature", "properties": { "osm_id": 849103820, "highway": "service", "name": "", "segments": 1, "oneway": "yes", "surface": "", "lanes": "", "parent_osm_id": 849103820, "segment_index": 2, "segment_id": 78 }, "geometry": { "type": "LineString", "coordinates": [ [ 35.2013502, 28.0050454 ], [ 35.2013662, 28.0048591 ] ] } },
{ "type": "Feature", "properties": { "osm_id": 849103820, "highway": "service", "name": "", "segments": 1, "oneway": "yes", "surface": "", "lanes": "", "parent_osm_id": 849103820, "segment_index": 3, "segment_id": 79 }, "geometry": { "type": "LineString", "coordinates": [ [ 35.2013662, 28.0048591 ], [ 35.2013804, 28.0046676 ] ] } },
{ "type": "Feature", "properties": { "osm_id": 849103821, "highway": "service", "name": "", "segments": 1, "oneway": "yes", "surface": "", "lanes": "", "parent_osm_id": 849103821, "segment_index": 0, "segment_id": 80 }, "geometry": { "type": "LineString", "coordinates": [ [ 35.2014809, 28.0046785 ], [ 35.2014632, 28.0048658 ] ] } },
{ "type": "Feature", "properties": { "osm_id": 849103821, "highway": "service", "name": "", "segments": 1, "oneway": "yes", "surface": "", "lanes": "", "parent_osm_id": 849103821, "segment_index": 1, "segment_id": 81 }, "geometry": { "type": "LineString", "coordinates": [ [ 35.2014632, 28.0048658 ], [ 35.2014524, 28.0050527 ] ] } },
{ "type": "Feature", "properties": { "osm_id": 849103821, "highway": "service", "name": "", "segments": 1, "oneway": "yes", "surface": "", "lanes": "", "parent_osm_id": 849103821, "segment_index": 2, "segment_id": 82 }, "geometry": { "type": "LineString", "coordinates": [ [ 35.2014524, 28.0050527 ], [ 35.2014435, 28.0051925 ] ] } },
{ "type": "Feature", "properties": { "osm_id": 849103821, "highway": "service", "name": "", "segments": 1, "oneway": "yes", "surface": "", "lanes": "", "parent_osm_id": 849103821, "segment_index": 3, "segment_id": 83 }, "geometry": { "type": "LineString", "coordinates": [ [ 35.2014435, 28.0051925 ], [ 35.2013784, 28.0052982 ] ] } },
{ "type": "Feature", "properties": { "osm_id": 849103822, "highway": "service", "name": "", "segments": 1, "oneway": "yes", "surface": "", "lanes": "", "parent_osm_id": 849103822, "segment_index": 0, "segment_id": 84 }, "geometry": { "type": "LineString", "coordinates": [ [ 35.2027979, 28.0052958 ], [ 35.2028806, 28.0051535 ] ] } },
{ "type": "Feature", "properties": { "osm_id": 849103822, "highway": "service", "name": "", "segments": 1, "oneway": "yes", "surface": "", "lanes": "", "parent_osm_id": 849103822, "segment_index": 1, "segment_id": 85 }, "geometry": { "type": "LineString", "coordinates": [ [ 35.2028806, 28.0051535 ], [ 35.2029309, 28.004967 ] ] } },
{ "type": "Feature", "properties": { "osm_id": 849103822, "highway": "service", "name": "", "segments": 1, "oneway": "yes", "surface": "", "lanes": "", "parent_osm_id": 849103822, "segment_index": 2, "segment_id": 86 }, "geometry": { "type": "LineString", "coordinates": [ [ 35.2029309, 28.004967 ], [ 35.2029542, 28.0051586 ] ] } },
{ "type": "Feature", "properties": { "osm_id": 849103822, "highway": "service", "name": "", "segments": 1, "oneway": "yes", "surface": "", "lanes": "", "parent_osm_id": 849103822, "segment_index": 3, "segment_id": 87 }, "geometry": { "type": "LineString", "coordinates": [ [ 35.2029542, 28.0051586 ], [ 35.2030217, 28.0053129 ] ] } },
{ "type": "Feature", "properties": { "osm_id": 849103823, "highway": "service", "name": "", "segments": 1, "oneway": "no", "surface": "", "lanes": "", "parent_osm_id": 849103823, "segment_index": 0, "segment_id": 88 }, "geometry": { "type": "LineString", "coordinates": [ [ 35.2023512, 28.0052617 ], [ 35.2023301, 28.0053649 ] ] } },
{ "type": "Feature", "properties": { "osm_id": 849103834, "highway": "service", "name": "", "segments": 1, "oneway": "no", "surface": "", "lanes": "", "parent_osm_id": 849103834, "segment_index": 0, "segment_id": 89 }, "geometry": { "type": "LineString", "coordinates": [ [ 35.2031447, 28.002928 ], [ 35.2031009, 28.0029184 ] ] } },
{ "type": "Feature", "properties": { "osm_id": 849103834, "highway": "service", "name": "", "segments": 1, "oneway": "no", "surface": "", "lanes": "", "parent_osm_id": 849103834, "segment_index": 1, "segment_id": 90 }, "geometry": { "type": "LineString", "coordinates": [ [ 35.2031009, 28.0029184 ], [ 35.2030671, 28.002892 ] ] } },
{ "type": "Feature", "properties": { "osm_id": 849103834, "highway": "service", "name": "", "segments": 1, "oneway": "no", "surface": "", "lanes": "", "parent_osm_id": 849103834, "segment_index": 2, "segment_id": 91 }, "geometry": { "type": "LineString", "coordinates": [ [ 35.2030671, 28.002892 ], [ 35.2030511, 28.0028547 ] ] } },
{ "type": "Feature", "properties": { "osm_id": 849103834, "highway": "service", "name": "", "segments": 1, "oneway": "no", "surface": "", "lanes": "", "parent_osm_id": 849103834, "segment_index": 3, "segment_id": 92 }, "geometry": { "type": "LineString", "coordinates": [ [ 35.2030511, 28.0028547 ], [ 35.2030565, 28.0028152 ] ] } },
{ "type": "Feature", "properties": { "osm_id": 849103834, "highway": "service", "name": "", "segments": 1, "oneway": "no", "surface": "", "lanes": "", "parent_osm_id": 849103834, "segment_index": 4, "segment_id": 93 }, "geometry": { "type": "LineString", "coordinates": [ [ 35.2030565, 28.0028152 ], [ 35.2030822, 28.0027824 ] ] } },
{ "type": "Feature", "properties": { "osm_id": 849103834, "highway": "service", "name": "", "segments": 1, "oneway": "no", "surface": "", "lanes": "", "parent_osm_id": 849103834, "segment_index": 5, "segment_id": 94 }, "geometry": { "type": "LineString", "coordinates": [ [ 35.2030822, 28.0027824 ], [ 35.2031221, 28.0027638 ] ] } },
{ "type": "Feature", "properties": { "osm_id": 849103834, "highway": "service", "name": "", "segments": 1, "oneway": "no", "surface": "", "lanes": "", "parent_osm_id": 849103834, "segment_index": 6, "segment_id": 95 }, "geometry": { "type": "LineString", "coordinates": [ [ 35.2031221, 28.0027638 ], [ 35.2031673, 28.0027638 ] ] } },
{ "type": "Feature", "properties": { "osm_id": 849103834, "highway": "service", "name": "", "segments": 1, "oneway": "no", "surface": "", "lanes": "", "parent_osm_id": 849103834, "segment_index": 7, "segment_id": 96 }, "geometry": { "type": "LineString", "coordinates": [ [ 35.2031673, 28.0027638 ], [ 35.2032073, 28.0027824 ] ] } },
{ "type": "Feature", "properties": { "osm_id": 849103834, "highway": "service", "name": "", "segments": 1, "oneway": "no", "surface": "", "lanes": "", "parent_osm_id": 849103834, "segment_index": 8, "segment_id": 97 }, "geometry": { "type": "LineString", "coordinates": [ [ 35.2032073, 28.0027824 ], [ 35.2032329, 28.0028152 ] ] } },
{ "type": "Feature", "properties": { "osm_id": 849103834, "highway": "service", "name": "", "segments": 1, "oneway": "no", "surface": "", "lanes": "", "parent_osm_id": 849103834, "segment_index": 9, "segment_id": 98 }, "geometry": { "type": "LineString", "coordinates": [ [ 35.2032329, 28.0028152 ], [ 35.2032383, 28.0028548 ] ] } },
{ "type": "Feature", "properties": { "osm_id": 849103834, "highway": "service", "name": "", "segments": 1, "oneway": "no", "surface": "", "lanes": "", "parent_osm_id": 849103834, "segment_index": 10, "segment_id": 99 }, "geometry": { "type": "LineString", "coordinates": [ [ 35.2032383, 28.0028548 ], [ 35.2032223, 28.002892 ] ] } },
{ "type": "Feature", "properties": { "osm_id": 849103834, "highway": "service", "name": "", "segments": 1, "oneway": "no", "surface": "", "lanes": "", "parent_osm_id": 849103834, "segment_index": 11, "segment_id": 100 }, "geometry": { "type": "LineString", "coordinates": [ [ 35.2032223, 28.002892 ], [ 35.2031885, 28.0029185 ] ] } },
{ "type": "Feature", "properties": { "osm_id": 849103834, "highway": "service", "name": "", "segments": 1, "oneway": "no", "surface": "", "lanes": "", "parent_osm_id": 849103834, "segment_index": 12, "segment_id": 101 }, "geometry": { "type": "LineString", "coordinates": [ [ 35.2031885, 28.0029185 ], [ 35.2031447, 28.002928 ] ] } },
{ "type": "Feature", "properties": { "osm_id": 849103835, "highway": "service", "name": "", "segments": 1, "oneway": "no", "surface": "", "lanes": "", "parent_osm_id": 849103835, "segment_index": 0, "segment_id": 102 }, "geometry": { "type": "LineString", "coordinates": [ [ 35.202946, 28.0048089 ], [ 35.2023632, 28.0047765 ] ] } },
{ "type": "Feature", "properties": { "osm_id": 849103837, "highway": "service", "name": "", "segments": 1, "oneway": "no", "surface": "", "lanes": "", "parent_osm_id": 849103837, "segment_index": 0, "segment_id": 103 }, "geometry": { "type": "LineString", "coordinates": [ [ 35.2029309, 28.004967 ], [ 35.2035043, 28.0050121 ] ] } },
{ "type": "Feature", "properties": { "osm_id": 849103843, "highway": "service", "name": "", "segments": 1, "oneway": "no", "surface": "", "lanes": "", "parent_osm_id": 849103843, "segment_index": 0, "segment_id": 104 }, "geometry": { "type": "LineString", "coordinates": [ [ 35.2006851, 28.0048122 ], [ 35.2007623, 28.0040472 ] ] } },
{ "type": "Feature", "properties": { "osm_id": 849103845, "highway": "service", "name": "", "segments": 1, "oneway": "yes", "surface": "", "lanes": "", "parent_osm_id": 849103845, "segment_index": 0, "segment_id": 105 }, "geometry": { "type": "LineString", "coordinates": [ [ 35.2013663, 28.0045711 ], [ 35.2012562, 28.0045108 ] ] } },
{ "type": "Feature", "properties": { "osm_id": 849103845, "highway": "service", "name": "", "segments": 1, "oneway": "yes", "surface": "", "lanes": "", "parent_osm_id": 849103845, "segment_index": 1, "segment_id": 106 }, "geometry": { "type": "LineString", "coordinates": [ [ 35.2012562, 28.0045108 ], [ 35.2012647, 28.0042502 ] ] } },
{ "type": "Feature", "properties": { "osm_id": 849103845, "highway": "service", "name": "", "segments": 1, "oneway": "yes", "surface": "", "lanes": "", "parent_osm_id": 849103845, "segment_index": 2, "segment_id": 107 }, "geometry": { "type": "LineString", "coordinates": [ [ 35.2012647, 28.0042502 ], [ 35.201347, 28.0041775 ] ] } },
{ "type": "Feature", "properties": { "osm_id": 849103845, "highway": "service", "name": "", "segments": 1, "oneway": "yes", "surface": "", "lanes": "", "parent_osm_id": 849103845, "segment_index": 3, "segment_id": 108 }, "geometry": { "type": "LineString", "coordinates": [ [ 35.201347, 28.0041775 ], [ 35.2016167, 28.0041926 ] ] } },
{ "type": "Feature", "properties": { "osm_id": 849103845, "highway": "service", "name": "", "segments": 1, "oneway": "yes", "surface": "", "lanes": "", "parent_osm_id": 849103845, "segment_index": 4, "segment_id": 109 }, "geometry": { "type": "LineString", "coordinates": [ [ 35.2016167, 28.0041926 ], [ 35.2016649, 28.0042803 ] ] } },
{ "type": "Feature", "properties": { "osm_id": 849103845, "highway": "service", "name": "", "segments": 1, "oneway": "yes", "surface": "", "lanes": "", "parent_osm_id": 849103845, "segment_index": 5, "segment_id": 110 }, "geometry": { "type": "LineString", "coordinates": [ [ 35.2016649, 28.0042803 ], [ 35.2016365, 28.0045284 ] ] } },
{ "type": "Feature", "properties": { "osm_id": 849103845, "highway": "service", "name": "", "segments": 1, "oneway": "yes", "surface": "", "lanes": "", "parent_osm_id": 849103845, "segment_index": 6, "segment_id": 111 }, "geometry": { "type": "LineString", "coordinates": [ [ 35.2016365, 28.0045284 ], [ 35.2015197, 28.004585 ] ] } },
{ "type": "Feature", "properties": { "osm_id": 849103846, "highway": "service", "name": "", "segments": 1, "oneway": "no", "surface": "", "lanes": "", "parent_osm_id": 849103846, "segment_index": 0, "segment_id": 112 }, "geometry": { "type": "LineString", "coordinates": [ [ 35.2014555, 28.0046866 ], [ 35.2014286, 28.0046875 ] ] } },
{ "type": "Feature", "properties": { "osm_id": 849103846, "highway": "service", "name": "", "segments": 1, "oneway": "no", "surface": "", "lanes": "", "parent_osm_id": 849103846, "segment_index": 1, "segment_id": 113 }, "geometry": { "type": "LineString", "coordinates": [ [ 35.2014286, 28.0046875 ], [ 35.2014027, 28.0046809 ] ] } },
{ "type": "Feature", "properties": { "osm_id": 849103846, "highway": "service", "name": "", "segments": 1, "oneway": "no", "surface": "", "lanes": "", "parent_osm_id": 849103846, "segment_index": 2, "segment_id": 114 }, "geometry": { "type": "LineString", "coordinates": [ [ 35.2014027, 28.0046809 ], [ 35.2013804, 28.0046676 ] ] } },
{ "type": "Feature", "properties": { "osm_id": 849103846, "highway": "service", "name": "", "segments": 1, "oneway": "no", "surface": "", "lanes": "", "parent_osm_id": 849103846, "segment_index": 3, "segment_id": 115 }, "geometry": { "type": "LineString", "coordinates": [ [ 35.2013804, 28.0046676 ], [ 35.2013624, 28.0046467 ] ] } },
{ "type": "Feature", "properties": { "osm_id": 849103846, "highway": "service", "name": "", "segments": 1, "oneway": "no", "surface": "", "lanes": "", "parent_osm_id": 849103846, "segment_index": 4, "segment_id": 116 }, "geometry": { "type": "LineString", "coordinates": [ [ 35.2013624, 28.0046467 ], [ 35.2013536, 28.0046216 ] ] } },
{ "type": "Feature", "properties": { "osm_id": 849103846, "highway": "service", "name": "", "segments": 1, "oneway": "no", "surface": "", "lanes": "", "parent_osm_id": 849103846, "segment_index": 5, "segment_id": 117 }, "geometry": { "type": "LineString", "coordinates": [ [ 35.2013536, 28.0046216 ], [ 35.201355, 28.0045954 ] ] } },
{ "type": "Feature", "properties": { "osm_id": 849103846, "highway": "service", "name": "", "segments": 1, "oneway": "no", "surface": "", "lanes": "", "parent_osm_id": 849103846, "segment_index": 6, "segment_id": 118 }, "geometry": { "type": "LineString", "coordinates": [ [ 35.201355, 28.0045954 ], [ 35.2013663, 28.0045711 ] ] } },
{ "type": "Feature", "properties": { "osm_id": 849103846, "highway": "service", "name": "", "segments": 1, "oneway": "no", "surface": "", "lanes": "", "parent_osm_id": 849103846, "segment_index": 7, "segment_id": 119 }, "geometry": { "type": "LineString", "coordinates": [ [ 35.2013663, 28.0045711 ], [ 35.2013843, 28.0045532 ] ] } },
{ "type": "Feature", "properties": { "osm_id": 849103846, "highway": "service", "name": "", "segments": 1, "oneway": "no", "surface": "", "lanes": "", "parent_osm_id": 849103846, "segment_index": 8, "segment_id": 120 }, "geometry": { "type": "LineString", "coordinates": [ [ 35.2013843, 28.0045532 ], [ 35.2014077, 28.004541 ] ] } },
{ "type": "Feature", "properties": { "osm_id": 849103846, "highway": "service", "name": "", "segments": 1, "oneway": "no", "surface": "", "lanes": "", "parent_osm_id": 849103846, "segment_index": 9, "segment_id": 121 }, "geometry": { "type": "LineString", "coordinates": [ [ 35.2014077, 28.004541 ], [ 35.2014342, 28.0045359 ] ] } },
{ "type": "Feature", "properties": { "osm_id": 849103846, "highway": "service", "name": "", "segments": 1, "oneway": "no", "surface": "", "lanes": "", "parent_osm_id": 849103846, "segment_index": 10, "segment_id": 122 }, "geometry": { "type": "LineString", "coordinates": [ [ 35.2014342, 28.0045359 ], [ 35.2014613, 28.0045384 ] ] } },
{ "type": "Feature", "properties": { "osm_id": 849103846, "highway": "service", "name": "", "segments": 1, "oneway": "no", "surface": "", "lanes": "", "parent_osm_id": 849103846, "segment_index": 11, "segment_id": 123 }, "geometry": { "type": "LineString", "coordinates": [ [ 35.2014613, 28.0045384 ], [ 35.2014861, 28.0045481 ] ] } },
{ "type": "Feature", "properties": { "osm_id": 849103846, "highway": "service", "name": "", "segments": 1, "oneway": "no", "surface": "", "lanes": "", "parent_osm_id": 849103846, "segment_index": 12, "segment_id": 124 }, "geometry": { "type": "LineString", "coordinates": [ [ 35.2014861, 28.0045481 ], [ 35.2015062, 28.0045642 ] ] } },
{ "type": "Feature", "properties": { "osm_id": 849103846, "highway": "service", "name": "", "segments": 1, "oneway": "no", "surface": "", "lanes": "", "parent_osm_id": 849103846, "segment_index": 13, "segment_id": 125 }, "geometry": { "type": "LineString", "coordinates": [ [ 35.2015062, 28.0045642 ], [ 35.2015197, 28.004585 ] ] } },
{ "type": "Feature", "properties": { "osm_id": 849103846, "highway": "service", "name": "", "segments": 1, "oneway": "no", "surface": "", "lanes": "", "parent_osm_id": 849103846, "segment_index": 14, "segment_id": 126 }, "geometry": { "type": "LineString", "coordinates": [ [ 35.2015197, 28.004585 ], [ 35.201525, 28.0046061 ] ] } },
{ "type": "Feature", "properties": { "osm_id": 849103846, "highway": "service", "name": "", "segments": 1, "oneway": "no", "surface": "", "lanes": "", "parent_osm_id": 849103846, "segment_index": 15, "segment_id": 127 }, "geometry": { "type": "LineString", "coordinates": [ [ 35.201525, 28.0046061 ], [ 35.2015234, 28.0046277 ] ] } },
{ "type": "Feature", "properties": { "osm_id": 849103846, "highway": "service", "name": "", "segments": 1, "oneway": "no", "surface": "", "lanes": "", "parent_osm_id": 849103846, "segment_index": 16, "segment_id": 128 }, "geometry": { "type": "LineString", "coordinates": [ [ 35.2015234, 28.0046277 ], [ 35.201515, 28.004648 ] ] } },
{ "type": "Feature", "properties": { "osm_id": 849103846, "highway": "service", "name": "", "segments": 1, "oneway": "no", "surface": "", "lanes": "", "parent_osm_id": 849103846, "segment_index": 17, "segment_id": 129 }, "geometry": { "type": "LineString", "coordinates": [ [ 35.201515, 28.004648 ], [ 35.2015004, 28.0046654 ] ] } },
{ "type": "Feature", "properties": { "osm_id": 849103846, "highway": "service", "name": "", "segments": 1, "oneway": "no", "surface": "", "lanes": "", "parent_osm_id": 849103846, "segment_index": 18, "segment_id": 130 }, "geometry": { "type": "LineString", "coordinates": [ [ 35.2015004, 28.0046654 ], [ 35.2014809, 28.0046785 ] ] } },
{ "type": "Feature", "properties": { "osm_id": 849103846, "highway": "service", "name": "", "segments": 1, "oneway": "no", "surface": "", "lanes": "", "parent_osm_id": 849103846, "segment_index": 19, "segment_id": 131 }, "geometry": { "type": "LineString", "coordinates": [ [ 35.2014809, 28.0046785 ], [ 35.2014555, 28.0046866 ] ] } },
{ "type": "Feature", "properties": { "osm_id": 849103863, "highway": "tertiary", "name": "", "segments": 1, "oneway": "yes", "surface": "", "lanes": "2", "parent_osm_id": 849103863, "segment_index": 7, "segment_id": 132 }, "geometry": { "type": "LineString", "coordinates": [ [ 35.2115944, 28.0016613 ], [ 35.2111834, 28.0016486 ] ] } },
{ "type": "Feature", "properties": { "osm_id": 849103863, "highway": "tertiary", "name": "", "segments": 1, "oneway": "yes", "surface": "", "lanes": "2", "parent_osm_id": 849103863, "segment_index": 8, "segment_id": 133 }, "geometry": { "type": "LineString", "coordinates": [ [ 35.2111834, 28.0016486 ], [ 35.2041, 28.0011278 ] ] } },
{ "type": "Feature", "properties": { "osm_id": 849103863, "highway": "tertiary", "name": "", "segments": 1, "oneway": "yes", "surface": "", "lanes": "2", "parent_osm_id": 849103863, "segment_index": 9, "segment_id": 134 }, "geometry": { "type": "LineString", "coordinates": [ [ 35.2041, 28.0011278 ], [ 35.2039624, 28.0011134 ] ] } },
{ "type": "Feature", "properties": { "osm_id": 849103863, "highway": "tertiary", "name": "", "segments": 1, "oneway": "yes", "surface": "", "lanes": "2", "parent_osm_id": 849103863, "segment_index": 10, "segment_id": 135 }, "geometry": { "type": "LineString", "coordinates": [ [ 35.2039624, 28.0011134 ], [ 35.1979269, 28.0006866 ] ] } },
{ "type": "Feature", "properties": { "osm_id": 849103863, "highway": "tertiary", "name": "", "segments": 1, "oneway": "yes", "surface": "", "lanes": "2", "parent_osm_id": 849103863, "segment_index": 11, "segment_id": 136 }, "geometry": { "type": "LineString", "coordinates": [ [ 35.1979269, 28.0006866 ], [ 35.1976981, 28.0006704 ] ] } },
{ "type": "Feature", "properties": { "osm_id": 849103863, "highway": "tertiary", "name": "", "segments": 1, "oneway": "yes", "surface": "", "lanes": "2", "parent_osm_id": 849103863, "segment_index": 12, "segment_id": 137 }, "geometry": { "type": "LineString", "coordinates": [ [ 35.1976981, 28.0006704 ], [ 35.1973692, 28.0006483 ] ] } },
{ "type": "Feature", "properties": { "osm_id": 849103863, "highway": "tertiary", "name": "", "segments": 1, "oneway": "yes", "surface": "", "lanes": "2", "parent_osm_id": 849103863, "segment_index": 13, "segment_id": 138 }, "geometry": { "type": "LineString", "coordinates": [ [ 35.1973692, 28.0006483 ], [ 35.1968771, 28.0006243 ] ] } },
{ "type": "Feature", "properties": { "osm_id": 849103886, "highway": "residential", "name": "", "segments": 1, "oneway": "no", "surface": "", "lanes": "", "parent_osm_id": 849103886, "segment_index": 0, "segment_id": 139 }, "geometry": { "type": "LineString", "coordinates": [ [ 35.2106589, 28.0059551 ], [ 35.2106616, 28.0058973 ] ] } },
{ "type": "Feature", "properties": { "osm_id": 849103886, "highway": "residential", "name": "", "segments": 1, "oneway": "no", "surface": "", "lanes": "", "parent_osm_id": 849103886, "segment_index": 1, "segment_id": 140 }, "geometry": { "type": "LineString", "coordinates": [ [ 35.2106616, 28.0058973 ], [ 35.2106853, 28.0058433 ] ] } },
{ "type": "Feature", "properties": { "osm_id": 849103886, "highway": "residential", "name": "", "segments": 1, "oneway": "no", "surface": "", "lanes": "", "parent_osm_id": 849103886, "segment_index": 2, "segment_id": 141 }, "geometry": { "type": "LineString", "coordinates": [ [ 35.2106853, 28.0058433 ], [ 35.2107274, 28.005799 ] ] } },
{ "type": "Feature", "properties": { "osm_id": 849103886, "highway": "residential", "name": "", "segments": 1, "oneway": "no", "surface": "", "lanes": "", "parent_osm_id": 849103886, "segment_index": 3, "segment_id": 142 }, "geometry": { "type": "LineString", "coordinates": [ [ 35.2107274, 28.005799 ], [ 35.2107846, 28.0057685 ] ] } },
{ "type": "Feature", "properties": { "osm_id": 849103886, "highway": "residential", "name": "", "segments": 1, "oneway": "no", "surface": "", "lanes": "", "parent_osm_id": 849103886, "segment_index": 4, "segment_id": 143 }, "geometry": { "type": "LineString", "coordinates": [ [ 35.2107846, 28.0057685 ], [ 35.21085, 28.0057562 ] ] } },
{ "type": "Feature", "properties": { "osm_id": 849103886, "highway": "residential", "name": "", "segments": 1, "oneway": "no", "surface": "", "lanes": "", "parent_osm_id": 849103886, "segment_index": 5, "segment_id": 144 }, "geometry": { "type": "LineString", "coordinates": [ [ 35.21085, 28.0057562 ], [ 35.2109163, 28.0057636 ] ] } },
{ "type": "Feature", "properties": { "osm_id": 849103886, "highway": "residential", "name": "", "segments": 1, "oneway": "no", "surface": "", "lanes": "", "parent_osm_id": 849103886, "segment_index": 6, "segment_id": 145 }, "geometry": { "type": "LineString", "coordinates": [ [ 35.2109163, 28.0057636 ], [ 35.2109762, 28.0057898 ] ] } },
{ "type": "Feature", "properties": { "osm_id": 849103886, "highway": "residential", "name": "", "segments": 1, "oneway": "no", "surface": "", "lanes": "", "parent_osm_id": 849103886, "segment_index": 7, "segment_id": 146 }, "geometry": { "type": "LineString", "coordinates": [ [ 35.2109762, 28.0057898 ], [ 35.2110227, 28.0058314 ] ] } },
{ "type": "Feature", "properties": { "osm_id": 849103886, "highway": "residential", "name": "", "segments": 1, "oneway": "no", "surface": "", "lanes": "", "parent_osm_id": 849103886, "segment_index": 8, "segment_id": 147 }, "geometry": { "type": "LineString", "coordinates": [ [ 35.2110227, 28.0058314 ], [ 35.2110514, 28.005884 ] ] } },
{ "type": "Feature", "properties": { "osm_id": 849103886, "highway": "residential", "name": "", "segments": 1, "oneway": "no", "surface": "", "lanes": "", "parent_osm_id": 849103886, "segment_index": 9, "segment_id": 148 }, "geometry": { "type": "LineString", "coordinates": [ [ 35.2110514, 28.005884 ], [ 35.2110591, 28.005942 ] ] } },
{ "type": "Feature", "properties": { "osm_id": 849103886, "highway": "residential", "name": "", "segments": 1, "oneway": "no", "surface": "", "lanes": "", "parent_osm_id": 849103886, "segment_index": 10, "segment_id": 149 }, "geometry": { "type": "LineString", "coordinates": [ [ 35.2110591, 28.005942 ], [ 35.2110452, 28.0059991 ] ] } },
{ "type": "Feature", "properties": { "osm_id": 849103886, "highway": "residential", "name": "", "segments": 1, "oneway": "no", "surface": "", "lanes": "", "parent_osm_id": 849103886, "segment_index": 11, "segment_id": 150 }, "geometry": { "type": "LineString", "coordinates": [ [ 35.2110452, 28.0059991 ], [ 35.211011, 28.0060491 ] ] } },
{ "type": "Feature", "properties": { "osm_id": 849103886, "highway": "residential", "name": "", "segments": 1, "oneway": "no", "surface": "", "lanes": "", "parent_osm_id": 849103886, "segment_index": 12, "segment_id": 151 }, "geometry": { "type": "LineString", "coordinates": [ [ 35.211011, 28.0060491 ], [ 35.2109602, 28.0060865 ] ] } },
{ "type": "Feature", "properties": { "osm_id": 849103886, "highway": "residential", "name": "", "segments": 1, "oneway": "no", "surface": "", "lanes": "", "parent_osm_id": 849103886, "segment_index": 13, "segment_id": 152 }, "geometry": { "type": "LineString", "coordinates": [ [ 35.2109602, 28.0060865 ], [ 35.2108985, 28.0061074 ] ] } },
{ "type": "Feature", "properties": { "osm_id": 849103886, "highway": "residential", "name": "", "segments": 1, "oneway": "no", "surface": "", "lanes": "", "parent_osm_id": 849103886, "segment_index": 14, "segment_id": 153 }, "geometry": { "type": "LineString", "coordinates": [ [ 35.2108985, 28.0061074 ], [ 35.2108324, 28.0061095 ] ] } },
{ "type": "Feature", "properties": { "osm_id": 849103886, "highway": "residential", "name": "", "segments": 1, "oneway": "no", "surface": "", "lanes": "", "parent_osm_id": 849103886, "segment_index": 15, "segment_id": 154 }, "geometry": { "type": "LineString", "coordinates": [ [ 35.2108324, 28.0061095 ], [ 35.2107691, 28.0060925 ] ] } },
{ "type": "Feature", "properties": { "osm_id": 849103886, "highway": "residential", "name": "", "segments": 1, "oneway": "no", "surface": "", "lanes": "", "parent_osm_id": 849103886, "segment_index": 16, "segment_id": 155 }, "geometry": { "type": "LineString", "coordinates": [ [ 35.2107691, 28.0060925 ], [ 35.2107155, 28.0060583 ] ] } },
{ "type": "Feature", "properties": { "osm_id": 849103886, "highway": "residential", "name": "", "segments": 1, "oneway": "no", "surface": "", "lanes": "", "parent_osm_id": 849103886, "segment_index": 17, "segment_id": 156 }, "geometry": { "type": "LineString", "coordinates": [ [ 35.2107155, 28.0060583 ], [ 35.2106773, 28.0060106 ] ] } },
{ "type": "Feature", "properties": { "osm_id": 849103886, "highway": "residential", "name": "", "segments": 1, "oneway": "no", "surface": "", "lanes": "", "parent_osm_id": 849103886, "segment_index": 18, "segment_id": 157 }, "geometry": { "type": "LineString", "coordinates": [ [ 35.2106773, 28.0060106 ], [ 35.2106589, 28.0059551 ] ] } },
{ "type": "Feature", "properties": { "osm_id": 849103887, "highway": "residential", "name": "", "segments": 1, "oneway": "yes", "surface": "", "lanes": "", "parent_osm_id": 849103887, "segment_index": 2, "segment_id": 158 }, "geometry": { "type": "LineString", "coordinates": [ [ 35.2113251, 28.0018145 ], [ 35.21128, 28.00189 ] ] } },
{ "type": "Feature", "properties": { "osm_id": 849103887, "highway": "residential", "name": "", "segments": 1, "oneway": "yes", "surface": "", "lanes": "", "parent_osm_id": 849103887, "segment_index": 3, "segment_id": 159 }, "geometry": { "type": "LineString", "coordinates": [ [ 35.21128, 28.00189 ], [ 35.2109376, 28.0056614 ] ] } },
{ "type": "Feature", "properties": { "osm_id": 849103887, "highway": "residential", "name": "", "segments": 1, "oneway": "yes", "surface": "", "lanes": "", "parent_osm_id": 849103887, "segment_index": 4, "segment_id": 160 }, "geometry": { "type": "LineString", "coordinates": [ [ 35.2109376, 28.0056614 ], [ 35.2109762, 28.0057898 ] ] } },
{ "type": "Feature", "properties": { "osm_id": 849103890, "highway": "residential", "name": "", "segments": 1, "oneway": "no", "surface": "", "lanes": "", "parent_osm_id": 849103890, "segment_index": 0, "segment_id": 161 }, "geometry": { "type": "LineString", "coordinates": [ [ 35.2035309, 28.0054455 ], [ 35.20352170000001, 28.0054121 ] ] } },
{ "type": "Feature", "properties": { "osm_id": 849103890, "highway": "residential", "name": "", "segments": 1, "oneway": "no", "surface": "", "lanes": "", "parent_osm_id": 849103890, "segment_index": 1, "segment_id": 162 }, "geometry": { "type": "LineString", "coordinates": [ [ 35.20352170000001, 28.0054121 ], [ 35.2035237, 28.0053778 ] ] } },
{ "type": "Feature", "properties": { "osm_id": 849103890, "highway": "residential", "name": "", "segments": 1, "oneway": "no", "surface": "", "lanes": "", "parent_osm_id": 849103890, "segment_index": 2, "segment_id": 163 }, "geometry": { "type": "LineString", "coordinates": [ [ 35.2035237, 28.0053778 ], [ 35.2035367, 28.0053454 ] ] } },
{ "type": "Feature", "properties": { "osm_id": 849103890, "highway": "residential", "name": "", "segments": 1, "oneway": "no", "surface": "", "lanes": "", "parent_osm_id": 849103890, "segment_index": 3, "segment_id": 164 }, "geometry": { "type": "LineString", "coordinates": [ [ 35.2035367, 28.0053454 ], [ 35.2035555, 28.0053215 ] ] } },
{ "type": "Feature", "properties": { "osm_id": 849103890, "highway": "residential", "name": "", "segments": 1, "oneway": "no", "surface": "", "lanes": "", "parent_osm_id": 849103890, "segment_index": 4, "segment_id": 165 }, "geometry": { "type": "LineString", "coordinates": [ [ 35.2035555, 28.0053215 ], [ 35.2035803, 28.0053023 ] ] } },
{ "type": "Feature", "properties": { "osm_id": 849103890, "highway": "residential", "name": "", "segments": 1, "oneway": "no", "surface": "", "lanes": "", "parent_osm_id": 849103890, "segment_index": 5, "segment_id": 166 }, "geometry": { "type": "LineString", "coordinates": [ [ 35.2035803, 28.0053023 ], [ 35.2036096, 28.005289 ] ] } },
{ "type": "Feature", "properties": { "osm_id": 849103890, "highway": "residential", "name": "", "segments": 1, "oneway": "no", "surface": "", "lanes": "", "parent_osm_id": 849103890, "segment_index": 6, "segment_id": 167 }, "geometry": { "type": "LineString", "coordinates": [ [ 35.2036096, 28.005289 ], [ 35.2036525, 28.0052817 ] ] } },
{ "type": "Feature", "properties": { "osm_id": 849103890, "highway": "residential", "name": "", "segments": 1, "oneway": "no", "surface": "", "lanes": "", "parent_osm_id": 849103890, "segment_index": 7, "segment_id": 168 }, "geometry": { "type": "LineString", "coordinates": [ [ 35.2036525, 28.0052817 ], [ 35.2036958, 28.0052869 ] ] } },
{ "type": "Feature", "properties": { "osm_id": 849103890, "highway": "residential", "name": "", "segments": 1, "oneway": "no", "surface": "", "lanes": "", "parent_osm_id": 849103890, "segment_index": 8, "segment_id": 169 }, "geometry": { "type": "LineString", "coordinates": [ [ 35.2036958, 28.0052869 ], [ 35.203735, 28.005304 ] ] } },
{ "type": "Feature", "properties": { "osm_id": 849103890, "highway": "residential", "name": "", "segments": 1, "oneway": "no", "surface": "", "lanes": "", "parent_osm_id": 849103890, "segment_index": 9, "segment_id": 170 }, "geometry": { "type": "LineString", "coordinates": [ [ 35.203735, 28.005304 ], [ 35.2037591, 28.0053236 ] ] } },
{ "type": "Feature", "properties": { "osm_id": 849103890, "highway": "residential", "name": "", "segments": 1, "oneway": "no", "surface": "", "lanes": "", "parent_osm_id": 849103890, "segment_index": 10, "segment_id": 171 }, "geometry": { "type": "LineString", "coordinates": [ [ 35.2037591, 28.0053236 ], [ 35.2037772, 28.0053477 ] ] } },
{ "type": "Feature", "properties": { "osm_id": 849103890, "highway": "residential", "name": "", "segments": 1, "oneway": "no", "surface": "", "lanes": "", "parent_osm_id": 849103890, "segment_index": 11, "segment_id": 172 }, "geometry": { "type": "LineString", "coordinates": [ [ 35.2037772, 28.0053477 ], [ 35.2037897, 28.0053817 ] ] } },
{ "type": "Feature", "properties": { "osm_id": 849103890, "highway": "residential", "name": "", "segments": 1, "oneway": "no", "surface": "", "lanes": "", "parent_osm_id": 849103890, "segment_index": 12, "segment_id": 173 }, "geometry": { "type": "LineString", "coordinates": [ [ 35.2037897, 28.0053817 ], [ 35.2037902, 28.0054175 ] ] } },
{ "type": "Feature", "properties": { "osm_id": 849103890, "highway": "residential", "name": "", "segments": 1, "oneway": "no", "surface": "", "lanes": "", "parent_osm_id": 849103890, "segment_index": 13, "segment_id": 174 }, "geometry": { "type": "LineString", "coordinates": [ [ 35.2037902, 28.0054175 ], [ 35.2037786, 28.0054517 ] ] } },
{ "type": "Feature", "properties": { "osm_id": 849103890, "highway": "residential", "name": "", "segments": 1, "oneway": "no", "surface": "", "lanes": "", "parent_osm_id": 849103890, "segment_index": 14, "segment_id": 175 }, "geometry": { "type": "LineString", "coordinates": [ [ 35.2037786, 28.0054517 ], [ 35.2037561, 28.0054815 ] ] } },
{ "type": "Feature", "properties": { "osm_id": 849103890, "highway": "residential", "name": "", "segments": 1, "oneway": "no", "surface": "", "lanes": "", "parent_osm_id": 849103890, "segment_index": 15, "segment_id": 176 }, "geometry": { "type": "LineString", "coordinates": [ [ 35.2037561, 28.0054815 ], [ 35.2037193, 28.0055066 ] ] } },
{ "type": "Feature", "properties": { "osm_id": 849103890, "highway": "residential", "name": "", "segments": 1, "oneway": "no", "surface": "", "lanes": "", "parent_osm_id": 849103890, "segment_index": 16, "segment_id": 177 }, "geometry": { "type": "LineString", "coordinates": [ [ 35.2037193, 28.0055066 ], [ 35.2036749, 28.0055192 ] ] } },
{ "type": "Feature", "properties": { "osm_id": 849103890, "highway": "residential", "name": "", "segments": 1, "oneway": "no", "surface": "", "lanes": "", "parent_osm_id": 849103890, "segment_index": 17, "segment_id": 178 }, "geometry": { "type": "LineString", "coordinates": [ [ 35.2036749, 28.0055192 ], [ 35.2036284, 28.0055178 ] ] } },
{ "type": "Feature", "properties": { "osm_id": 849103890, "highway": "residential", "name": "", "segments": 1, "oneway": "no", "surface": "", "lanes": "", "parent_osm_id": 849103890, "segment_index": 18, "segment_id": 179 }, "geometry": { "type": "LineString", "coordinates": [ [ 35.2036284, 28.0055178 ], [ 35.2035852, 28.0055025 ] ] } },
{ "type": "Feature", "properties": { "osm_id": 849103890, "highway": "residential", "name": "", "segments": 1, "oneway": "no", "surface": "", "lanes": "", "parent_osm_id": 849103890, "segment_index": 19, "segment_id": 180 }, "geometry": { "type": "LineString", "coordinates": [ [ 35.2035852, 28.0055025 ], [ 35.2035504, 28.0054752 ] ] } },
{ "type": "Feature", "properties": { "osm_id": 849103890, "highway": "residential", "name": "", "segments": 1, "oneway": "no", "surface": "", "lanes": "", "parent_osm_id": 849103890, "segment_index": 20, "segment_id": 181 }, "geometry": { "type": "LineString", "coordinates": [ [ 35.2035504, 28.0054752 ], [ 35.2035309, 28.0054455 ] ] } },
{ "type": "Feature", "properties": { "osm_id": 849103891, "highway": "service", "name": "", "segments": 1, "oneway": "no", "surface": "", "lanes": "", "parent_osm_id": 849103891, "segment_index": 0, "segment_id": 182 }, "geometry": { "type": "LineString", "coordinates": [ [ 35.2049753, 28.0045861 ], [ 35.2050105, 28.0041695 ] ] } },
{ "type": "Feature", "properties": { "osm_id": 849103891, "highway": "service", "name": "", "segments": 1, "oneway": "no", "surface": "", "lanes": "", "parent_osm_id": 849103891, "segment_index": 1, "segment_id": 183 }, "geometry": { "type": "LineString", "coordinates": [ [ 35.2050105, 28.0041695 ], [ 35.2051177, 28.0029011 ] ] } },
{ "type": "Feature", "properties": { "osm_id": 849103892, "highway": "service", "name": "", "segments": 1, "oneway": "no", "surface": "", "lanes": "", "parent_osm_id": 849103892, "segment_index": 0, "segment_id": 184 }, "geometry": { "type": "LineString", "coordinates": [ [ 35.2073213, 28.0046903 ], [ 35.2082404, 28.0047597 ] ] } },
{ "type": "Feature", "properties": { "osm_id": 849103892, "highway": "service", "name": "", "segments": 1, "oneway": "no", "surface": "", "lanes": "", "parent_osm_id": 849103892, "segment_index": 1, "segment_id": 185 }, "geometry": { "type": "LineString", "coordinates": [ [ 35.2082404, 28.0047597 ], [ 35.2083048, 28.0047029 ] ] } },
{ "type": "Feature", "properties": { "osm_id": 849103892, "highway": "service", "name": "", "segments": 1, "oneway": "no", "surface": "", "lanes": "", "parent_osm_id": 849103892, "segment_index": 2, "segment_id": 186 }, "geometry": { "type": "LineString", "coordinates": [ [ 35.2083048, 28.0047029 ], [ 35.2083851, 28.0039409 ] ] } },
{ "type": "Feature", "properties": { "osm_id": 849103892, "highway": "service", "name": "", "segments": 1, "oneway": "no", "surface": "", "lanes": "", "parent_osm_id": 849103892, "segment_index": 3, "segment_id": 187 }, "geometry": { "type": "LineString", "coordinates": [ [ 35.2083851, 28.0039409 ], [ 35.2084034, 28.0037675 ] ] } },
{ "type": "Feature", "properties": { "osm_id": 849103892, "highway": "service", "name": "", "segments": 1, "oneway": "no", "surface": "", "lanes": "", "parent_osm_id": 849103892, "segment_index": 4, "segment_id": 188 }, "geometry": { "type": "LineString", "coordinates": [ [ 35.2084034, 28.0037675 ], [ 35.2084586, 28.0032441 ] ] } },
{ "type": "Feature", "properties": { "osm_id": 849103892, "highway": "service", "name": "", "segments": 1, "oneway": "no", "surface": "", "lanes": "", "parent_osm_id": 849103892, "segment_index": 5, "segment_id": 189 }, "geometry": { "type": "LineString", "coordinates": [ [ 35.2084586, 28.0032441 ], [ 35.2084371, 28.003162 ] ] } },
{ "type": "Feature", "properties": { "osm_id": 849103892, "highway": "service", "name": "", "segments": 1, "oneway": "no", "surface": "", "lanes": "", "parent_osm_id": 849103892, "segment_index": 6, "segment_id": 190 }, "geometry": { "type": "LineString", "coordinates": [ [ 35.2084371, 28.003162 ], [ 35.2083656, 28.0031336 ] ] } },
{ "type": "Feature", "properties": { "osm_id": 849103892, "highway": "service", "name": "", "segments": 1, "oneway": "no", "surface": "", "lanes": "", "parent_osm_id": 849103892, "segment_index": 7, "segment_id": 191 }, "geometry": { "type": "LineString", "coordinates": [ [ 35.2083656, 28.0031336 ], [ 35.2074638, 28.003069 ] ] } },
{ "type": "Feature", "properties": { "osm_id": 849103892, "highway": "service", "name": "", "segments": 1, "oneway": "no", "surface": "", "lanes": "", "parent_osm_id": 849103892, "segment_index": 8, "segment_id": 192 }, "geometry": { "type": "LineString", "coordinates": [ [ 35.2074638, 28.003069 ], [ 35.2051177, 28.0029011 ] ] } },
{ "type": "Feature", "properties": { "osm_id": 849103892, "highway": "service", "name": "", "segments": 1, "oneway": "no", "surface": "", "lanes": "", "parent_osm_id": 849103892, "segment_index": 9, "segment_id": 193 }, "geometry": { "type": "LineString", "coordinates": [ [ 35.2051177, 28.0029011 ], [ 35.2041313, 28.0028305 ] ] } },
{ "type": "Feature", "properties": { "osm_id": 849103892, "highway": "service", "name": "", "segments": 1, "oneway": "no", "surface": "", "lanes": "", "parent_osm_id": 849103892, "segment_index": 10, "segment_id": 194 }, "geometry": { "type": "LineString", "coordinates": [ [ 35.2041313, 28.0028305 ], [ 35.2040598, 28.0028905 ] ] } },
{ "type": "Feature", "properties": { "osm_id": 849103892, "highway": "service", "name": "", "segments": 1, "oneway": "no", "surface": "", "lanes": "", "parent_osm_id": 849103892, "segment_index": 11, "segment_id": 195 }, "geometry": { "type": "LineString", "coordinates": [ [ 35.2040598, 28.0028905 ], [ 35.2039525, 28.0040209 ] ] } },
{ "type": "Feature", "properties": { "osm_id": 849103892, "highway": "service", "name": "", "segments": 1, "oneway": "no", "surface": "", "lanes": "", "parent_osm_id": 849103892, "segment_index": 12, "segment_id": 196 }, "geometry": { "type": "LineString", "coordinates": [ [ 35.2039525, 28.0040209 ], [ 35.2040276, 28.004163 ] ] } },
{ "type": "Feature", "properties": { "osm_id": 849103892, "highway": "service", "name": "", "segments": 1, "oneway": "no", "surface": "", "lanes": "", "parent_osm_id": 849103892, "segment_index": 13, "segment_id": 197 }, "geometry": { "type": "LineString", "coordinates": [ [ 35.2040276, 28.004163 ], [ 35.2046642, 28.0042103 ] ] } },
{ "type": "Feature", "properties": { "osm_id": 849103892, "highway": "service", "name": "", "segments": 1, "oneway": "no", "surface": "", "lanes": "", "parent_osm_id": 849103892, "segment_index": 14, "segment_id": 198 }, "geometry": { "type": "LineString", "coordinates": [ [ 35.2046642, 28.0042103 ], [ 35.2048179, 28.0041598 ] ] } },
{ "type": "Feature", "properties": { "osm_id": 849103892, "highway": "service", "name": "", "segments": 1, "oneway": "no", "surface": "", "lanes": "", "parent_osm_id": 849103892, "segment_index": 15, "segment_id": 199 }, "geometry": { "type": "LineString", "coordinates": [ [ 35.2048179, 28.0041598 ], [ 35.2050105, 28.0041695 ] ] } },
{ "type": "Feature", "properties": { "osm_id": 849103892, "highway": "service", "name": "", "segments": 1, "oneway": "no", "surface": "", "lanes": "", "parent_osm_id": 849103892, "segment_index": 16, "segment_id": 200 }, "geometry": { "type": "LineString", "coordinates": [ [ 35.2050105, 28.0041695 ], [ 35.2055249, 28.0042064 ] ] } },
{ "type": "Feature", "properties": { "osm_id": 849103892, "highway": "service", "name": "", "segments": 1, "oneway": "no", "surface": "", "lanes": "", "parent_osm_id": 849103892, "segment_index": 17, "segment_id": 201 }, "geometry": { "type": "LineString", "coordinates": [ [ 35.2055249, 28.0042064 ], [ 35.2064442, 28.0042725 ] ] } },
{ "type": "Feature", "properties": { "osm_id": 849103892, "highway": "service", "name": "", "segments": 1, "oneway": "no", "surface": "", "lanes": "", "parent_osm_id": 849103892, "segment_index": 18, "segment_id": 202 }, "geometry": { "type": "LineString", "coordinates": [ [ 35.2064442, 28.0042725 ], [ 35.2068998, 28.0043053 ] ] } },
{ "type": "Feature", "properties": { "osm_id": 849103892, "highway": "service", "name": "", "segments": 1, "oneway": "no", "surface": "", "lanes": "", "parent_osm_id": 849103892, "segment_index": 19, "segment_id": 203 }, "geometry": { "type": "LineString", "coordinates": [ [ 35.2068998, 28.0043053 ], [ 35.2073523, 28.0043378 ] ] } },
{ "type": "Feature", "properties": { "osm_id": 849103893, "highway": "service", "name": "", "segments": 1, "oneway": "yes", "surface": "", "lanes": "", "parent_osm_id": 849103893, "segment_index": 0, "segment_id": 204 }, "geometry": { "type": "LineString", "coordinates": [ [ 35.2048519, 28.0054344 ], [ 35.2048805, 28.0053973 ] ] } },
{ "type": "Feature", "properties": { "osm_id": 849103893, "highway": "service", "name": "", "segments": 1, "oneway": "yes", "surface": "", "lanes": "", "parent_osm_id": 849103893, "segment_index": 1, "segment_id": 205 }, "geometry": { "type": "LineString", "coordinates": [ [ 35.2048805, 28.0053973 ], [ 35.2049089, 28.0051643 ] ] } },
{ "type": "Feature", "properties": { "osm_id": 849103893, "highway": "service", "name": "", "segments": 1, "oneway": "yes", "surface": "", "lanes": "", "parent_osm_id": 849103893, "segment_index": 2, "segment_id": 206 }, "geometry": { "type": "LineString", "coordinates": [ [ 35.2049089, 28.0051643 ], [ 35.2048895, 28.0050723 ] ] } },
{ "type": "Feature", "properties": { "osm_id": 849103893, "highway": "service", "name": "", "segments": 1, "oneway": "yes", "surface": "", "lanes": "", "parent_osm_id": 849103893, "segment_index": 3, "segment_id": 207 }, "geometry": { "type": "LineString", "coordinates": [ [ 35.2048895, 28.0050723 ], [ 35.2049044, 28.004876 ] ] } },
{ "type": "Feature", "properties": { "osm_id": 849103893, "highway": "service", "name": "", "segments": 1, "oneway": "yes", "surface": "", "lanes": "", "parent_osm_id": 849103893, "segment_index": 4, "segment_id": 208 }, "geometry": { "type": "LineString", "coordinates": [ [ 35.2049044, 28.004876 ], [ 35.2049118, 28.0047796 ] ] } },
{ "type": "Feature", "properties": { "osm_id": 849103893, "highway": "service", "name": "", "segments": 1, "oneway": "yes", "surface": "", "lanes": "", "parent_osm_id": 849103893, "segment_index": 5, "segment_id": 209 }, "geometry": { "type": "LineString", "coordinates": [ [ 35.2049118, 28.0047796 ], [ 35.2049181, 28.0046966 ] ] } },
{ "type": "Feature", "properties": { "osm_id": 849103893, "highway": "service", "name": "", "segments": 1, "oneway": "yes", "surface": "", "lanes": "", "parent_osm_id": 849103893, "segment_index": 6, "segment_id": 210 }, "geometry": { "type": "LineString", "coordinates": [ [ 35.2049181, 28.0046966 ], [ 35.2049753, 28.0045861 ] ] } },
{ "type": "Feature", "properties": { "osm_id": 849103894, "highway": "service", "name": "", "segments": 1, "oneway": "yes", "surface": "", "lanes": "", "parent_osm_id": 849103894, "segment_index": 0, "segment_id": 211 }, "geometry": { "type": "LineString", "coordinates": [ [ 35.2049753, 28.0045861 ], [ 35.2050025, 28.0047 ] ] } },
{ "type": "Feature", "properties": { "osm_id": 849103894, "highway": "service", "name": "", "segments": 1, "oneway": "yes", "surface": "", "lanes": "", "parent_osm_id": 849103894, "segment_index": 1, "segment_id": 212 }, "geometry": { "type": "LineString", "coordinates": [ [ 35.2050025, 28.0047 ], [ 35.2050001, 28.0047861 ] ] } },
{ "type": "Feature", "properties": { "osm_id": 849103894, "highway": "service", "name": "", "segments": 1, "oneway": "yes", "surface": "", "lanes": "", "parent_osm_id": 849103894, "segment_index": 2, "segment_id": 213 }, "geometry": { "type": "LineString", "coordinates": [ [ 35.2050001, 28.0047861 ], [ 35.2049919, 28.0048822 ] ] } },
{ "type": "Feature", "properties": { "osm_id": 849103894, "highway": "service", "name": "", "segments": 1, "oneway": "yes", "surface": "", "lanes": "", "parent_osm_id": 849103894, "segment_index": 3, "segment_id": 214 }, "geometry": { "type": "LineString", "coordinates": [ [ 35.2049919, 28.0048822 ], [ 35.204977, 28.0050584 ] ] } },
{ "type": "Feature", "properties": { "osm_id": 849103894, "highway": "service", "name": "", "segments": 1, "oneway": "yes", "surface": "", "lanes": "", "parent_osm_id": 849103894, "segment_index": 4, "segment_id": 215 }, "geometry": { "type": "LineString", "coordinates": [ [ 35.204977, 28.0050584 ], [ 35.2049344, 28.0051718 ] ] } },
{ "type": "Feature", "properties": { "osm_id": 849103894, "highway": "service", "name": "", "segments": 1, "oneway": "yes", "surface": "", "lanes": "", "parent_osm_id": 849103894, "segment_index": 5, "segment_id": 216 }, "geometry": { "type": "LineString", "coordinates": [ [ 35.2049344, 28.0051718 ], [ 35.2049089, 28.0053973 ] ] } },
{ "type": "Feature", "properties": { "osm_id": 849103894, "highway": "service", "name": "", "segments": 1, "oneway": "yes", "surface": "", "lanes": "", "parent_osm_id": 849103894, "segment_index": 6, "segment_id": 217 }, "geometry": { "type": "LineString", "coordinates": [ [ 35.2049089, 28.0053973 ], [ 35.2049313, 28.0054402 ] ] } },
{ "type": "Feature", "properties": { "osm_id": 849103895, "highway": "service", "name": "", "segments": 1, "oneway": "no", "surface": "", "lanes": "", "parent_osm_id": 849103895, "segment_index": 0, "segment_id": 218 }, "geometry": { "type": "LineString", "coordinates": [ [ 35.2049044, 28.004876 ], [ 35.2049919, 28.0048822 ] ] } },
{ "type": "Feature", "properties": { "osm_id": 849103895, "highway": "service", "name": "", "segments": 1, "oneway": "no", "surface": "", "lanes": "", "parent_osm_id": 849103895, "segment_index": 1, "segment_id": 219 }, "geometry": { "type": "LineString", "coordinates": [ [ 35.2049919, 28.0048822 ], [ 35.2066297, 28.0049987 ] ] } },
{ "type": "Feature", "properties": { "osm_id": 849103895, "highway": "service", "name": "", "segments": 1, "oneway": "no", "surface": "", "lanes": "", "parent_osm_id": 849103895, "segment_index": 2, "segment_id": 220 }, "geometry": { "type": "LineString", "coordinates": [ [ 35.2066297, 28.0049987 ], [ 35.2072273, 28.0050412 ] ] } },
{ "type": "Feature", "properties": { "osm_id": 849103895, "highway": "service", "name": "", "segments": 1, "oneway": "no", "surface": "", "lanes": "", "parent_osm_id": 849103895, "segment_index": 3, "segment_id": 221 }, "geometry": { "type": "LineString", "coordinates": [ [ 35.2072273, 28.0050412 ], [ 35.2073273, 28.0050484 ] ] } },
{ "type": "Feature", "properties": { "osm_id": 849103896, "highway": "service", "name": "", "segments": 1, "oneway": "no", "surface": "", "lanes": "", "parent_osm_id": 849103896, "segment_index": 0, "segment_id": 222 }, "geometry": { "type": "LineString", "coordinates": [ [ 35.2051334, 28.00556 ], [ 35.2051418, 28.0054555 ] ] } },
{ "type": "Feature", "properties": { "osm_id": 849103896, "highway": "service", "name": "", "segments": 1, "oneway": "no", "surface": "", "lanes": "", "parent_osm_id": 849103896, "segment_index": 1, "segment_id": 223 }, "geometry": { "type": "LineString", "coordinates": [ [ 35.2051418, 28.0054555 ], [ 35.2051757, 28.005069 ] ] } },
{ "type": "Feature", "properties": { "osm_id": 849103896, "highway": "service", "name": "", "segments": 1, "oneway": "no", "surface": "", "lanes": "", "parent_osm_id": 849103896, "segment_index": 2, "segment_id": 224 }, "geometry": { "type": "LineString", "coordinates": [ [ 35.2051757, 28.005069 ], [ 35.2054624, 28.0050941 ] ] } },
{ "type": "Feature", "properties": { "osm_id": 849103896, "highway": "service", "name": "", "segments": 1, "oneway": "no", "surface": "", "lanes": "", "parent_osm_id": 849103896, "segment_index": 3, "segment_id": 225 }, "geometry": { "type": "LineString", "coordinates": [ [ 35.2054624, 28.0050941 ], [ 35.2054312, 28.0054766 ] ] } },
{ "type": "Feature", "properties": { "osm_id": 849103896, "highway": "service", "name": "", "segments": 1, "oneway": "no", "surface": "", "lanes": "", "parent_osm_id": 849103896, "segment_index": 4, "segment_id": 226 }, "geometry": { "type": "LineString", "coordinates": [ [ 35.2054312, 28.0054766 ], [ 35.2054197, 28.0055814 ] ] } },
{ "type": "Feature", "properties": { "osm_id": 849103897, "highway": "service", "name": "", "segments": 1, "oneway": "no", "surface": "", "lanes": "", "parent_osm_id": 849103897, "segment_index": 0, "segment_id": 227 }, "geometry": { "type": "LineString", "coordinates": [ [ 35.2059651, 28.0056223 ], [ 35.2059734, 28.0055161 ] ] } },
{ "type": "Feature", "properties": { "osm_id": 849103897, "highway": "service", "name": "", "segments": 1, "oneway": "no", "surface": "", "lanes": "", "parent_osm_id": 849103897, "segment_index": 1, "segment_id": 228 }, "geometry": { "type": "LineString", "coordinates": [ [ 35.2059734, 28.0055161 ], [ 35.2059932, 28.0053071 ] ] } },
{ "type": "Feature", "properties": { "osm_id": 849103898, "highway": "service", "name": "", "segments": 1, "oneway": "no", "surface": "", "lanes": "", "parent_osm_id": 849103898, "segment_index": 0, "segment_id": 229 }, "geometry": { "type": "LineString", "coordinates": [ [ 35.2066297, 28.0049987 ], [ 35.2065949, 28.0054449 ] ] } },
{ "type": "Feature", "properties": { "osm_id": 849103899, "highway": "service", "name": "", "segments": 1, "oneway": "yes", "surface": "", "lanes": "", "parent_osm_id": 849103899, "segment_index": 0, "segment_id": 230 }, "geometry": { "type": "LineString", "coordinates": [ [ 35.2071793, 28.005604 ], [ 35.2072194, 28.0055552 ] ] } },
{ "type": "Feature", "properties": { "osm_id": 849103899, "highway": "service", "name": "", "segments": 1, "oneway": "yes", "surface": "", "lanes": "", "parent_osm_id": 849103899, "segment_index": 1, "segment_id": 231 }, "geometry": { "type": "LineString", "coordinates": [ [ 35.2072194, 28.0055552 ], [ 35.2072364, 28.0053798 ] ] } },
{ "type": "Feature", "properties": { "osm_id": 849103899, "highway": "service", "name": "", "segments": 1, "oneway": "yes", "surface": "", "lanes": "", "parent_osm_id": 849103899, "segment_index": 2, "segment_id": 232 }, "geometry": { "type": "LineString", "coordinates": [ [ 35.2072364, 28.0053798 ], [ 35.2072279, 28.0052495 ] ] } },
{ "type": "Feature", "properties": { "osm_id": 849103899, "highway": "service", "name": "", "segments": 1, "oneway": "yes", "surface": "", "lanes": "", "parent_osm_id": 849103899, "segment_index": 3, "segment_id": 233 }, "geometry": { "type": "LineString", "coordinates": [ [ 35.2072279, 28.0052495 ], [ 35.2072273, 28.0050412 ] ] } },
{ "type": "Feature", "properties": { "osm_id": 849103899, "highway": "service", "name": "", "segments": 1, "oneway": "yes", "surface": "", "lanes": "", "parent_osm_id": 849103899, "segment_index": 4, "segment_id": 234 }, "geometry": { "type": "LineString", "coordinates": [ [ 35.2072273, 28.0050412 ], [ 35.2072387, 28.0049521 ] ] } },
{ "type": "Feature", "properties": { "osm_id": 849103899, "highway": "service", "name": "", "segments": 1, "oneway": "yes", "surface": "", "lanes": "", "parent_osm_id": 849103899, "segment_index": 5, "segment_id": 235 }, "geometry": { "type": "LineString", "coordinates": [ [ 35.2072387, 28.0049521 ], [ 35.2072535, 28.0048335 ] ] } },
{ "type": "Feature", "properties": { "osm_id": 849103899, "highway": "service", "name": "", "segments": 1, "oneway": "yes", "surface": "", "lanes": "", "parent_osm_id": 849103899, "segment_index": 6, "segment_id": 236 }, "geometry": { "type": "LineString", "coordinates": [ [ 35.2072535, 28.0048335 ], [ 35.2073213, 28.0046903 ] ] } },
{ "type": "Feature", "properties": { "osm_id": 849103900, "highway": "service", "name": "", "segments": 1, "oneway": "yes", "surface": "", "lanes": "", "parent_osm_id": 849103900, "segment_index": 0, "segment_id": 237 }, "geometry": { "type": "LineString", "coordinates": [ [ 35.2073213, 28.0046903 ], [ 35.2073528, 28.0048736 ] ] } },
{ "type": "Feature", "properties": { "osm_id": 849103900, "highway": "service", "name": "", "segments": 1, "oneway": "yes", "surface": "", "lanes": "", "parent_osm_id": 849103900, "segment_index": 1, "segment_id": 238 }, "geometry": { "type": "LineString", "coordinates": [ [ 35.2073528, 28.0048736 ], [ 35.2073439, 28.0049599 ] ] } },
{ "type": "Feature", "properties": { "osm_id": 849103900, "highway": "service", "name": "", "segments": 1, "oneway": "yes", "surface": "", "lanes": "", "parent_osm_id": 849103900, "segment_index": 2, "segment_id": 239 }, "geometry": { "type": "LineString", "coordinates": [ [ 35.2073439, 28.0049599 ], [ 35.2073273, 28.0050484 ] ] } },
{ "type": "Feature", "properties": { "osm_id": 849103900, "highway": "service", "name": "", "segments": 1, "oneway": "yes", "surface": "", "lanes": "", "parent_osm_id": 849103900, "segment_index": 3, "segment_id": 240 }, "geometry": { "type": "LineString", "coordinates": [ [ 35.2073273, 28.0050484 ], [ 35.2073017, 28.0052745 ] ] } },
{ "type": "Feature", "properties": { "osm_id": 849103900, "highway": "service", "name": "", "segments": 1, "oneway": "yes", "surface": "", "lanes": "", "parent_osm_id": 849103900, "segment_index": 4, "segment_id": 241 }, "geometry": { "type": "LineString", "coordinates": [ [ 35.2073017, 28.0052745 ], [ 35.2072677, 28.0053798 ] ] } },
{ "type": "Feature", "properties": { "osm_id": 849103900, "highway": "service", "name": "", "segments": 1, "oneway": "yes", "surface": "", "lanes": "", "parent_osm_id": 849103900, "segment_index": 5, "segment_id": 242 }, "geometry": { "type": "LineString", "coordinates": [ [ 35.2072677, 28.0053798 ], [ 35.2072506, 28.0055577 ] ] } },
{ "type": "Feature", "properties": { "osm_id": 849103900, "highway": "service", "name": "", "segments": 1, "oneway": "yes", "surface": "", "lanes": "", "parent_osm_id": 849103900, "segment_index": 6, "segment_id": 243 }, "geometry": { "type": "LineString", "coordinates": [ [ 35.2072506, 28.0055577 ], [ 35.2072672, 28.0056104 ] ] } },
{ "type": "Feature", "properties": { "osm_id": 849103902, "highway": "service", "name": "", "segments": 1, "oneway": "yes", "surface": "", "lanes": "", "parent_osm_id": 849103902, "segment_index": 0, "segment_id": 244 }, "geometry": { "type": "LineString", "coordinates": [ [ 35.2077645, 28.0056467 ], [ 35.2078149, 28.0055586 ] ] } },
{ "type": "Feature", "properties": { "osm_id": 849103902, "highway": "service", "name": "", "segments": 1, "oneway": "yes", "surface": "", "lanes": "", "parent_osm_id": 849103902, "segment_index": 1, "segment_id": 245 }, "geometry": { "type": "LineString", "coordinates": [ [ 35.2078149, 28.0055586 ], [ 35.2078137, 28.0054259 ] ] } },
{ "type": "Feature", "properties": { "osm_id": 849103903, "highway": "service", "name": "", "segments": 1, "oneway": "yes", "surface": "", "lanes": "", "parent_osm_id": 849103903, "segment_index": 0, "segment_id": 246 }, "geometry": { "type": "LineString", "coordinates": [ [ 35.2079777, 28.0054378 ], [ 35.2079488, 28.0055685 ] ] } },
{ "type": "Feature", "properties": { "osm_id": 849103903, "highway": "service", "name": "", "segments": 1, "oneway": "yes", "surface": "", "lanes": "", "parent_osm_id": 849103903, "segment_index": 1, "segment_id": 247 }, "geometry": { "type": "LineString", "coordinates": [ [ 35.2079488, 28.0055685 ], [ 35.2079745, 28.005662 ] ] } },
{ "type": "Feature", "properties": { "osm_id": 849103904, "highway": "service", "name": "", "segments": 1, "oneway": "no", "surface": "", "lanes": "", "parent_osm_id": 849103904, "segment_index": 0, "segment_id": 248 }, "geometry": { "type": "LineString", "coordinates": [ [ 35.2082227, 28.0054556 ], [ 35.2079777, 28.0054378 ] ] } },
{ "type": "Feature", "properties": { "osm_id": 849103904, "highway": "service", "name": "", "segments": 1, "oneway": "no", "surface": "", "lanes": "", "parent_osm_id": 849103904, "segment_index": 1, "segment_id": 249 }, "geometry": { "type": "LineString", "coordinates": [ [ 35.2079777, 28.0054378 ], [ 35.2078137, 28.0054259 ] ] } },
{ "type": "Feature", "properties": { "osm_id": 849103904, "highway": "service", "name": "", "segments": 1, "oneway": "no", "surface": "", "lanes": "", "parent_osm_id": 849103904, "segment_index": 2, "segment_id": 250 }, "geometry": { "type": "LineString", "coordinates": [ [ 35.2078137, 28.0054259 ], [ 35.2075893, 28.0054096 ] ] } },
{ "type": "Feature", "properties": { "osm_id": 849103904, "highway": "service", "name": "", "segments": 1, "oneway": "no", "surface": "", "lanes": "", "parent_osm_id": 849103904, "segment_index": 3, "segment_id": 251 }, "geometry": { "type": "LineString", "coordinates": [ [ 35.2075893, 28.0054096 ], [ 35.2076351, 28.0049176 ] ] } },
{ "type": "Feature", "properties": { "osm_id": 849103904, "highway": "service", "name": "", "segments": 1, "oneway": "no", "surface": "", "lanes": "", "parent_osm_id": 849103904, "segment_index": 4, "segment_id": 252 }, "geometry": { "type": "LineString", "coordinates": [ [ 35.2076351, 28.0049176 ], [ 35.2082685, 28.0049636 ] ] } },
{ "type": "Feature", "properties": { "osm_id": 849103904, "highway": "service", "name": "", "segments": 1, "oneway": "no", "surface": "", "lanes": "", "parent_osm_id": 849103904, "segment_index": 5, "segment_id": 253 }, "geometry": { "type": "LineString", "coordinates": [ [ 35.2082685, 28.0049636 ], [ 35.2082227, 28.0054556 ] ] } },
{ "type": "Feature", "properties": { "osm_id": 849103905, "highway": "service", "name": "", "segments": 1, "oneway": "no", "surface": "", "lanes": "", "parent_osm_id": 849103905, "segment_index": 0, "segment_id": 254 }, "geometry": { "type": "LineString", "coordinates": [ [ 35.2073213, 28.0046903 ], [ 35.2073523, 28.0043378 ] ] } },
{ "type": "Feature", "properties": { "osm_id": 849103905, "highway": "service", "name": "", "segments": 1, "oneway": "no", "surface": "", "lanes": "", "parent_osm_id": 849103905, "segment_index": 1, "segment_id": 255 }, "geometry": { "type": "LineString", "coordinates": [ [ 35.2073523, 28.0043378 ], [ 35.2073921, 28.0038843 ] ] } },
{ "type": "Feature", "properties": { "osm_id": 849103905, "highway": "service", "name": "", "segments": 1, "oneway": "no", "surface": "", "lanes": "", "parent_osm_id": 849103905, "segment_index": 2, "segment_id": 256 }, "geometry": { "type": "LineString", "coordinates": [ [ 35.2073921, 28.0038843 ], [ 35.2074077, 28.0037074 ] ] } },
{ "type": "Feature", "properties": { "osm_id": 849103905, "highway": "service", "name": "", "segments": 1, "oneway": "no", "surface": "", "lanes": "", "parent_osm_id": 849103905, "segment_index": 3, "segment_id": 257 }, "geometry": { "type": "LineString", "coordinates": [ [ 35.2074077, 28.0037074 ], [ 35.2074638, 28.003069 ] ] } },
{ "type": "Feature", "properties": { "osm_id": 849103906, "highway": "service", "name": "", "segments": 1, "oneway": "no", "surface": "", "lanes": "", "parent_osm_id": 849103906, "segment_index": 0, "segment_id": 258 }, "geometry": { "type": "LineString", "coordinates": [ [ 35.2064442, 28.0042725 ], [ 35.2063906, 28.004841 ] ] } },
{ "type": "Feature", "properties": { "osm_id": 849103906, "highway": "service", "name": "", "segments": 1, "oneway": "no", "surface": "", "lanes": "", "parent_osm_id": 849103906, "segment_index": 1, "segment_id": 259 }, "geometry": { "type": "LineString", "coordinates": [ [ 35.2063906, 28.004841 ], [ 35.2054936, 28.0047733 ] ] } },
{ "type": "Feature", "properties": { "osm_id": 849103906, "highway": "service", "name": "", "segments": 1, "oneway": "no", "surface": "", "lanes": "", "parent_osm_id": 849103906, "segment_index": 2, "segment_id": 260 }, "geometry": { "type": "LineString", "coordinates": [ [ 35.2054936, 28.0047733 ], [ 35.2055249, 28.0042064 ] ] } },
{ "type": "Feature", "properties": { "osm_id": 849103982, "highway": "service", "name": "", "segments": 1, "oneway": "no", "surface": "", "lanes": "", "parent_osm_id": 849103982, "segment_index": 0, "segment_id": 261 }, "geometry": { "type": "LineString", "coordinates": [ [ 35.2074077, 28.0037074 ], [ 35.2084034, 28.0037675 ] ] } },
{ "type": "Feature", "properties": { "osm_id": 849103983, "highway": "service", "name": "", "segments": 1, "oneway": "no", "surface": "", "lanes": "", "parent_osm_id": 849103983, "segment_index": 0, "segment_id": 262 }, "geometry": { "type": "LineString", "coordinates": [ [ 35.2083851, 28.0039409 ], [ 35.2073921, 28.0038843 ] ] } },
{ "type": "Feature", "properties": { "osm_id": 849103986, "highway": "service", "name": "", "segments": 1, "oneway": "no", "surface": "", "lanes": "", "parent_osm_id": 849103986, "segment_index": 0, "segment_id": 263 }, "geometry": { "type": "LineString", "coordinates": [ [ 35.2068998, 28.0043053 ], [ 35.206885, 28.0044653 ] ] } },
{ "type": "Feature", "properties": { "osm_id": 849103986, "highway": "service", "name": "", "segments": 1, "oneway": "no", "surface": "", "lanes": "", "parent_osm_id": 849103986, "segment_index": 1, "segment_id": 264 }, "geometry": { "type": "LineString", "coordinates": [ [ 35.206885, 28.0044653 ], [ 35.2068714, 28.0046133 ] ] } },
{ "type": "Feature", "properties": { "osm_id": 849103987, "highway": "service", "name": "", "segments": 1, "oneway": "no", "surface": "", "lanes": "", "parent_osm_id": 849103987, "segment_index": 0, "segment_id": 265 }, "geometry": { "type": "LineString", "coordinates": [ [ 35.2065531, 28.0044397 ], [ 35.206885, 28.0044653 ] ] } },
{ "type": "Feature", "properties": { "osm_id": 849103987, "highway": "service", "name": "", "segments": 1, "oneway": "no", "surface": "", "lanes": "", "parent_osm_id": 849103987, "segment_index": 1, "segment_id": 266 }, "geometry": { "type": "LineString", "coordinates": [ [ 35.206885, 28.0044653 ], [ 35.2072075, 28.004490199999989 ] ] } },
{ "type": "Feature", "properties": { "osm_id": 849103996, "highway": "service", "name": "", "segments": 1, "oneway": "no", "surface": "", "lanes": "", "parent_osm_id": 849103996, "segment_index": 0, "segment_id": 267 }, "geometry": { "type": "LineString", "coordinates": [ [ 35.209197, 28.0058629 ], [ 35.2091426, 28.0063939 ] ] } },
{ "type": "Feature", "properties": { "osm_id": 849103996, "highway": "service", "name": "", "segments": 1, "oneway": "no", "surface": "", "lanes": "", "parent_osm_id": 849103996, "segment_index": 1, "segment_id": 268 }, "geometry": { "type": "LineString", "coordinates": [ [ 35.2091426, 28.0063939 ], [ 35.2089127, 28.0063713 ] ] } },
{ "type": "Feature", "properties": { "osm_id": 849103996, "highway": "service", "name": "", "segments": 1, "oneway": "no", "surface": "", "lanes": "", "parent_osm_id": 849103996, "segment_index": 2, "segment_id": 269 }, "geometry": { "type": "LineString", "coordinates": [ [ 35.2089127, 28.0063713 ], [ 35.2089674, 28.0058462 ] ] } },
{ "type": "Feature", "properties": { "osm_id": 996697455, "highway": "service", "name": "", "segments": 1, "oneway": "no", "surface": "", "lanes": "", "parent_osm_id": 996697455, "segment_index": 0, "segment_id": 270 }, "geometry": { "type": "LineString", "coordinates": [ [ 35.2014975, 28.0039087 ], [ 35.2016208, 28.0028172 ] ] } },
{ "type": "Feature", "properties": { "osm_id": 996697456, "highway": "service", "name": "", "segments": 1, "oneway": "no", "surface": "", "lanes": "", "parent_osm_id": 996697456, "segment_index": 0, "segment_id": 271 }, "geometry": { "type": "LineString", "coordinates": [ [ 35.2029309, 28.004967 ], [ 35.202946, 28.0048089 ] ] } },
{ "type": "Feature", "properties": { "osm_id": 996697456, "highway": "service", "name": "", "segments": 1, "oneway": "no", "surface": "", "lanes": "", "parent_osm_id": 996697456, "segment_index": 1, "segment_id": 272 }, "geometry": { "type": "LineString", "coordinates": [ [ 35.202946, 28.0048089 ], [ 35.2031447, 28.002928 ] ] } }
]
}
