{"type": "FeatureCollection", "features": [{"type": "Feature", "properties": {"osm_type": "way", "osm_id": 358397304, "type": "place_of_worship", "floor_area": 50.0}, "geometry": {"type": "Point", "coordinates": [42.4997686, 18.2166972]}}, {"type": "Feature", "properties": {"osm_type": "way", "osm_id": 369468467, "type": "parking", "floor_area": 50.0}, "geometry": {"type": "Point", "coordinates": [42.4996765, 18.215582899999998]}}, {"type": "Feature", "properties": {"osm_type": "way", "osm_id": 1267184784, "type": "parking", "floor_area": 50.0}, "geometry": {"type": "Point", "coordinates": [42.5002729, 18.214906399999997]}}, {"type": "Feature", "properties": {"osm_type": "node", "osm_id": 13466545110, "type": "parking", "floor_area": 50.0}, "geometry": {"type": "Point", "coordinates": [42.4980274, 18.215988699999997]}}]}