{"type": "FeatureCollection", "features": [{"type": "Feature", "properties": {"osmid": 158458203, "name": "\u0637\u0631\u064a\u0642 \u0627\u0644\u0645\u0644\u0643 \u062e\u0627\u0644\u062f", "highway": "tertiary", "lanes": null, "maxspeed": null, "oneway": true, "junction": null, "u": 2919827561, "v": 2919142284, "key": 3677, "length": 214.4792327330902, "road_segment_id": 3625, "segment_id": 8, "distance_to_poi_m": 44.46606484610789}, "geometry": {"type": "LineString", "coordinates": [[42.5000736, 18.2174881], [42.4995123, 18.217017900000005], [42.4989229, 18.216491099999992], [42.4985892, 18.2161703]]}}, {"type": "Feature", "properties": {"osmid": 1134493619, "name": null, "highway": "service", "lanes": null, "maxspeed": null, "oneway": false, "junction": null, "u": 10576583562, "v": 10576583565, "key": 7001, "length": 79.21942946497776, "road_segment_id": 6938, "segment_id": 72, "distance_to_poi_m": 56.04846062148621}, "geometry": {"type": "LineString", "coordinates": [[42.4993565, 18.215831200000004], [42.4998532, 18.2161975], [42.499932, 18.2161095]]}}]}