{"type": "FeatureCollection", "features": [{"type": "Feature", "properties": {"osm_type": "way", "osm_id": 1089590569, "building": "yes", "origin_weight": 1.0}, "geometry": {"type": "Point", "coordinates": [42.5012994, 18.2159828]}}, {"type": "Feature", "properties": {"osm_type": "way", "osm_id": 1089590570, "building": "yes", "origin_weight": 1.0}, "geometry": {"type": "Point", "coordinates": [42.5007343, 18.217351899999997]}}, {"type": "Feature", "properties": {"osm_type": "way", "osm_id": 1089590571, "building": "yes", "origin_weight": 1.0}, "geometry": {"type": "Point", "coordinates": [42.5009873, 18.217569199999993]}}, {"type": "Feature", "properties": {"osm_type": "way", "osm_id": 1089590572, "building": "yes", "origin_weight": 1.0}, "geometry": {"type": "Point", "coordinates": [42.5012879, 18.217656300000005]}}, {"type": "Feature", "properties": {"osm_type": "way", "osm_id": 1267184785, "building": "yes", "origin_weight": 1.0}, "geometry": {"type": "Point", "coordinates": [42.5008328, 18.216075099999994]}}, {"type": "Feature", "properties": {"osm_type": "way", "osm_id": 1267184786, "building": "yes", "origin_weight": 1.0}, "geometry": {"type": "Point", "coordinates": [42.5002128, 18.217229099999997]}}, {"type": "Feature", "properties": {"osm_type": "way", "osm_id": 1267184787, "building": "yes", "origin_weight": 1.0}, "geometry": {"type": "Point", "coordinates": [42.5004218, 18.2170644]}}, {"type": "Feature", "properties": {"osm_type": "way", "osm_id": 1267184788, "building": "yes", "origin_weight": 1.0}, "geometry": {"type": "Point", "coordinates": [42.4988757, 18.2170338]}}, {"type": "Feature", "properties": {"osm_type": "way", "osm_id": 1267184789, "building": "yes", "origin_weight": 1.0}, "geometry": {"type": "Point", "coordinates": [42.498761, 18.2178576]}}, {"type": "Feature", "properties": {"osm_type": "way", "osm_id": 1267184790, "building": "yes", "origin_weight": 1.0}, "geometry": {"type": "Point", "coordinates": [42.4999462, 18.218789999999995]}}, {"type": "Feature", "properties": {"osm_type": "way", "osm_id": 1267184791, "building": "yes", "origin_weight": 1.0}, "geometry": {"type": "Point", "coordinates": [42.5002782, 18.218117699999997]}}, {"type": "Feature", "properties": {"osm_type": "way", "osm_id": 1267184793, "building": "yes", "origin_weight": 1.0}, "geometry": {"type": "Point", "coordinates": [42.500783, 18.214811000000005]}}, {"type": "Feature", "properties": {"osm_type": "way", "osm_id": 1267184805, "building": "yes", "origin_weight": 1.0}, "geometry": {"type": "Point", "coordinates": [42.5016448, 18.216570999999995]}}, {"type": "Feature", "properties": {"osm_type": "way", "osm_id": 1267184806, "building": "yes", "origin_weight": 1.0}, "geometry": {"type": "Point", "coordinates": [42.5012793, 18.2170034]}}, {"type": "Feature", "properties": {"osm_type": "way", "osm_id": 1267184807, "building": "yes", "origin_weight": 1.0}, "geometry": {"type": "Point", "coordinates": [42.5009951, 18.2170137]}}, {"type": "Feature", "properties": {"osm_type": "way", "osm_id": 1267188073, "building": "yes", "origin_weight": 1.0}, "geometry": {"type": "Point", "coordinates": [42.50098920000001, 18.216589200000005]}}]}