{"type": "FeatureCollection", "features": [{"type": "Feature", "properties": {"osmid": 95507286, "name": null, "highway": "tertiary", "lanes": null, "maxspeed": null, "oneway": true, "junction": null, "u": 2919142284, "v": 1107476673, "key": 2342, "length": 82.32670814438863, "road_segment_id": 2290, "segment_id": 0}, "geometry": {"type": "LineString", "coordinates": [[42.4985892, 18.2161703], [42.4983906, 18.216319499999997], [42.4979526, 18.216596699999997]]}}, {"type": "Feature", "properties": {"osmid": 95507286, "name": null, "highway": "tertiary", "lanes": null, "maxspeed": null, "oneway": true, "junction": null, "u": 1107476673, "v": 9819488021, "key": 2343, "length": 40.349593054224236, "road_segment_id": 2291, "segment_id": 1}, "geometry": {"type": "LineString", "coordinates": [[42.4979526, 18.216596699999997], [42.4976212, 18.216776899999996]]}}, {"type": "Feature", "properties": {"osmid": 95507286, "name": null, "highway": "tertiary", "lanes": null, "maxspeed": null, "oneway": true, "junction": null, "u": 9819488021, "v": 1107476607, "key": 2344, "length": 51.979783556442435, "road_segment_id": 2292, "segment_id": 2}, "geometry": {"type": "LineString", "coordinates": [[42.4976212, 18.216776899999996], [42.4971857, 18.216994]]}}, {"type": "Feature", "properties": {"osmid": 158458200, "name": "\u0637\u0631\u064a\u0642 \u0627\u0644\u0645\u0644\u0643 \u0641\u064a\u0635\u0644", "highway": "primary", "lanes": "3", "maxspeed": null, "oneway": true, "junction": null, "u": 7365223399, "v": 1706503865, "key": 3672, "length": 56.806230488008154, "road_segment_id": 3620, "segment_id": 3}, "geometry": {"type": "LineString", "coordinates": [[42.5016794, 18.2183695], [42.501601, 18.2184198], [42.5015345, 18.2184468], [42.5014517, 18.218481199999996], [42.5013747, 18.218485099999995], [42.5011862, 18.2184138]]}}, {"type": "Feature", "properties": {"osmid": 158458203, "name": "\u0637\u0631\u064a\u0642 \u0627\u0644\u0645\u0644\u0643 \u062e\u0627\u0644\u062f", "highway": "tertiary", "lanes": null, "maxspeed": null, "oneway": true, "junction": null, "u": 1706503865, "v": 1706503862, "key": 3673, "length": 27.008385172642573, "road_segment_id": 3621, "segment_id": 4}, "geometry": {"type": "LineString", "coordinates": [[42.5011862, 18.2184138], [42.5009754, 18.218276300000003]]}}, {"type": "Feature", "properties": {"osmid": 158458203, "name": "\u0637\u0631\u064a\u0642 \u0627\u0644\u0645\u0644\u0643 \u062e\u0627\u0644\u062f", "highway": "tertiary", "lanes": null, "maxspeed": null, "oneway": true, "junction": null, "u": 1706503862, "v": 2919827564, "key": 3674, "length": 8.731094768832193, "road_segment_id": 3622, "segment_id": 5}, "geometry": {"type": "LineString", "coordinates": [[42.5009754, 18.218276300000003], [42.5009146, 18.218222999999995]]}}, {"type": "Feature", "properties": {"osmid": 158458203, "name": "\u0637\u0631\u064a\u0642 \u0627\u0644\u0645\u0644\u0643 \u062e\u0627\u0644\u062f", "highway": "tertiary", "lanes": null, "maxspeed": null, "oneway": true, "junction": null, "u": 2919827564, "v": 9819492894, "key": 3675, "length": 104.05758006059446, "road_segment_id": 3623, "segment_id": 6}, "geometry": {"type": "LineString", "coordinates": [[42.5009146, 18.218222999999995], [42.500188900000005, 18.217588899999996]]}}, {"type": "Feature", "properties": {"osmid": 158458203, "name": "\u0637\u0631\u064a\u0642 \u0627\u0644\u0645\u0644\u0643 \u062e\u0627\u0644\u062f", "highway": "tertiary", "lanes": null, "maxspeed": null, "oneway": true, "junction": null, "u": 9819492894, "v": 2919827561, "key": 3676, "length": 16.536802925285247, "road_segment_id": 3624, "segment_id": 7}, "geometry": {"type": "LineString", "coordinates": [[42.500188900000005, 18.217588899999996], [42.5000736, 18.2174881]]}}, {"type": "Feature", "properties": {"osmid": 158458203, "name": "\u0637\u0631\u064a\u0642 \u0627\u0644\u0645\u0644\u0643 \u062e\u0627\u0644\u062f", "highway": "tertiary", "lanes": null, "maxspeed": null, "oneway": true, "junction": null, "u": 2919827561, "v": 2919142284, "key": 3677, "length": 214.4792327330902, "road_segment_id": 3625, "segment_id": 8}, "geometry": {"type": "LineString", "coordinates": [[42.5000736, 18.2174881], [42.4995123, 18.217017900000002], [42.4989229, 18.216491099999992], [42.4985892, 18.2161703]]}}, {"type": "Feature", "properties": {"osmid": 158458203, "name": "\u0637\u0631\u064a\u0642 \u0627\u0644\u0645\u0644\u0643 \u062e\u0627\u0644\u062f", "highway": "tertiary", "lanes": null, "maxspeed": null, "oneway": true, "junction": null, "u": 2919142284, "v": 9819488029, "key": 3678, "length": 37.01603200500064, "road_segment_id": 3626, "segment_id": 9}, "geometry": {"type": "LineString", "coordinates": [[42.4985892, 18.2161703], [42.498357, 18.2159203]]}}, {"type": "Feature", "properties": {"osmid": 158458203, "name": "\u0637\u0631\u064a\u0642 \u0627\u0644\u0645\u0644\u0643 \u062e\u0627\u0644\u062f", "highway": "tertiary", "lanes": null, "maxspeed": null, "oneway": true, "junction": null, "u": 9819488029, "v": 1634197537, "key": 3679, "length": 52.73490820633491, "road_segment_id": 3627, "segment_id": 10}, "geometry": {"type": "LineString", "coordinates": [[42.498357, 18.2159203], [42.4980253, 18.2155649]]}}, {"type": "Feature", "properties": {"osmid": 288420204, "name": null, "highway": "unclassified", "lanes": null, "maxspeed": null, "oneway": false, "junction": null, "u": 2919827570, "v": 2919827558, "key": 4560, "length": 212.77885490905737, "road_segment_id": 4508, "segment_id": 11}, "geometry": {"type": "LineString", "coordinates": [[42.500633, 18.219364099999996], [42.4995284, 18.2193957], [42.4995066, 18.218530500000004]]}}, {"type": "Feature", "properties": {"osmid": 288420204, "name": null, "highway": "unclassified", "lanes": null, "maxspeed": null, "oneway": false, "junction": null, "u": 2919827558, "v": 9884272492, "key": 4561, "length": 47.35011477329591, "road_segment_id": 4509, "segment_id": 12}, "geometry": {"type": "LineString", "coordinates": [[42.4995066, 18.218530500000004], [42.4995084, 18.218144400000003], [42.4995354, 18.218111899999997]]}}, {"type": "Feature", "properties": {"osmid": 288420204, "name": null, "highway": "unclassified", "lanes": null, "maxspeed": null, "oneway": false, "junction": null, "u": 9884272492, "v": 9884272493, "key": 4562, "length": 8.728732959701867, "road_segment_id": 4510, "segment_id": 13}, "geometry": {"type": "LineString", "coordinates": [[42.4995354, 18.218111899999997], [42.4995884, 18.218051500000005]]}}, {"type": "Feature", "properties": {"osmid": 288420204, "name": null, "highway": "unclassified", "lanes": null, "maxspeed": null, "oneway": false, "junction": null, "u": 9884272493, "v": 2919827561, "key": 4563, "length": 80.79965751608007, "road_segment_id": 4511, "segment_id": 14}, "geometry": {"type": "LineString", "coordinates": [[42.4995884, 18.218051500000005], [42.5000736, 18.2174881]]}}, {"type": "Feature", "properties": {"osmid": 288420205, "name": null, "highway": "unclassified", "lanes": null, "maxspeed": null, "oneway": false, "junction": null, "u": 2919827558, "v": 2919827563, "key": 4564, "length": 70.8483838347792, "road_segment_id": 4512, "segment_id": 15}, "geometry": {"type": "LineString", "coordinates": [[42.4995066, 18.218530500000004], [42.5001745, 18.218486299999995]]}}, {"type": "Feature", "properties": {"osmid": 288420206, "name": null, "highway": "unclassified", "lanes": null, "maxspeed": null, "oneway": false, "junction": null, "u": 2919827564, "v": 2919827570, "key": 4565, "length": 139.66273791491346, "road_segment_id": 4513, "segment_id": 16}, "geometry": {"type": "LineString", "coordinates": [[42.5009146, 18.218222999999995], [42.5008224, 18.218360999999998], [42.5007392, 18.2184927], [42.5005728, 18.218761999999998], [42.5005204, 18.218873200000004], [42.50057590000001, 18.2189639], [42.500633, 18.219364099999996]]}}, {"type": "Feature", "properties": {"osmid": 288446627, "name": null, "highway": "unclassified", "lanes": null, "maxspeed": null, "oneway": false, "junction": null, "u": 2920084138, "v": 7365223399, "key": 5070, "length": 65.13074588515582, "road_segment_id": 5018, "segment_id": 17}, "geometry": {"type": "LineString", "coordinates": [[42.5013973, 18.217897100000002], [42.5013949, 18.217950299999995], [42.5014299, 18.217999099999997], [42.5016681, 18.218197], [42.5016851, 18.218287499999995], [42.5016794, 18.2183695]]}}, {"type": "Feature", "properties": {"osmid": 787786469, "name": null, "highway": "tertiary", "lanes": null, "maxspeed": null, "oneway": true, "junction": null, "u": 7365223343, "v": 7365223354, "key": 6206, "length": 101.38012659486192, "road_segment_id": 6153, "segment_id": 18}, "geometry": {"type": "LineString", "coordinates": [[42.499906, 18.213717300000003], [42.5001201, 18.214067599999996], [42.5001608, 18.214181100000005], [42.500168, 18.214322], [42.5001512, 18.214476399999995], [42.500066, 18.2145225]]}}, {"type": "Feature", "properties": {"osmid": 787786469, "name": null, "highway": "tertiary", "lanes": null, "maxspeed": null, "oneway": true, "junction": null, "u": 7365223354, "v": 10576583555, "key": 6207, "length": 168.74500352127822, "road_segment_id": 6154, "segment_id": 19}, "geometry": {"type": "LineString", "coordinates": [[42.500066, 18.2145225], [42.4995814, 18.2150927], [42.4990683, 18.215711199999998]]}}, {"type": "Feature", "properties": {"osmid": 787786469, "name": null, "highway": "tertiary", "lanes": null, "maxspeed": null, "oneway": true, "junction": null, "u": 10576583555, "v": 9819483442, "key": 6208, "length": 137.29727864257802, "road_segment_id": 6155, "segment_id": 20}, "geometry": {"type": "LineString", "coordinates": [[42.4990683, 18.215711199999998], [42.4988493, 18.215951099999998], [42.4987896, 18.2159951], [42.4987344, 18.216016099999997], [42.4986728, 18.2160265], [42.4986019, 18.216019], [42.498553, 18.2160056], [42.4985009, 18.215975599999997], [42.4980673, 18.215601899999992]]}}, {"type": "Feature", "properties": {"osmid": 787786469, "name": null, "highway": "tertiary", "lanes": null, "maxspeed": null, "oneway": true, "junction": null, "u": 9819483442, "v": 1634197537, "key": 6209, "length": 6.044970532737277, "road_segment_id": 6156, "segment_id": 21}, "geometry": {"type": "LineString", "coordinates": [[42.4980673, 18.215601899999992], [42.4980253, 18.2155649]]}}, {"type": "Feature", "properties": {"osmid": 787786469, "name": null, "highway": "tertiary", "lanes": null, "maxspeed": null, "oneway": true, "junction": null, "u": 1634197537, "v": 7365211543, "key": 6210, "length": 90.4861797705508, "road_segment_id": 6157, "segment_id": 22}, "geometry": {"type": "LineString", "coordinates": [[42.4980253, 18.2155649], [42.4979923, 18.215537499999993], [42.4978203, 18.215394199999995], [42.4977532, 18.2153384], [42.497691, 18.2152771], [42.4976335, 18.215187799999995], [42.4976009, 18.215109300000005], [42.4975921, 18.2150114], [42.4975976, 18.214912199999997]]}}, {"type": "Feature", "properties": {"osmid": 787786471, "name": null, "highway": "tertiary", "lanes": null, "maxspeed": null, "oneway": true, "junction": null, "u": 2919830773, "v": 1706503865, "key": 6212, "length": 112.17396605812047, "road_segment_id": 6159, "segment_id": 23}, "geometry": {"type": "LineString", "coordinates": [[42.5011318, 18.2193309], [42.5012139, 18.219194600000005], [42.5013015, 18.2190232], [42.5013395, 18.218904100000003], [42.5013619, 18.218802299999997], [42.501354, 18.218678], [42.501303, 18.218557699999998], [42.5011862, 18.2184138]]}}, {"type": "Feature", "properties": {"osmid": 1069884442, "name": null, "highway": "service", "lanes": null, "maxspeed": null, "oneway": false, "junction": null, "u": 9819483442, "v": 9819434656, "key": 6662, "length": 28.65251667430312, "road_segment_id": 6607, "segment_id": 24}, "geometry": {"type": "LineString", "coordinates": [[42.4980673, 18.215601899999992], [42.4980911, 18.2155441], [42.498141, 18.2154982], [42.498244, 18.215412599999997]]}}, {"type": "Feature", "properties": {"osmid": 1069885058, "name": null, "highway": "service", "lanes": null, "maxspeed": null, "oneway": false, "junction": null, "u": 9819488021, "v": 9819479316, "key": 6663, "length": 55.75911344841672, "road_segment_id": 6608, "segment_id": 25}, "geometry": {"type": "LineString", "coordinates": [[42.4976212, 18.216776899999996], [42.497826200000006, 18.216935200000005], [42.4978933, 18.216987399999997], [42.4979791, 18.216983599999995], [42.4980247, 18.2169632], [42.4980408, 18.21692760000001]]}}, {"type": "Feature", "properties": {"osmid": 1069885060, "name": null, "highway": "service", "lanes": null, "maxspeed": null, "oneway": false, "junction": null, "u": 9819488040, "v": 9819488024, "key": 6665, "length": 137.030209463726, "road_segment_id": 6610, "segment_id": 26}, "geometry": {"type": "LineString", "coordinates": [[42.4975795, 18.215680400000004], [42.4974722, 18.2163072], [42.4974158, 18.216465099999997], [42.4973032, 18.2166804], [42.4972495, 18.2167276], [42.49714, 18.2167961]]}}, {"type": "Feature", "properties": {"osmid": 1069885061, "name": null, "highway": "service", "lanes": null, "maxspeed": null, "oneway": false, "junction": null, "u": 9819488030, "v": 9819488029, "key": 6666, "length": 32.451444705333785, "road_segment_id": 6611, "segment_id": 27}, "geometry": {"type": "LineString", "coordinates": [[42.4980517, 18.215892799999995], [42.498172800000006, 18.215903699999995], [42.498357, 18.2159203]]}}, {"type": "Feature", "properties": {"osmid": 1069885062, "name": null, "highway": "service", "lanes": null, "maxspeed": null, "oneway": false, "junction": null, "u": 9819488040, "v": 9819488030, "key": 6669, "length": 71.7443295442569, "road_segment_id": 6614, "segment_id": 28}, "geometry": {"type": "LineString", "coordinates": [[42.4975795, 18.215680400000004], [42.4977471, 18.2155798], [42.4978115, 18.215581], [42.49786780000001, 18.215602699999998], [42.4980517, 18.215892799999995]]}}, {"type": "Feature", "properties": {"osmid": 1069885062, "name": null, "highway": "service", "lanes": null, "maxspeed": null, "oneway": false, "junction": null, "u": 9819488030, "v": 1107476673, "key": 6670, "length": 102.14397813461, "road_segment_id": 6615, "segment_id": 29}, "geometry": {"type": "LineString", "coordinates": [[42.4980517, 18.215892799999995], [42.4982353, 18.216182299999996], [42.4982513, 18.216225599999998], [42.4982393, 18.216257500000005], [42.4979523, 18.216428799999992], [42.4979308, 18.216446], [42.4979268, 18.2164995], [42.4979526, 18.216596699999997]]}}, {"type": "Feature", "properties": {"osmid": 1069887350, "name": null, "highway": "service", "lanes": null, "maxspeed": null, "oneway": false, "junction": null, "u": 9819492876, "v": 9819492889, "key": 6688, "length": 84.81740837834545, "road_segment_id": 6633, "segment_id": 30}, "geometry": {"type": "LineString", "coordinates": [[42.5010027, 18.2177819], [42.5005661, 18.2174314], [42.5005178, 18.217434599999997], [42.5004836, 18.2174543], [42.5003877, 18.2175556]]}}, {"type": "Feature", "properties": {"osmid": 1069887351, "name": null, "highway": "service", "lanes": null, "maxspeed": null, "oneway": false, "junction": null, "u": 9819492891, "v": 9884257503, "key": 6689, "length": 183.09705902790748, "road_segment_id": 6634, "segment_id": 31}, "geometry": {"type": "LineString", "coordinates": [[42.5009832, 18.218140299999998], [42.501584, 18.217468999999994], [42.5016873, 18.2173339], [42.501698, 18.217288099999998], [42.5016899, 18.217229499999995], [42.5016457, 18.217184900000003], [42.5015733, 18.2171543], [42.5014955, 18.2171632], [42.5014459, 18.2172027], [42.5013261, 18.217394199999998]]}}, {"type": "Feature", "properties": {"osmid": 1069887351, "name": null, "highway": "service", "lanes": null, "maxspeed": null, "oneway": false, "junction": null, "u": 9884257503, "v": 9884257508, "key": 6690, "length": 13.244513466594393, "road_segment_id": 6635, "segment_id": 32}, "geometry": {"type": "LineString", "coordinates": [[42.5013261, 18.217394199999998], [42.5012548, 18.217492499999995]]}}, {"type": "Feature", "properties": {"osmid": 1069887351, "name": null, "highway": "service", "lanes": null, "maxspeed": null, "oneway": false, "junction": null, "u": 9884257508, "v": 9819492876, "key": 6691, "length": 41.697669702464935, "road_segment_id": 6636, "segment_id": 33}, "geometry": {"type": "LineString", "coordinates": [[42.5012548, 18.217492499999995], [42.5010027, 18.2177819]]}}, {"type": "Feature", "properties": {"osmid": 1069887351, "name": null, "highway": "service", "lanes": null, "maxspeed": null, "oneway": false, "junction": null, "u": 9819492876, "v": 9819492878, "key": 6692, "length": 21.95743125894706, "road_segment_id": 6637, "segment_id": 34}, "geometry": {"type": "LineString", "coordinates": [[42.5010027, 18.2177819], [42.5008652, 18.217930400000004]]}}, {"type": "Feature", "properties": {"osmid": 1069887352, "name": null, "highway": "service", "lanes": null, "maxspeed": null, "oneway": true, "junction": null, "u": 1706503862, "v": 9819492891, "key": 6693, "length": 15.082455901822808, "road_segment_id": 6638, "segment_id": 35}, "geometry": {"type": "LineString", "coordinates": [[42.5009754, 18.218276300000003], [42.5009832, 18.218140299999998]]}}, {"type": "Feature", "properties": {"osmid": 1069887352, "name": null, "highway": "service", "lanes": null, "maxspeed": null, "oneway": true, "junction": null, "u": 9819492891, "v": 9819492878, "key": 6694, "length": 26.726533906996053, "road_segment_id": 6639, "segment_id": 36}, "geometry": {"type": "LineString", "coordinates": [[42.5009832, 18.218140299999998], [42.5009644, 18.21808040000001], [42.5009242, 18.2179989], [42.5008652, 18.217930400000004]]}}, {"type": "Feature", "properties": {"osmid": 1069887352, "name": null, "highway": "service", "lanes": null, "maxspeed": null, "oneway": true, "junction": null, "u": 9819492878, "v": 9819492889, "key": 6695, "length": 65.39005636855137, "road_segment_id": 6640, "segment_id": 37}, "geometry": {"type": "LineString", "coordinates": [[42.5008652, 18.217930400000004], [42.5003877, 18.2175556]]}}, {"type": "Feature", "properties": {"osmid": 1069887352, "name": null, "highway": "service", "lanes": null, "maxspeed": null, "oneway": true, "junction": null, "u": 9819492889, "v": 9819492888, "key": 6696, "length": 16.622666738605254, "road_segment_id": 6641, "segment_id": 38}, "geometry": {"type": "LineString", "coordinates": [[42.5003877, 18.2175556], [42.5003515, 18.2175435], [42.5002328, 18.217546000000002]]}}, {"type": "Feature", "properties": {"osmid": 1069887353, "name": null, "highway": "service", "lanes": null, "maxspeed": null, "oneway": false, "junction": null, "u": 9819492894, "v": 9819492888, "key": 6697, "length": 6.644494466673282, "road_segment_id": 6642, "segment_id": 39}, "geometry": {"type": "LineString", "coordinates": [[42.500188900000005, 18.217588899999996], [42.5002328, 18.217546000000002]]}}, {"type": "Feature", "properties": {"osmid": 1069887353, "name": null, "highway": "service", "lanes": null, "maxspeed": null, "oneway": false, "junction": null, "u": 9819492888, "v": 9819492892, "key": 6698, "length": 75.83842263655008, "road_segment_id": 6643, "segment_id": 40}, "geometry": {"type": "LineString", "coordinates": [[42.5002328, 18.217546000000002], [42.5007337, 18.217056200000002]]}}, {"type": "Feature", "properties": {"osmid": 1069887353, "name": null, "highway": "service", "lanes": null, "maxspeed": null, "oneway": false, "junction": null, "u": 9819492892, "v": 9819492893, "key": 6699, "length": 53.54407916370666, "road_segment_id": 6644, "segment_id": 41}, "geometry": {"type": "LineString", "coordinates": [[42.5007337, 18.217056200000002], [42.5011133, 18.216736500000003]]}}, {"type": "Feature", "properties": {"osmid": 1078103128, "name": null, "highway": "service", "lanes": null, "maxspeed": null, "oneway": false, "junction": null, "u": 9884272490, "v": 9884272489, "key": 6850, "length": 9.214154972701037, "road_segment_id": 6795, "segment_id": 42}, "geometry": {"type": "LineString", "coordinates": [[42.4993585, 18.217877599999998], [42.4993048, 18.2179431]]}}, {"type": "Feature", "properties": {"osmid": 1078103128, "name": null, "highway": "service", "lanes": null, "maxspeed": null, "oneway": false, "junction": null, "u": 9884272489, "v": 9884272495, "key": 6851, "length": 31.85654628348038, "road_segment_id": 6796, "segment_id": 43}, "geometry": {"type": "LineString", "coordinates": [[42.4993048, 18.2179431], [42.499174, 18.218111000000004], [42.4991365, 18.218132600000004], [42.4990996, 18.218123099999996]]}}, {"type": "Feature", "properties": {"osmid": 1078103129, "name": null, "highway": "service", "lanes": null, "maxspeed": null, "oneway": true, "junction": null, "u": 9884272492, "v": 9884272489, "key": 6852, "length": 30.73902367539902, "road_segment_id": 6797, "segment_id": 44}, "geometry": {"type": "LineString", "coordinates": [[42.4995354, 18.218111899999997], [42.4993048, 18.2179431]]}}, {"type": "Feature", "properties": {"osmid": 1078103129, "name": null, "highway": "service", "lanes": null, "maxspeed": null, "oneway": true, "junction": null, "u": 9884272489, "v": 9884272491, "key": 6853, "length": 35.310729325382525, "road_segment_id": 6798, "segment_id": 45}, "geometry": {"type": "LineString", "coordinates": [[42.4993048, 18.2179431], [42.4990399, 18.2177492]]}}, {"type": "Feature", "properties": {"osmid": 1078103130, "name": null, "highway": "service", "lanes": null, "maxspeed": null, "oneway": true, "junction": null, "u": 9884272494, "v": 9884272490, "key": 6854, "length": 42.46239995151347, "road_segment_id": 6799, "segment_id": 46}, "geometry": {"type": "LineString", "coordinates": [[42.4990438, 18.2176397], [42.4993585, 18.217877599999998]]}}, {"type": "Feature", "properties": {"osmid": 1078103130, "name": null, "highway": "service", "lanes": null, "maxspeed": null, "oneway": true, "junction": null, "u": 9884272490, "v": 9884272493, "key": 6855, "length": 31.027558527887177, "road_segment_id": 6800, "segment_id": 47}, "geometry": {"type": "LineString", "coordinates": [[42.4993585, 18.217877599999998], [42.4995884, 18.218051500000005]]}}, {"type": "Feature", "properties": {"osmid": 1078103131, "name": null, "highway": "service", "lanes": null, "maxspeed": null, "oneway": false, "junction": null, "u": 9884272500, "v": 9884272494, "key": 6856, "length": 36.05901033521755, "road_segment_id": 6801, "segment_id": 48}, "geometry": {"type": "LineString", "coordinates": [[42.4989206, 18.217362], [42.4990118, 18.2174269], [42.4990346, 18.217485499999995], [42.4990438, 18.2176397]]}}, {"type": "Feature", "properties": {"osmid": 1078103131, "name": null, "highway": "service", "lanes": null, "maxspeed": null, "oneway": false, "junction": null, "u": 9884272494, "v": 9884272491, "key": 6857, "length": 12.132433324688781, "road_segment_id": 6802, "segment_id": 49}, "geometry": {"type": "LineString", "coordinates": [[42.4990438, 18.2176397], [42.4990399, 18.2177492]]}}, {"type": "Feature", "properties": {"osmid": 1078103131, "name": null, "highway": "service", "lanes": null, "maxspeed": null, "oneway": false, "junction": null, "u": 9884272491, "v": 9884272495, "key": 6858, "length": 42.734918427896574, "road_segment_id": 6803, "segment_id": 50}, "geometry": {"type": "LineString", "coordinates": [[42.4990399, 18.2177492], [42.4990573, 18.2180091], [42.4990654, 18.2180804], [42.4990996, 18.218123099999996]]}}, {"type": "Feature", "properties": {"osmid": 1078103500, "name": null, "highway": "service", "lanes": null, "maxspeed": null, "oneway": false, "junction": null, "u": 9884257507, "v": 9884257503, "key": 6859, "length": 51.855890243416184, "road_segment_id": 6804, "segment_id": 51}, "geometry": {"type": "LineString", "coordinates": [[42.5009387, 18.217230199999992], [42.5009946, 18.21718419999999], [42.5010241, 18.217176], [42.501061, 18.2171779], [42.5013261, 18.217394199999998]]}}, {"type": "Feature", "properties": {"osmid": 1078103501, "name": null, "highway": "service", "lanes": null, "maxspeed": null, "oneway": false, "junction": null, "u": 9819492892, "v": 9884257507, "key": 6860, "length": 29.01498607306468, "road_segment_id": 6805, "segment_id": 52}, "geometry": {"type": "LineString", "coordinates": [[42.5007337, 18.217056200000002], [42.5009387, 18.217230199999992]]}}, {"type": "Feature", "properties": {"osmid": 1078103501, "name": null, "highway": "service", "lanes": null, "maxspeed": null, "oneway": false, "junction": null, "u": 9884257507, "v": 9884257508, "key": 6861, "length": 44.301268358993774, "road_segment_id": 6806, "segment_id": 53}, "geometry": {"type": "LineString", "coordinates": [[42.5009387, 18.217230199999992], [42.5012548, 18.217492499999995]]}}, {"type": "Feature", "properties": {"osmid": 1134493613, "name": null, "highway": "service", "lanes": null, "maxspeed": null, "oneway": false, "junction": null, "u": 7365223354, "v": 10576490031, "key": 6983, "length": 27.748482889135538, "road_segment_id": 6920, "segment_id": 54}, "geometry": {"type": "LineString", "coordinates": [[42.500066, 18.2145225], [42.50023170000001, 18.214661099999997], [42.5002675, 18.2146821]]}}, {"type": "Feature", "properties": {"osmid": 1134493613, "name": null, "highway": "service", "lanes": null, "maxspeed": null, "oneway": false, "junction": null, "u": 10576490031, "v": 10576490032, "key": 6984, "length": 11.72480291670542, "road_segment_id": 6921, "segment_id": 55}, "geometry": {"type": "LineString", "coordinates": [[42.5002675, 18.2146821], [42.500261, 18.2147878]]}}, {"type": "Feature", "properties": {"osmid": 1134493613, "name": null, "highway": "service", "lanes": null, "maxspeed": null, "oneway": false, "junction": null, "u": 10576490032, "v": 10576490038, "key": 6985, "length": 14.79499372858152, "road_segment_id": 6922, "segment_id": 56}, "geometry": {"type": "LineString", "coordinates": [[42.500261, 18.2147878], [42.5001707, 18.214889799999998]]}}, {"type": "Feature", "properties": {"osmid": 1134493613, "name": null, "highway": "service", "lanes": null, "maxspeed": null, "oneway": false, "junction": null, "u": 10576490038, "v": 10576583541, "key": 6986, "length": 60.129612517968454, "road_segment_id": 6923, "segment_id": 57}, "geometry": {"type": "LineString", "coordinates": [[42.5001707, 18.214889799999998], [42.4999324, 18.2151658], [42.5001172, 18.215221500000002]]}}, {"type": "Feature", "properties": {"osmid": 1134493613, "name": null, "highway": "service", "lanes": null, "maxspeed": null, "oneway": false, "junction": null, "u": 10576583541, "v": 10576583543, "key": 6987, "length": 19.455717864651902, "road_segment_id": 6924, "segment_id": 58}, "geometry": {"type": "LineString", "coordinates": [[42.5001172, 18.215221500000002], [42.5001314, 18.215225499999995], [42.5002951, 18.2152658]]}}, {"type": "Feature", "properties": {"osmid": 1134493613, "name": null, "highway": "service", "lanes": null, "maxspeed": null, "oneway": false, "junction": null, "u": 10576583543, "v": 10576583545, "key": 6988, "length": 19.25846857194792, "road_segment_id": 6925, "segment_id": 59}, "geometry": {"type": "LineString", "coordinates": [[42.5002951, 18.2152658], [42.5004713, 18.2153093]]}}, {"type": "Feature", "properties": {"osmid": 1134493613, "name": null, "highway": "service", "lanes": null, "maxspeed": null, "oneway": false, "junction": null, "u": 10576583545, "v": 10576490036, "key": 6989, "length": 14.900305842545645, "road_segment_id": 6926, "segment_id": 60}, "geometry": {"type": "LineString", "coordinates": [[42.5004713, 18.2153093], [42.5005398, 18.2153262], [42.5006078, 18.215342300000003]]}}, {"type": "Feature", "properties": {"osmid": 1134493613, "name": null, "highway": "service", "lanes": null, "maxspeed": null, "oneway": false, "junction": null, "u": 10576490036, "v": 10576490039, "key": 6990, "length": 9.759510142114037, "road_segment_id": 6927, "segment_id": 61}, "geometry": {"type": "LineString", "coordinates": [[42.5006078, 18.215342300000003], [42.500665700000006, 18.215273700000004]]}}, {"type": "Feature", "properties": {"osmid": 1134493613, "name": null, "highway": "service", "lanes": null, "maxspeed": null, "oneway": false, "junction": null, "u": 10576490039, "v": 10576490032, "key": 6991, "length": 80.34085800122016, "road_segment_id": 6928, "segment_id": 62}, "geometry": {"type": "LineString", "coordinates": [[42.500665700000006, 18.215273700000004], [42.500744, 18.2151807], [42.500261, 18.2147878]]}}, {"type": "Feature", "properties": {"osmid": 1134493614, "name": null, "highway": "service", "lanes": null, "maxspeed": null, "oneway": false, "junction": null, "u": 10576490038, "v": 10576490040, "key": 6992, "length": 18.491283153345655, "road_segment_id": 6929, "segment_id": 63}, "geometry": {"type": "LineString", "coordinates": [[42.5001707, 18.214889799999998], [42.5003064, 18.214995]]}}, {"type": "Feature", "properties": {"osmid": 1134493614, "name": null, "highway": "service", "lanes": null, "maxspeed": null, "oneway": false, "junction": null, "u": 10576490040, "v": 10576583542, "key": 6993, "length": 18.252655529629095, "road_segment_id": 6930, "segment_id": 64}, "geometry": {"type": "LineString", "coordinates": [[42.5003064, 18.214995], [42.5004403, 18.215098900000005]]}}, {"type": "Feature", "properties": {"osmid": 1134493614, "name": null, "highway": "service", "lanes": null, "maxspeed": null, "oneway": false, "junction": null, "u": 10576583542, "v": 10576583544, "key": 6994, "length": 17.09490081492263, "road_segment_id": 6931, "segment_id": 65}, "geometry": {"type": "LineString", "coordinates": [[42.5004403, 18.215098900000005], [42.5005658, 18.215196099999996]]}}, {"type": "Feature", "properties": {"osmid": 1134493614, "name": null, "highway": "service", "lanes": null, "maxspeed": null, "oneway": false, "junction": null, "u": 10576583544, "v": 10576490039, "key": 6995, "length": 13.62366654528405, "road_segment_id": 6932, "segment_id": 66}, "geometry": {"type": "LineString", "coordinates": [[42.5005658, 18.215196099999996], [42.500665700000006, 18.215273700000004]]}}, {"type": "Feature", "properties": {"osmid": 1134493615, "name": null, "highway": "service", "lanes": null, "maxspeed": null, "oneway": false, "junction": null, "u": 10576490040, "v": 10576583541, "key": 6996, "length": 32.09291886277927, "road_segment_id": 6933, "segment_id": 67}, "geometry": {"type": "LineString", "coordinates": [[42.5003064, 18.214995], [42.5001172, 18.215221500000002]]}}, {"type": "Feature", "properties": {"osmid": 1134493616, "name": null, "highway": "service", "lanes": null, "maxspeed": null, "oneway": false, "junction": null, "u": 10576583542, "v": 10576583543, "key": 6997, "length": 24.03485734753918, "road_segment_id": 6934, "segment_id": 68}, "geometry": {"type": "LineString", "coordinates": [[42.5004403, 18.215098900000005], [42.5002951, 18.2152658]]}}, {"type": "Feature", "properties": {"osmid": 1134493617, "name": null, "highway": "service", "lanes": null, "maxspeed": null, "oneway": false, "junction": null, "u": 10576583544, "v": 10576583545, "key": 6998, "length": 16.035522486153205, "road_segment_id": 6935, "segment_id": 69}, "geometry": {"type": "LineString", "coordinates": [[42.5005658, 18.215196099999996], [42.5004713, 18.2153093]]}}, {"type": "Feature", "properties": {"osmid": 1134493618, "name": null, "highway": "service", "lanes": null, "maxspeed": null, "oneway": false, "junction": null, "u": 10576490031, "v": 10576583553, "key": 6999, "length": 38.696764017524714, "road_segment_id": 6936, "segment_id": 70}, "geometry": {"type": "LineString", "coordinates": [[42.5002675, 18.2146821], [42.5003029, 18.2146772], [42.5003225, 18.214657299999995], [42.500340800000004, 18.2146324], [42.50035, 18.2145939], [42.5003578, 18.214537899999996], [42.5003696, 18.2145081], [42.5003971, 18.2144795], [42.5004547, 18.2144708], [42.5004914, 18.214469499999993]]}}, {"type": "Feature", "properties": {"osmid": 1134493619, "name": null, "highway": "service", "lanes": null, "maxspeed": null, "oneway": false, "junction": null, "u": 10576583555, "v": 10576583562, "key": 7000, "length": 33.6221063970764, "road_segment_id": 6937, "segment_id": 71}, "geometry": {"type": "LineString", "coordinates": [[42.4990683, 18.215711199999998], [42.4992315, 18.215757399999998], [42.4993079, 18.215795299999996], [42.4993565, 18.215831200000004]]}}, {"type": "Feature", "properties": {"osmid": 1134493619, "name": null, "highway": "service", "lanes": null, "maxspeed": null, "oneway": false, "junction": null, "u": 10576583562, "v": 10576583565, "key": 7001, "length": 79.21942946497776, "road_segment_id": 6938, "segment_id": 72}, "geometry": {"type": "LineString", "coordinates": [[42.4993565, 18.215831200000004], [42.4998532, 18.2161975], [42.499932, 18.2161095]]}}, {"type": "Feature", "properties": {"osmid": 1134493619, "name": null, "highway": "service", "lanes": null, "maxspeed": null, "oneway": false, "junction": null, "u": 10576583565, "v": 10576583559, "key": 7002, "length": 21.99973310444449, "road_segment_id": 6939, "segment_id": 73}, "geometry": {"type": "LineString", "coordinates": [[42.499932, 18.2161095], [42.5000671, 18.215958500000003]]}}, {"type": "Feature", "properties": {"osmid": 1134493619, "name": null, "highway": "service", "lanes": null, "maxspeed": null, "oneway": false, "junction": null, "u": 10576583559, "v": 10576583570, "key": 7003, "length": 12.740827129985641, "road_segment_id": 6940, "segment_id": 74}, "geometry": {"type": "LineString", "coordinates": [[42.5000671, 18.215958500000003], [42.5000156, 18.215854500000003]]}}, {"type": "Feature", "properties": {"osmid": 1134493619, "name": null, "highway": "service", "lanes": null, "maxspeed": null, "oneway": false, "junction": null, "u": 10576583570, "v": 10576583568, "key": 7004, "length": 21.728104035720573, "road_segment_id": 6941, "segment_id": 75}, "geometry": {"type": "LineString", "coordinates": [[42.5000156, 18.215854500000003], [42.4999292, 18.2156765]]}}, {"type": "Feature", "properties": {"osmid": 1134493619, "name": null, "highway": "service", "lanes": null, "maxspeed": null, "oneway": false, "junction": null, "u": 10576583568, "v": 10576583566, "key": 7005, "length": 18.361281147403496, "road_segment_id": 6942, "segment_id": 76}, "geometry": {"type": "LineString", "coordinates": [[42.4999292, 18.2156765], [42.4998535, 18.2155273]]}}, {"type": "Feature", "properties": {"osmid": 1134493619, "name": null, "highway": "service", "lanes": null, "maxspeed": null, "oneway": false, "junction": null, "u": 10576583566, "v": 10576583564, "key": 7006, "length": 73.71242667145341, "road_segment_id": 6943, "segment_id": 77}, "geometry": {"type": "LineString", "coordinates": [[42.4998535, 18.2155273], [42.4997845, 18.2153879], [42.49977340000001, 18.2153795], [42.4997623, 18.2153784], [42.49975270000001, 18.2153798], [42.4997402, 18.215385799999993], [42.499431200000004, 18.2157445]]}}, {"type": "Feature", "properties": {"osmid": 1134493619, "name": null, "highway": "service", "lanes": null, "maxspeed": null, "oneway": false, "junction": null, "u": 10576583564, "v": 10576583562, "key": 7007, "length": 12.436370292288348, "road_segment_id": 6944, "segment_id": 78}, "geometry": {"type": "LineString", "coordinates": [[42.499431200000004, 18.2157445], [42.4993565, 18.215831200000004]]}}, {"type": "Feature", "properties": {"osmid": 1134493620, "name": null, "highway": "service", "lanes": null, "maxspeed": null, "oneway": false, "junction": null, "u": 10576583564, "v": 10576583567, "key": 7008, "length": 18.137219946013722, "road_segment_id": 6945, "segment_id": 79}, "geometry": {"type": "LineString", "coordinates": [[42.499431200000004, 18.2157445], [42.4995675, 18.215843799999995]]}}, {"type": "Feature", "properties": {"osmid": 1134493620, "name": null, "highway": "service", "lanes": null, "maxspeed": null, "oneway": false, "junction": null, "u": 10576583567, "v": 10576583569, "key": 7009, "length": 18.182600947801628, "road_segment_id": 6946, "segment_id": 80}, "geometry": {"type": "LineString", "coordinates": [[42.4995675, 18.215843799999995], [42.4997041, 18.215943399999997]]}}, {"type": "Feature", "properties": {"osmid": 1134493620, "name": null, "highway": "service", "lanes": null, "maxspeed": null, "oneway": false, "junction": null, "u": 10576583569, "v": 10576583571, "key": 7010, "length": 17.997637751838617, "road_segment_id": 6947, "segment_id": 81}, "geometry": {"type": "LineString", "coordinates": [[42.4997041, 18.215943399999997], [42.4998393, 18.216042]]}}, {"type": "Feature", "properties": {"osmid": 1134493620, "name": null, "highway": "service", "lanes": null, "maxspeed": null, "oneway": false, "junction": null, "u": 10576583571, "v": 10576583565, "key": 7011, "length": 12.333029541530111, "road_segment_id": 6948, "segment_id": 82}, "geometry": {"type": "LineString", "coordinates": [[42.4998393, 18.216042], [42.499932, 18.2161095]]}}, {"type": "Feature", "properties": {"osmid": 1134493621, "name": null, "highway": "service", "lanes": null, "maxspeed": null, "oneway": false, "junction": null, "u": 10576583566, "v": 10576583567, "key": 7012, "length": 46.30703453261373, "road_segment_id": 6949, "segment_id": 83}, "geometry": {"type": "LineString", "coordinates": [[42.4998535, 18.2155273], [42.4995675, 18.215843799999995]]}}, {"type": "Feature", "properties": {"osmid": 1134493622, "name": null, "highway": "service", "lanes": null, "maxspeed": null, "oneway": false, "junction": null, "u": 10576583568, "v": 10576583569, "key": 7013, "length": 37.95973794855417, "road_segment_id": 6950, "segment_id": 84}, "geometry": {"type": "LineString", "coordinates": [[42.4999292, 18.2156765], [42.4997041, 18.215943399999997]]}}, {"type": "Feature", "properties": {"osmid": 1134493623, "name": null, "highway": "service", "lanes": null, "maxspeed": null, "oneway": false, "junction": null, "u": 10576583570, "v": 10576583571, "key": 7014, "length": 27.91355830557804, "road_segment_id": 6951, "segment_id": 85}, "geometry": {"type": "LineString", "coordinates": [[42.5000156, 18.215854500000003], [42.4998393, 18.216042]]}}, {"type": "Feature", "properties": {"osmid": 1134493624, "name": null, "highway": "service", "lanes": null, "maxspeed": null, "oneway": false, "junction": null, "u": 10576490036, "v": 10576583559, "key": 7015, "length": 89.05050930608053, "road_segment_id": 6952, "segment_id": 86}, "geometry": {"type": "LineString", "coordinates": [[42.5006078, 18.215342300000003], [42.5000671, 18.215958500000003]]}}]}