{"type": "FeatureCollection", "features": [{"type": "Feature", "properties": {"osm_type": "way", "osm_id": 358377281, "type": "marketplace", "floor_area": 50.0}, "geometry": {"type": "Point", "coordinates": [42.496705, 18.214742500000003]}}, {"type": "Feature", "properties": {"osm_type": "way", "osm_id": 1414102542, "type": "parking", "floor_area": 50.0}, "geometry": {"type": "Point", "coordinates": [42.4953277, 18.214299700000005]}}, {"type": "Feature", "properties": {"osm_type": "way", "osm_id": 1485065998, "type": "parking", "floor_area": 50.0}, "geometry": {"type": "Point", "coordinates": [42.4934233, 18.213132699999996]}}, {"type": "Feature", "properties": {"osm_type": "way", "osm_id": 1485065999, "type": "parking", "floor_area": 50.0}, "geometry": {"type": "Point", "coordinates": [42.4938547, 18.2135459]}}, {"type": "Feature", "properties": {"osm_type": "way", "osm_id": 1485066000, "type": "parking", "floor_area": 50.0}, "geometry": {"type": "Point", "coordinates": [42.4952266, 18.2134315]}}]}