{"type": "FeatureCollection", "features": [{"type": "Feature", "properties": {"osmid": 95290268, "name": null, "highway": "residential", "lanes": null, "maxspeed": null, "oneway": false, "junction": null, "u": 1105400772, "v": 1105401136, "key": 1979, "length": 80.2118242008432, "road_segment_id": 1927, "segment_id": 0}, "geometry": {"type": "LineString", "coordinates": [[42.4939657, 18.2161473], [42.4946826, 18.216382499999995]]}}, {"type": "Feature", "properties": {"osmid": 95290273, "name": null, "highway": "residential", "lanes": null, "maxspeed": null, "oneway": false, "junction": null, "u": 2920010913, "v": 1105401136, "key": 1985, "length": 46.579853007019, "road_segment_id": 1933, "segment_id": 1}, "geometry": {"type": "LineString", "coordinates": [[42.49457760000001, 18.216790999999997], [42.4946826, 18.216382499999995]]}}, {"type": "Feature", "properties": {"osmid": 95290273, "name": null, "highway": "residential", "lanes": null, "maxspeed": null, "oneway": false, "junction": null, "u": 1105401136, "v": 1105400248, "key": 1986, "length": 2.7667971600386654, "road_segment_id": 1934, "segment_id": 2}, "geometry": {"type": "LineString", "coordinates": [[42.4946826, 18.216382499999995], [42.4946895, 18.216358399999997]]}}, {"type": "Feature", "properties": {"osmid": 95290273, "name": null, "highway": "residential", "lanes": null, "maxspeed": null, "oneway": false, "junction": null, "u": 1105400248, "v": 1105400640, "key": 1987, "length": 83.53588161888258, "road_segment_id": 1935, "segment_id": 3}, "geometry": {"type": "LineString", "coordinates": [[42.4946895, 18.216358399999997], [42.4947689, 18.2160796], [42.4948985, 18.215972400000002], [42.495204, 18.215896600000004]]}}, {"type": "Feature", "properties": {"osmid": 95290275, "name": null, "highway": "residential", "lanes": null, "maxspeed": null, "oneway": false, "junction": null, "u": 1105400935, "v": 1105401017, "key": 1992, "length": 310.1623498209866, "road_segment_id": 1940, "segment_id": 4}, "geometry": {"type": "LineString", "coordinates": [[42.4939168, 18.213050300000003], [42.494005, 18.2128178], [42.494358, 18.2122602], [42.4946252, 18.211838100000005], [42.4948289, 18.211638399999995], [42.4949499, 18.211580700000003], [42.4951545, 18.211611300000005], [42.4958043, 18.2121197]]}}, {"type": "Feature", "properties": {"osmid": 95290282, "name": null, "highway": "residential", "lanes": null, "maxspeed": null, "oneway": false, "junction": null, "u": 2920010914, "v": 1105400942, "key": 1998, "length": 42.2675316086484, "road_segment_id": 1946, "segment_id": 5}, "geometry": {"type": "LineString", "coordinates": [[42.4950337, 18.21682], [42.4950975, 18.216443200000004]]}}, {"type": "Feature", "properties": {"osmid": 95290282, "name": null, "highway": "residential", "lanes": null, "maxspeed": null, "oneway": false, "junction": null, "u": 1105400942, "v": 1105400248, "key": 1999, "length": 44.185749034778375, "road_segment_id": 1947, "segment_id": 6}, "geometry": {"type": "LineString", "coordinates": [[42.4950975, 18.216443200000004], [42.4946895, 18.216358399999997]]}}, {"type": "Feature", "properties": {"osmid": 95290309, "name": null, "highway": "unclassified", "lanes": null, "maxspeed": null, "oneway": false, "junction": null, "u": 7365223317, "v": 1144640770, "key": 2065, "length": 55.173175014378906, "road_segment_id": 2013, "segment_id": 7}, "geometry": {"type": "LineString", "coordinates": [[42.4946668, 18.210894799999995], [42.4945447, 18.210992000000005], [42.4944034, 18.211118000000003], [42.4942899, 18.211237899999993]]}}, {"type": "Feature", "properties": {"osmid": 95290309, "name": null, "highway": "unclassified", "lanes": null, "maxspeed": null, "oneway": false, "junction": null, "u": 1144640770, "v": 2920010624, "key": 2066, "length": 162.09757948652603, "road_segment_id": 2014, "segment_id": 8}, "geometry": {"type": "LineString", "coordinates": [[42.4942899, 18.211237899999993], [42.4940699, 18.211562999999998], [42.4935146, 18.2124998]]}}, {"type": "Feature", "properties": {"osmid": 95290309, "name": null, "highway": "unclassified", "lanes": null, "maxspeed": null, "oneway": false, "junction": null, "u": 2920010624, "v": 1105400362, "key": 2067, "length": 29.684121755855, "road_segment_id": 2015, "segment_id": 9}, "geometry": {"type": "LineString", "coordinates": [[42.4935146, 18.2124998], [42.49337, 18.21272949999999]]}}, {"type": "Feature", "properties": {"osmid": 95290309, "name": null, "highway": "unclassified", "lanes": null, "maxspeed": null, "oneway": false, "junction": null, "u": 1105400362, "v": 9819471522, "key": 2068, "length": 69.02036671932206, "road_segment_id": 2016, "segment_id": 10}, "geometry": {"type": "LineString", "coordinates": [[42.49337, 18.21272949999999], [42.4930773, 18.2132865]]}}, {"type": "Feature", "properties": {"osmid": 95290309, "name": null, "highway": "unclassified", "lanes": null, "maxspeed": null, "oneway": false, "junction": null, "u": 9819471522, "v": 2920010660, "key": 2069, "length": 20.707397218210602, "road_segment_id": 2017, "segment_id": 11}, "geometry": {"type": "LineString", "coordinates": [[42.4930773, 18.2132865], [42.4929733, 18.2134449]]}}, {"type": "Feature", "properties": {"osmid": 95290309, "name": null, "highway": "unclassified", "lanes": null, "maxspeed": null, "oneway": false, "junction": null, "u": 2920010660, "v": 9819471541, "key": 2070, "length": 36.70285451553627, "road_segment_id": 2018, "segment_id": 12}, "geometry": {"type": "LineString", "coordinates": [[42.4929733, 18.2134449], [42.4928158, 18.2137402]]}}, {"type": "Feature", "properties": {"osmid": 95290309, "name": null, "highway": "unclassified", "lanes": null, "maxspeed": null, "oneway": false, "junction": null, "u": 9819471541, "v": 1105400427, "key": 2071, "length": 43.594403620297165, "road_segment_id": 2019, "segment_id": 13}, "geometry": {"type": "LineString", "coordinates": [[42.4928158, 18.2137402], [42.4926001, 18.214075600000005]]}}, {"type": "Feature", "properties": {"osmid": 95507289, "name": null, "highway": "tertiary", "lanes": null, "maxspeed": null, "oneway": false, "junction": null, "u": 1107476547, "v": 1540085287, "key": 2368, "length": 233.6156038173972, "road_segment_id": 2316, "segment_id": 14}, "geometry": {"type": "LineString", "coordinates": [[42.493851, 18.216445299999993], [42.4929698, 18.215959100000003], [42.4927225, 18.2159852], [42.4920324, 18.2165969]]}}, {"type": "Feature", "properties": {"osmid": 95507294, "name": null, "highway": "tertiary", "lanes": null, "maxspeed": null, "oneway": false, "junction": null, "u": 2919142278, "v": 1105400772, "key": 2387, "length": 135.30895302587612, "road_segment_id": 2335, "segment_id": 15}, "geometry": {"type": "LineString", "coordinates": [[42.494351, 18.2149822], [42.4943194, 18.2150717], [42.4939657, 18.2161473]]}}, {"type": "Feature", "properties": {"osmid": 95507294, "name": null, "highway": "tertiary", "lanes": null, "maxspeed": null, "oneway": false, "junction": null, "u": 1105400772, "v": 1107476547, "key": 2388, "length": 35.160545455732205, "road_segment_id": 2336, "segment_id": 16}, "geometry": {"type": "LineString", "coordinates": [[42.4939657, 18.2161473], [42.493851, 18.216445299999993]]}}, {"type": "Feature", "properties": {"osmid": 95507294, "name": null, "highway": "tertiary", "lanes": null, "maxspeed": null, "oneway": false, "junction": null, "u": 1107476547, "v": 1107476595, "key": 2389, "length": 262.4318639763435, "road_segment_id": 2337, "segment_id": 17}, "geometry": {"type": "LineString", "coordinates": [[42.493851, 18.216445299999993], [42.4934792, 18.2173423], [42.493217, 18.218264300000005], [42.4931853, 18.218493100000003], [42.4932135, 18.218710299999998]]}}, {"type": "Feature", "properties": {"osmid": 98945863, "name": null, "highway": "residential", "lanes": null, "maxspeed": null, "oneway": false, "junction": null, "u": 1144641217, "v": 1144640770, "key": 2925, "length": 125.8265639662244, "road_segment_id": 2873, "segment_id": 18}, "geometry": {"type": "LineString", "coordinates": [[42.4931177, 18.2111957], [42.4934426, 18.211276699999996], [42.4938185, 18.211303000000004], [42.4942899, 18.211237899999993]]}}, {"type": "Feature", "properties": {"osmid": 288438547, "name": null, "highway": "unclassified", "lanes": null, "maxspeed": null, "oneway": false, "junction": null, "u": 2920010624, "v": 2920010626, "key": 4898, "length": 132.2213271226994, "road_segment_id": 4846, "segment_id": 19}, "geometry": {"type": "LineString", "coordinates": [[42.4935146, 18.2124998], [42.4926456, 18.2120314], [42.4924927, 18.2118403]]}}, {"type": "Feature", "properties": {"osmid": 288438548, "name": null, "highway": "unclassified", "lanes": null, "maxspeed": null, "oneway": false, "junction": null, "u": 1144640928, "v": 1105401017, "key": 4899, "length": 76.25646992769359, "road_segment_id": 4847, "segment_id": 20}, "geometry": {"type": "LineString", "coordinates": [[42.4959335, 18.2114478], [42.4958735, 18.2115812], [42.4958198, 18.211871699999993], [42.4958043, 18.2121197]]}}, {"type": "Feature", "properties": {"osmid": 288438548, "name": null, "highway": "unclassified", "lanes": null, "maxspeed": null, "oneway": false, "junction": null, "u": 1105401017, "v": 2920010631, "key": 4900, "length": 55.41025489318828, "road_segment_id": 4848, "segment_id": 21}, "geometry": {"type": "LineString", "coordinates": [[42.4958043, 18.2121197], [42.4957988, 18.2122066], [42.495747400000006, 18.212616999999998]]}}, {"type": "Feature", "properties": {"osmid": 288438549, "name": null, "highway": "unclassified", "lanes": null, "maxspeed": null, "oneway": false, "junction": null, "u": 9819438694, "v": 7117973354, "key": 4904, "length": 221.7628422459402, "road_segment_id": 4852, "segment_id": 22}, "geometry": {"type": "LineString", "coordinates": [[42.4978936, 18.213388700000003], [42.497416, 18.214122499999995], [42.4973616, 18.214156300000003], [42.4973072, 18.214174], [42.4962387, 18.2141447]]}}, {"type": "Feature", "properties": {"osmid": 288438549, "name": null, "highway": "unclassified", "lanes": null, "maxspeed": null, "oneway": false, "junction": null, "u": 7117973354, "v": 2920010649, "key": 4905, "length": 58.97155786559396, "road_segment_id": 4853, "segment_id": 23}, "geometry": {"type": "LineString", "coordinates": [[42.4962387, 18.2141447], [42.4956818, 18.214125799999998]]}}, {"type": "Feature", "properties": {"osmid": 288438551, "name": null, "highway": "unclassified", "lanes": null, "maxspeed": null, "oneway": false, "junction": null, "u": 1105400362, "v": 1105400935, "key": 4906, "length": 67.90003966674202, "road_segment_id": 4854, "segment_id": 24}, "geometry": {"type": "LineString", "coordinates": [[42.49337, 18.21272949999999], [42.4939168, 18.213050300000003]]}}, {"type": "Feature", "properties": {"osmid": 288438551, "name": null, "highway": "unclassified", "lanes": null, "maxspeed": null, "oneway": false, "junction": null, "u": 1105400935, "v": 2920010649, "key": 4907, "length": 253.8167638437098, "road_segment_id": 4855, "segment_id": 25}, "geometry": {"type": "LineString", "coordinates": [[42.4939168, 18.213050300000003], [42.4947886, 18.2135504], [42.4954977, 18.2135526], [42.4955766, 18.213582599999995], [42.495616, 18.213631799999998], [42.4956457, 18.213727500000005], [42.4956818, 18.214125799999998]]}}, {"type": "Feature", "properties": {"osmid": 288438551, "name": null, "highway": "unclassified", "lanes": null, "maxspeed": null, "oneway": false, "junction": null, "u": 2920010649, "v": 2920010650, "key": 4908, "length": 33.98811924377423, "road_segment_id": 4856, "segment_id": 26}, "geometry": {"type": "LineString", "coordinates": [[42.4956818, 18.214125799999998], [42.4957324, 18.214428900000005]]}}, {"type": "Feature", "properties": {"osmid": 288438551, "name": null, "highway": "unclassified", "lanes": null, "maxspeed": null, "oneway": false, "junction": null, "u": 2920010650, "v": 2920010651, "key": 4909, "length": 43.1657338999462, "road_segment_id": 4857, "segment_id": 27}, "geometry": {"type": "LineString", "coordinates": [[42.4957324, 18.214428900000005], [42.4957936, 18.2148143]]}}, {"type": "Feature", "properties": {"osmid": 288438553, "name": null, "highway": "unclassified", "lanes": null, "maxspeed": null, "oneway": false, "junction": null, "u": 2920010650, "v": 1634197552, "key": 4910, "length": 227.03327934375727, "road_segment_id": 4858, "segment_id": 28}, "geometry": {"type": "LineString", "coordinates": [[42.4957324, 18.214428900000005], [42.4963045, 18.214345899999998], [42.4969765, 18.214320300000004], [42.4971765, 18.214345], [42.4973364, 18.214444200000003], [42.4974599, 18.214565999999994], [42.4977829, 18.2145947]]}}, {"type": "Feature", "properties": {"osmid": 288438555, "name": null, "highway": "residential", "lanes": null, "maxspeed": null, "oneway": false, "junction": null, "u": 2920010660, "v": 2920010661, "key": 4911, "length": 28.78479661656118, "road_segment_id": 4859, "segment_id": 29}, "geometry": {"type": "LineString", "coordinates": [[42.4929733, 18.2134449], [42.492711, 18.213513699999996]]}}, {"type": "Feature", "properties": {"osmid": 288438555, "name": null, "highway": "residential", "lanes": null, "maxspeed": null, "oneway": false, "junction": null, "u": 2920010661, "v": 3469943343, "key": 4912, "length": 72.55718091546052, "road_segment_id": 4860, "segment_id": 30}, "geometry": {"type": "LineString", "coordinates": [[42.492711, 18.213513699999996], [42.492072, 18.2137512]]}}, {"type": "Feature", "properties": {"osmid": 288438559, "name": null, "highway": "unclassified", "lanes": null, "maxspeed": null, "oneway": false, "junction": null, "u": 1634197443, "v": 2920010663, "key": 4917, "length": 82.77486959775696, "road_segment_id": 4865, "segment_id": 31}, "geometry": {"type": "LineString", "coordinates": [[42.4915762, 18.213420600000003], [42.4920026, 18.213057400000004], [42.4921525, 18.2129155]]}}, {"type": "Feature", "properties": {"osmid": 288439081, "name": null, "highway": "unclassified", "lanes": null, "maxspeed": null, "oneway": false, "junction": null, "u": 1105400942, "v": 2920013658, "key": 4940, "length": 105.62290271055072, "road_segment_id": 4888, "segment_id": 32}, "geometry": {"type": "LineString", "coordinates": [[42.4950975, 18.216443200000004], [42.4953005, 18.2164285], [42.495604, 18.2164507], [42.4960927, 18.2164864]]}}, {"type": "Feature", "properties": {"osmid": 340239607, "name": "\u0637\u0631\u064a\u0642 \u0627\u0644\u0645\u0644\u0643 \u062e\u0627\u0644\u062f", "highway": "tertiary", "lanes": null, "maxspeed": null, "oneway": true, "junction": null, "u": 1634197443, "v": 3469943343, "key": 5440, "length": 63.978013596457835, "road_segment_id": 5388, "segment_id": 33}, "geometry": {"type": "LineString", "coordinates": [[42.4915762, 18.213420600000003], [42.492072, 18.2137512]]}}, {"type": "Feature", "properties": {"osmid": 340239607, "name": "\u0637\u0631\u064a\u0642 \u0627\u0644\u0645\u0644\u0643 \u062e\u0627\u0644\u062f", "highway": "tertiary", "lanes": null, "maxspeed": null, "oneway": true, "junction": null, "u": 3469943343, "v": 1105400427, "key": 5441, "length": 66.43610191062311, "road_segment_id": 5389, "segment_id": 34}, "geometry": {"type": "LineString", "coordinates": [[42.492072, 18.2137512], [42.4926001, 18.214075600000005]]}}, {"type": "Feature", "properties": {"osmid": 340239607, "name": "\u0637\u0631\u064a\u0642 \u0627\u0644\u0645\u0644\u0643 \u062e\u0627\u0644\u062f", "highway": "tertiary", "lanes": null, "maxspeed": null, "oneway": true, "junction": null, "u": 1105400427, "v": 2919142278, "key": 5442, "length": 211.0635188062016, "road_segment_id": 5390, "segment_id": 35}, "geometry": {"type": "LineString", "coordinates": [[42.4926001, 18.214075600000005], [42.4929512, 18.2142949], [42.4933037, 18.214497299999998], [42.4937684, 18.2147076], [42.494351, 18.2149822]]}}, {"type": "Feature", "properties": {"osmid": 340239607, "name": "\u0637\u0631\u064a\u0642 \u0627\u0644\u0645\u0644\u0643 \u062e\u0627\u0644\u062f", "highway": "tertiary", "lanes": null, "maxspeed": null, "oneway": true, "junction": null, "u": 2919142278, "v": 2920010652, "key": 5443, "length": 130.13578514465704, "road_segment_id": 5391, "segment_id": 36}, "geometry": {"type": "LineString", "coordinates": [[42.494351, 18.2149822], [42.4947606, 18.215112600000005], [42.4951743, 18.2151715], [42.4955512, 18.215215699999998]]}}, {"type": "Feature", "properties": {"osmid": 340239607, "name": "\u0637\u0631\u064a\u0642 \u0627\u0644\u0645\u0644\u0643 \u062e\u0627\u0644\u062f", "highway": "tertiary", "lanes": null, "maxspeed": null, "oneway": true, "junction": null, "u": 2920010652, "v": 2921558448, "key": 5444, "length": 80.13297788840967, "road_segment_id": 5392, "segment_id": 37}, "geometry": {"type": "LineString", "coordinates": [[42.4955512, 18.215215699999998], [42.4963084, 18.215220999999996]]}}, {"type": "Feature", "properties": {"osmid": 340239607, "name": "\u0637\u0631\u064a\u0642 \u0627\u0644\u0645\u0644\u0643 \u062e\u0627\u0644\u062f", "highway": "tertiary", "lanes": null, "maxspeed": null, "oneway": true, "junction": null, "u": 2921558448, "v": 7365211543, "key": 5445, "length": 145.83679103680646, "road_segment_id": 5393, "segment_id": 38}, "geometry": {"type": "LineString", "coordinates": [[42.4963084, 18.215220999999996], [42.4966621, 18.215225100000005], [42.4969867, 18.2151835], [42.4972427, 18.2151362], [42.4973621, 18.215104199999992], [42.4974529, 18.215053599999994], [42.4975116, 18.21499319999999], [42.4975976, 18.214912199999997]]}}, {"type": "Feature", "properties": {"osmid": 761832058, "name": null, "highway": "residential", "lanes": null, "maxspeed": null, "oneway": false, "junction": null, "u": 1105400942, "v": 1105400640, "key": 5712, "length": 61.56788757702791, "road_segment_id": 5660, "segment_id": 39}, "geometry": {"type": "LineString", "coordinates": [[42.4950975, 18.216443200000004], [42.495204, 18.215896600000004]]}}, {"type": "Feature", "properties": {"osmid": 761832104, "name": null, "highway": "service", "lanes": null, "maxspeed": null, "oneway": false, "junction": null, "u": 7117973354, "v": 7365223337, "key": 5746, "length": 186.37349964761464, "road_segment_id": 5694, "segment_id": 40}, "geometry": {"type": "LineString", "coordinates": [[42.4962387, 18.2141447], [42.4963921, 18.2137906], [42.496338, 18.2132514], [42.4961869, 18.2131395], [42.4960368, 18.213093699999998], [42.4958809, 18.2129457], [42.49583280000001, 18.2127358]]}}, {"type": "Feature", "properties": {"osmid": 787786456, "name": null, "highway": "unclassified", "lanes": null, "maxspeed": null, "oneway": false, "junction": null, "u": 2920010661, "v": 2920010663, "key": 6188, "length": 88.97361208939347, "road_segment_id": 6135, "segment_id": 41}, "geometry": {"type": "LineString", "coordinates": [[42.492711, 18.213513699999996], [42.4924223, 18.2132446], [42.4921525, 18.2129155]]}}, {"type": "Feature", "properties": {"osmid": 787786456, "name": null, "highway": "unclassified", "lanes": null, "maxspeed": null, "oneway": false, "junction": null, "u": 2920010663, "v": 2920010667, "key": 6189, "length": 143.6466602817548, "road_segment_id": 6136, "segment_id": 42}, "geometry": {"type": "LineString", "coordinates": [[42.4921525, 18.2129155], [42.4921451, 18.212827899999997], [42.4917348, 18.2123091], [42.4912685, 18.2119716]]}}, {"type": "Feature", "properties": {"osmid": 787786457, "name": null, "highway": "tertiary", "lanes": null, "maxspeed": null, "oneway": true, "junction": null, "u": 2920010651, "v": 2921558448, "key": 6190, "length": 77.09601112223412, "road_segment_id": 6137, "segment_id": 43}, "geometry": {"type": "LineString", "coordinates": [[42.4957936, 18.2148143], [42.495869, 18.2149627], [42.4959682, 18.215104400000005], [42.4960332, 18.215166199999995], [42.4961227, 18.215207999999997], [42.4963084, 18.215220999999996]]}}, {"type": "Feature", "properties": {"osmid": 787786458, "name": null, "highway": "tertiary", "lanes": null, "maxspeed": null, "oneway": true, "junction": null, "u": 2920010652, "v": 2920010651, "key": 6191, "length": 54.61508725419708, "road_segment_id": 6138, "segment_id": 44}, "geometry": {"type": "LineString", "coordinates": [[42.4955512, 18.215215699999998], [42.4956423, 18.215162199999995], [42.4956954, 18.215106800000004], [42.4957456, 18.215052199999995], [42.4957805, 18.2149353], [42.4957936, 18.2148143]]}}, {"type": "Feature", "properties": {"osmid": 1069882650, "name": null, "highway": "service", "lanes": null, "maxspeed": null, "oneway": false, "junction": null, "u": 9819471517, "v": 9819470310, "key": 6642, "length": 89.3880650249726, "road_segment_id": 6587, "segment_id": 45}, "geometry": {"type": "LineString", "coordinates": [[42.4936268, 18.2134866], [42.4937193, 18.2134833], [42.4939243, 18.2134759], [42.4939571, 18.213485499999994], [42.4939719, 18.2135027], [42.4939813, 18.2136059], [42.4939719, 18.213632], [42.493943, 18.213648499999998], [42.4936403, 18.213742899999993]]}}, {"type": "Feature", "properties": {"osmid": 1069882651, "name": null, "highway": "service", "lanes": null, "maxspeed": null, "oneway": false, "junction": null, "u": 9819471520, "v": 9819471532, "key": 6643, "length": 28.922472345425, "road_segment_id": 6588, "segment_id": 46}, "geometry": {"type": "LineString", "coordinates": [[42.4933303, 18.213120600000003], [42.4936031, 18.2131364]]}}, {"type": "Feature", "properties": {"osmid": 1069882652, "name": null, "highway": "service", "lanes": null, "maxspeed": null, "oneway": false, "junction": null, "u": 9819471522, "v": 9819471523, "key": 6644, "length": 17.380046359279635, "road_segment_id": 6589, "segment_id": 47}, "geometry": {"type": "LineString", "coordinates": [[42.4930773, 18.2132865], [42.4932396, 18.213262499999995]]}}, {"type": "Feature", "properties": {"osmid": 1069882652, "name": null, "highway": "service", "lanes": null, "maxspeed": null, "oneway": false, "junction": null, "u": 9819471523, "v": 9819471521, "key": 6645, "length": 38.21343597152484, "road_segment_id": 6590, "segment_id": 48}, "geometry": {"type": "LineString", "coordinates": [[42.4932396, 18.213262499999995], [42.4935994, 18.213291699999996]]}}, {"type": "Feature", "properties": {"osmid": 1069882653, "name": null, "highway": "service", "lanes": null, "maxspeed": null, "oneway": false, "junction": null, "u": 9819471531, "v": 9819471520, "key": 6646, "length": 40.29504960631661, "road_segment_id": 6591, "segment_id": 49}, "geometry": {"type": "LineString", "coordinates": [[42.4936192, 18.213042799999997], [42.4934918, 18.2129785], [42.4934589, 18.212977799999997], [42.493422, 18.2129906], [42.4933939, 18.21302109999999], [42.4933303, 18.213120600000003]]}}, {"type": "Feature", "properties": {"osmid": 1069882653, "name": null, "highway": "service", "lanes": null, "maxspeed": null, "oneway": false, "junction": null, "u": 9819471520, "v": 9819471523, "key": 6647, "length": 18.41296402764401, "road_segment_id": 6592, "segment_id": 50}, "geometry": {"type": "LineString", "coordinates": [[42.4933303, 18.213120600000003], [42.4932396, 18.213262499999995]]}}, {"type": "Feature", "properties": {"osmid": 1069882654, "name": null, "highway": "service", "lanes": null, "maxspeed": null, "oneway": false, "junction": null, "u": 9819471541, "v": 9819470310, "key": 6648, "length": 106.7769464612455, "road_segment_id": 6593, "segment_id": 51}, "geometry": {"type": "LineString", "coordinates": [[42.4928158, 18.2137402], [42.4929916, 18.213906299999998], [42.4933228, 18.213963199999995], [42.4935186, 18.213902], [42.4936071, 18.2138383], [42.493642, 18.213774699999995], [42.4936403, 18.213742899999993]]}}, {"type": "Feature", "properties": {"osmid": 1069882654, "name": null, "highway": "service", "lanes": null, "maxspeed": null, "oneway": false, "junction": null, "u": 9819470310, "v": 9819471517, "key": 6649, "length": 28.417245075793048, "road_segment_id": 6594, "segment_id": 52}, "geometry": {"type": "LineString", "coordinates": [[42.4936403, 18.213742899999993], [42.4936268, 18.2134866]]}}, {"type": "Feature", "properties": {"osmid": 1069882654, "name": null, "highway": "service", "lanes": null, "maxspeed": null, "oneway": false, "junction": null, "u": 9819471517, "v": 9819471521, "key": 6650, "length": 21.823635208783095, "road_segment_id": 6595, "segment_id": 53}, "geometry": {"type": "LineString", "coordinates": [[42.4936268, 18.2134866], [42.4936245, 18.2134434], [42.4936071, 18.213365699999994], [42.4935994, 18.213291699999996]]}}, {"type": "Feature", "properties": {"osmid": 1069882654, "name": null, "highway": "service", "lanes": null, "maxspeed": null, "oneway": false, "junction": null, "u": 9819471521, "v": 9819471532, "key": 6651, "length": 17.208294359583952, "road_segment_id": 6596, "segment_id": 54}, "geometry": {"type": "LineString", "coordinates": [[42.4935994, 18.213291699999996], [42.4935991, 18.213209], [42.4936031, 18.2131364]]}}, {"type": "Feature", "properties": {"osmid": 1069882654, "name": null, "highway": "service", "lanes": null, "maxspeed": null, "oneway": false, "junction": null, "u": 9819471532, "v": 9819471531, "key": 6652, "length": 10.50387645405217, "road_segment_id": 6597, "segment_id": 55}, "geometry": {"type": "LineString", "coordinates": [[42.4936031, 18.2131364], [42.4936192, 18.213042799999997]]}}, {"type": "Feature", "properties": {"osmid": 1069882654, "name": null, "highway": "service", "lanes": null, "maxspeed": null, "oneway": false, "junction": null, "u": 9819471531, "v": 1105400935, "key": 6653, "length": 36.335123318666724, "road_segment_id": 6598, "segment_id": 56}, "geometry": {"type": "LineString", "coordinates": [[42.4936192, 18.213042799999997], [42.4936869, 18.2130842], [42.4937305, 18.213116000000003], [42.493756000000005, 18.2131211], [42.4937835, 18.213121100000002], [42.493823, 18.213112199999998], [42.4939168, 18.213050300000003]]}}]}