{
  "type": "FeatureCollection",
  "features": [
    {
      "type": "Feature",
      "geometry": {
        "type": "Polygon",
        "coordinates": [
          [
            [
              35.2019315,
              28.0022293
            ],
            [
              35.2019713,
              28.0017263
            ],
            [
              35.2029471,
              28.0017866
            ],
            [
              35.2029072,
              28.0022897
            ],
            [
              35.2019315,
              28.0022293
            ]
          ]
        ]
      },
      "properties": {
        "osm_id": 849103852,
        "name": "",
        "landuse": "construction"
      }
    },
    {
      "type": "Feature",
      "geometry": {
        "type": "Polygon",
        "coordinates": [
          [
            [
              35.2067797,
              28.0026073
            ],
            [
              35.2068196,
              28.0021043
            ],
            [
              35.2077953,
              28.0021645
            ],
            [
              35.2077554,
              28.0026676
            ],
            [
              35.2067797,
              28.0026073
            ]
          ]
        ]
      },
      "properties": {
        "osm_id": 849103853,
        "name": "",
        "landuse": "construction"
      }
    },
    {
      "type": "Feature",
      "geometry": {
        "type": "Polygon",
        "coordinates": [
          [
            [
              35.1990796,
              28.0075422
            ],
            [
              35.1991194,
              28.0070392
            ],
            [
              35.2000951,
              28.0070994
            ],
            [
              35.2000553,
              28.0076025
            ],
            [
              35.1990796,
              28.0075422
            ]
          ]
        ]
      },
      "properties": {
        "osm_id": 849103881,
        "name": "",
        "landuse": "construction"
      }
    },
    {
      "type": "Feature",
      "geometry": {
        "type": "Polygon",
        "coordinates": [
          [
            [
              35.2013163,
              28.0077076
            ],
            [
              35.2013562,
              28.0072046
            ],
            [
              35.2023319,
              28.0072648
            ],
            [
              35.202292,
              28.0077679
            ],
            [
              35.2013163,
              28.0077076
            ]
          ]
        ]
      },
      "properties": {
        "osm_id": 849103882,
        "name": "",
        "landuse": "construction"
      }
    },
    {
      "type": "Feature",
      "geometry": {
        "type": "Polygon",
        "coordinates": [
          [
            [
              35.2028548,
              28.0078179
            ],
            [
              35.2028946,
              28.0073149
            ],
            [
              35.2038703,
              28.0073751
            ],
            [
              35.2038305,
              28.0078782
            ],
            [
              35.2028548,
              28.0078179
            ]
          ]
        ]
      },
      "properties": {
        "osm_id": 849103883,
        "name": "",
        "landuse": "construction"
      }
    },
    {
      "type": "Feature",
      "geometry": {
        "type": "Polygon",
        "coordinates": [
          [
            [
              35.2066697,
              28.0080835
            ],
            [
              35.2067096,
              28.0075805
            ],
            [
              35.2076853,
              28.0076408
            ],
            [
              35.2076454,
              28.0081438
            ],
            [
              35.2066697,
              28.0080835
            ]
          ]
        ]
      },
      "properties": {
        "osm_id": 849103884,
        "name": "",
        "landuse": "construction"
      }
    },
    {
      "type": "Feature",
      "geometry": {
        "type": "Polygon",
        "coordinates": [
          [
            [
              35.208946,
              28.0051681
            ],
            [
              35.2090046,
              28.0044879
            ],
            [
              35.20973,
              28.0045396
            ],
            [
              35.2096624,
              28.0052238
            ],
            [
              35.208946,
              28.0051681
            ]
          ]
        ]
      },
      "properties": {
        "osm_id": 849103885,
        "name": "",
        "landuse": "construction"
      }
    },
    {
      "type": "Feature",
      "geometry": {
        "type": "Polygon",
        "coordinates": [
          [
            [
              35.2204372,
              28.0479437
            ],
            [
              35.2212888,
              28.0474377
            ],
            [
              35.223588,
              28.0491211
            ],
            [
              35.2208914,
              28.0502534
            ],
            [
              35.2210787,
              28.0492013
            ],
            [
              35.2202896,
              28.0490109
            ],
            [
              35.2198922,
              28.0485901
            ],
            [
              35.2205678,
              28.0483045
            ],
            [
              35.2204372,
              28.0479437
            ]
          ]
        ]
      },
      "properties": {
        "osm_id": 849189795,
        "name": "",
        "landuse": "construction"
      }
    },
    {
      "type": "Feature",
      "geometry": {
        "type": "Polygon",
        "coordinates": [
          [
            [
              35.255853,
              28.0198473
            ],
            [
              35.2532322,
              28.0187302
            ],
            [
              35.2788817,
              27.9696358
            ],
            [
              35.2834833,
              27.9672091
            ],
            [
              35.2817716,
              27.9705843
            ],
            [
              35.255853,
              28.0198473
            ]
          ]
        ]
      },
      "properties": {
        "osm_id": 1216978080,
        "name": "",
        "landuse": "construction"
      }
    },
    {
      "type": "Feature",
      "geometry": {
        "type": "Polygon",
        "coordinates": [
          [
            [
              35.1881843,
              28.0727519
            ],
            [
              35.193243,
              28.07092
            ],
            [
              35.2001362,
              28.0672801
            ],
            [
              35.2105808,
              28.0618126
            ],
            [
              35.2125335,
              28.0607712
            ],
            [
              35.2190351,
              28.0579498
            ],
            [
              35.2468871,
              28.0468718
            ],
            [
              35.2468818,
              28.0459675
            ],
            [
              35.2420538,
              28.0477666
            ],
            [
              35.2409434,
              28.0482164
            ],
            [
              35.2244639,
              28.0548254
            ],
            [
              35.2116,
              28.0600233
            ],
            [
              35.2018099,
              28.0654624
            ],
            [
              35.1967406,
              28.0683261
            ],
            [
              35.1928567,
              28.0702385
            ],
            [
              35.1877552,
              28.0719188
            ],
            [
              35.1881843,
              28.0727519
            ]
          ]
        ]
      },
      "properties": {
        "osm_id": 1249142095,
        "name": "",
        "landuse": "construction"
      }
    },
    {
      "type": "Feature",
      "geometry": {
        "type": "Polygon",
        "coordinates": [
          [
            [
              35.250382,
              28.0594757
            ],
            [
              35.2534166,
              28.082134
            ],
            [
              35.2507129,
              28.0823991
            ],
            [
              35.2475895,
              28.0585863
            ],
            [
              35.2469301,
              28.0435008
            ],
            [
              35.2463078,
              28.0418153
            ],
            [
              35.2464169,
              28.0379654
            ],
            [
              35.2471876,
              28.0338797
            ],
            [
              35.248239,
              28.029798
            ],
            [
              35.249725,
              28.0257352
            ],
            [
              35.2530777,
              28.0247834
            ],
            [
              35.2511144,
              28.0295471
            ],
            [
              35.2498162,
              28.0344337
            ],
            [
              35.2494138,
              28.0367964
            ],
            [
              35.2492261,
              28.038643
            ],
            [
              35.249205,
              28.0392637
            ],
            [
              35.249033,
              28.0424024
            ],
            [
              35.2494406,
              28.0440879
            ],
            [
              35.249666,
              28.0478565
            ],
            [
              35.2505886,
              28.0478755
            ],
            [
              35.2507067,
              28.0483584
            ],
            [
              35.251447,
              28.0494662
            ],
            [
              35.2518225,
              28.0502237
            ],
            [
              35.2519727,
              28.0514262
            ],
            [
              35.2527344,
              28.0517576
            ],
            [
              35.2530134,
              28.0534146
            ],
            [
              35.2538502,
              28.0540205
            ],
            [
              35.254848,
              28.0543803
            ],
            [
              35.2575624,
              28.0537744
            ],
            [
              35.2587962,
              28.0544277
            ],
            [
              35.2601587,
              28.0558858
            ],
            [
              35.2592468,
              28.0595972
            ],
            [
              35.2570152,
              28.0618695
            ],
            [
              35.252552,
              28.0617937
            ],
            [
              35.250382,
              28.0594757
            ]
          ]
        ]
      },
      "properties": {
        "osm_id": 1249996637,
        "name": "",
        "landuse": "construction"
      }
    },
    {
      "type": "Feature",
      "geometry": {
        "type": "Polygon",
        "coordinates": [
          [
            [
              35.2705093,
              28.0194764
            ],
            [
              35.2679314,
              28.018795
            ],
            [
              35.2757263,
              27.9994033
            ],
            [
              35.2851684,
              27.9811267
            ],
            [
              35.365119,
              27.9230282
            ],
            [
              35.3737503,
              27.9108081
            ],
            [
              35.3805525,
              27.9045222
            ],
            [
              35.3818238,
              27.905475
            ],
            [
              35.3750431,
              27.9116377
            ],
            [
              35.3663528,
              27.924218
            ],
            [
              35.3167116,
              27.9617259
            ],
            [
              35.2872119,
              27.9821519
            ],
            [
              35.2777433,
              28.0006917
            ],
            [
              35.2723789,
              28.0143886
            ],
            [
              35.273366,
              28.0153358
            ],
            [
              35.2726578,
              28.0180068
            ],
            [
              35.2712416,
              28.0174953
            ],
            [
              35.2705093,
              28.0194764
            ]
          ]
        ]
      },
      "properties": {
        "osm_id": 1253346815,
        "name": "",
        "landuse": "construction"
      }
    }
  ],
  "properties": {
    "description": "Construction landuse areas",
    "count": 12
  }
}