{
  "type": "FeatureCollection",
  "features": [
    {
      "type": "Feature",
      "geometry": {
        "type": "Polygon",
        "coordinates": [
          [
            [
              35.247853,
              28.0306834
            ],
            [
              35.2446935,
              28.0317484
            ],
            [
              35.2417883,
              28.0326225
            ],
            [
              35.239723,
              28.0328593
            ],
            [
              35.2382613,
              28.0328391
            ],
            [
              35.237971,
              28.0313139
            ],
            [
              35.239979,
              28.029687
            ],
            [
              35.2409402,
              28.0287871
            ],
            [
              35.2406978,
              28.0255904
            ],
            [
              35.2419391,
              28.0215609
            ],
            [
              35.24338,
              28.0203873
            ],
            [
              35.2446908,
              28.0204753
            ],
            [
              35.2459077,
              28.0224026
            ],
            [
              35.2495909,
              28.0257541
            ],
            [
              35.247853,
              28.0306834
            ]
          ]
        ]
      },
      "properties": {
        "osm_id": 573115815,
        "landuse": "residential",
        "name": ""
      }
    },
    {
      "type": "Feature",
      "geometry": {
        "type": "Polygon",
        "coordinates": [
          [
            [
              35.2270919,
              28.025443
            ],
            [
              35.2273406,
              28.0246428
            ],
            [
              35.2292989,
              28.0251168
            ],
            [
              35.2290501,
              28.0259174
            ],
            [
              35.2270919,
              28.025443
            ]
          ]
        ]
      },
      "properties": {
        "osm_id": 849103755,
        "landuse": "orchard",
        "name": ""
      }
    },
    {
      "type": "Feature",
      "geometry": {
        "type": "Polygon",
        "coordinates": [
          [
            [
              35.203542,
              28.0052001
            ],
            [
              35.2029542,
              28.0051586
            ],
            [
              35.2028806,
              28.0051535
            ],
            [
              35.2025596,
              28.0051308
            ],
            [
              35.2023324,
              28.0051148
            ],
            [
              35.2021987,
              28.0051053
            ],
            [
              35.2019919,
              28.0050907
            ],
            [
              35.2014524,
              28.0050527
            ],
            [
              35.2013502,
              28.0050454
            ],
            [
              35.2004052,
              28.0049787
            ],
            [
              35.1991304,
              28.0048888
            ],
            [
              35.1990454,
              28.0048828
            ],
            [
              35.1985079,
              28.0048448
            ],
            [
              35.1981029,
              28.0048163
            ],
            [
              35.1977194,
              28.0047892
            ],
            [
              35.1966915,
              28.0047166
            ],
            [
              35.1962981,
              28.0046889
            ],
            [
              35.1965252,
              28.0022328
            ],
            [
              35.1972519,
              28.002283
            ],
            [
              35.1972632,
              28.0021877
            ],
            [
              35.1988358,
              28.002293
            ],
            [
              35.1988301,
              28.0023832
            ],
            [
              35.2028172,
              28.0026732
            ],
            [
              35.2037918,
              28.0027441
            ],
            [
              35.203542,
              28.0052001
            ]
          ]
        ]
      },
      "properties": {
        "osm_id": 849103762,
        "landuse": "residential",
        "name": "Staff Compound"
      }
    },
    {
      "type": "Feature",
      "geometry": {
        "type": "Polygon",
        "coordinates": [
          [
            [
              35.20379,
              28.005224
            ],
            [
              35.2040257,
              28.0027462
            ],
            [
              35.208566,
              28.0030829
            ],
            [
              35.208327,
              28.0055965
            ],
            [
              35.2079488,
              28.0055685
            ],
            [
              35.2078149,
              28.0055586
            ],
            [
              35.2074355,
              28.0055305
            ],
            [
              35.2074888,
              28.0049706
            ],
            [
              35.2073439,
              28.0049599
            ],
            [
              35.2072387,
              28.0049521
            ],
            [
              35.2050001,
              28.0047861
            ],
            [
              35.2049118,
              28.0047796
            ],
            [
              35.204822,
              28.0047729
            ],
            [
              35.2047722,
              28.0052968
            ],
            [
              35.20379,
              28.005224
            ]
          ]
        ]
      },
      "properties": {
        "osm_id": 849103763,
        "landuse": "military",
        "name": "Security Camp"
      }
    },
    {
      "type": "Feature",
      "geometry": {
        "type": "Polygon",
        "coordinates": [
          [
            [
              35.2019315,
              28.0022293
            ],
            [
              35.2019713,
              28.0017263
            ],
            [
              35.2029471,
              28.0017866
            ],
            [
              35.2029072,
              28.0022897
            ],
            [
              35.2019315,
              28.0022293
            ]
          ]
        ]
      },
      "properties": {
        "osm_id": 849103852,
        "landuse": "construction",
        "name": ""
      }
    },
    {
      "type": "Feature",
      "geometry": {
        "type": "Polygon",
        "coordinates": [
          [
            [
              35.2067797,
              28.0026073
            ],
            [
              35.2068196,
              28.0021043
            ],
            [
              35.2077953,
              28.0021645
            ],
            [
              35.2077554,
              28.0026676
            ],
            [
              35.2067797,
              28.0026073
            ]
          ]
        ]
      },
      "properties": {
        "osm_id": 849103853,
        "landuse": "construction",
        "name": ""
      }
    },
    {
      "type": "Feature",
      "geometry": {
        "type": "Polygon",
        "coordinates": [
          [
            [
              35.1990796,
              28.0075422
            ],
            [
              35.1991194,
              28.0070392
            ],
            [
              35.2000951,
              28.0070994
            ],
            [
              35.2000553,
              28.0076025
            ],
            [
              35.1990796,
              28.0075422
            ]
          ]
        ]
      },
      "properties": {
        "osm_id": 849103881,
        "landuse": "construction",
        "name": ""
      }
    },
    {
      "type": "Feature",
      "geometry": {
        "type": "Polygon",
        "coordinates": [
          [
            [
              35.2013163,
              28.0077076
            ],
            [
              35.2013562,
              28.0072046
            ],
            [
              35.2023319,
              28.0072648
            ],
            [
              35.202292,
              28.0077679
            ],
            [
              35.2013163,
              28.0077076
            ]
          ]
        ]
      },
      "properties": {
        "osm_id": 849103882,
        "landuse": "construction",
        "name": ""
      }
    },
    {
      "type": "Feature",
      "geometry": {
        "type": "Polygon",
        "coordinates": [
          [
            [
              35.2028548,
              28.0078179
            ],
            [
              35.2028946,
              28.0073149
            ],
            [
              35.2038703,
              28.0073751
            ],
            [
              35.2038305,
              28.0078782
            ],
            [
              35.2028548,
              28.0078179
            ]
          ]
        ]
      },
      "properties": {
        "osm_id": 849103883,
        "landuse": "construction",
        "name": ""
      }
    },
    {
      "type": "Feature",
      "geometry": {
        "type": "Polygon",
        "coordinates": [
          [
            [
              35.2066697,
              28.0080835
            ],
            [
              35.2067096,
              28.0075805
            ],
            [
              35.2076853,
              28.0076408
            ],
            [
              35.2076454,
              28.0081438
            ],
            [
              35.2066697,
              28.0080835
            ]
          ]
        ]
      },
      "properties": {
        "osm_id": 849103884,
        "landuse": "construction",
        "name": ""
      }
    },
    {
      "type": "Feature",
      "geometry": {
        "type": "Polygon",
        "coordinates": [
          [
            [
              35.208946,
              28.0051681
            ],
            [
              35.2090046,
              28.0044879
            ],
            [
              35.20973,
              28.0045396
            ],
            [
              35.2096624,
              28.0052238
            ],
            [
              35.208946,
              28.0051681
            ]
          ]
        ]
      },
      "properties": {
        "osm_id": 849103885,
        "landuse": "construction",
        "name": ""
      }
    },
    {
      "type": "Feature",
      "geometry": {
        "type": "Polygon",
        "coordinates": [
          [
            [
              35.216857,
              27.9973745
            ],
            [
              35.2164245,
              27.9969925
            ],
            [
              35.2155684,
              27.9964514
            ],
            [
              35.2150096,
              27.9956796
            ],
            [
              35.2143698,
              27.9953613
            ],
            [
              35.2140634,
              27.9945417
            ],
            [
              35.2141355,
              27.9940802
            ],
            [
              35.2135497,
              27.9936187
            ],
            [
              35.2132524,
              27.9925365
            ],
            [
              35.2132657,
              27.9921242
            ],
            [
              35.2131692,
              27.9918566
            ],
            [
              35.2132496,
              27.9916316
            ],
            [
              35.2132215,
              27.9913864
            ],
            [
              35.2133046,
              27.9911295
            ],
            [
              35.2134326,
              27.9904596
            ],
            [
              35.2131983,
              27.9896957
            ],
            [
              35.2134236,
              27.9883747
            ],
            [
              35.2138021,
              27.9878018
            ],
            [
              35.2144419,
              27.9875471
            ],
            [
              35.215325,
              27.9876028
            ],
            [
              35.2156224,
              27.987754
            ],
            [
              35.2171814,
              27.9891068
            ],
            [
              35.2187945,
              27.9910723
            ],
            [
              35.2192992,
              27.9923216
            ],
            [
              35.2209123,
              27.9942632
            ],
            [
              35.2209393,
              27.9956319
            ],
            [
              35.2210204,
              27.9966504
            ],
            [
              35.2209954,
              27.9967953
            ],
            [
              35.2209573,
              27.9971119
            ],
            [
              35.2206599,
              27.9975177
            ],
            [
              35.2201012,
              27.9974143
            ],
            [
              35.2198038,
              27.9978439
            ],
            [
              35.2194614,
              27.9975654
            ],
            [
              35.2185873,
              27.9974461
            ],
            [
              35.2180736,
              27.9975336
            ],
            [
              35.2177131,
              27.997645
            ],
            [
              35.2173256,
              27.9975495
            ],
            [
              35.216857,
              27.9973745
            ]
          ]
        ]
      },
      "properties": {
        "osm_id": 849103937,
        "landuse": "industrial",
        "name": "mil industry or construction"
      }
    },
    {
      "type": "Feature",
      "geometry": {
        "type": "Polygon",
        "coordinates": [
          [
            [
              35.2211577,
              28.0031878
            ],
            [
              35.220732,
              28.0030825
            ],
            [
              35.2203289,
              28.002882
            ],
            [
              35.2199769,
              28.0025161
            ],
            [
              35.2192048,
              28.0026514
            ],
            [
              35.2186428,
              28.0026765
            ],
            [
              35.2180808,
              28.0025462
            ],
            [
              35.2176948,
              28.002466
            ],
            [
              35.2171271,
              28.002476
            ],
            [
              35.2167921,
              28.0024259
            ],
            [
              35.2164174,
              28.0023106
            ],
            [
              35.2157532,
              28.0023758
            ],
            [
              35.2150266,
              28.0022956
            ],
            [
              35.2142318,
              28.0020349
            ],
            [
              35.2125571,
              28.0019046
            ],
            [
              35.2118645,
              28.0018745
            ],
            [
              35.2116544,
              28.0014384
            ],
            [
              35.2142942,
              28.0016389
            ],
            [
              35.2147541,
              28.0015638
            ],
            [
              35.2153388,
              28.0015337
            ],
            [
              35.2159519,
              28.0016389
            ],
            [
              35.2164345,
              28.0017993
            ],
            [
              35.216883,
              28.0017542
            ],
            [
              35.2171838,
              28.0017793
            ],
            [
              35.2177232,
              28.0019146
            ],
            [
              35.2183533,
              28.0018595
            ],
            [
              35.2188131,
              28.0018946
            ],
            [
              35.2192843,
              28.0019748
            ],
            [
              35.2196533,
              28.0020951
            ],
            [
              35.2200223,
              28.0022555
            ],
            [
              35.2203289,
              28.0020449
            ],
            [
              35.2206922,
              28.0019046
            ],
            [
              35.2209931,
              28.0018545
            ],
            [
              35.2213053,
              28.0018545
            ],
            [
              35.2214018,
              28.0019046
            ],
            [
              35.2213905,
              28.003293
            ],
            [
              35.2211577,
              28.0031878
            ]
          ]
        ]
      },
      "properties": {
        "osm_id": 849104013,
        "landuse": "grass",
        "name": ""
      }
    },
    {
      "type": "Feature",
      "geometry": {
        "type": "Polygon",
        "coordinates": [
          [
            [
              35.2455973,
              28.046031
            ],
            [
              35.244723,
              28.0458607
            ],
            [
              35.2442802,
              28.0438565
            ],
            [
              35.2449728,
              28.0433856
            ],
            [
              35.2463693,
              28.0437664
            ],
            [
              35.2455973,
              28.046031
            ]
          ]
        ]
      },
      "properties": {
        "osm_id": 849104017,
        "landuse": "industrial",
        "name": ""
      }
    },
    {
      "type": "Feature",
      "geometry": {
        "type": "Polygon",
        "coordinates": [
          [
            [
              35.1958433,
              28.0187089
            ],
            [
              35.1959791,
              28.0183174
            ],
            [
              35.1944485,
              28.0177113
            ],
            [
              35.1949808,
              28.0168765
            ],
            [
              35.1950565,
              28.0167578
            ],
            [
              35.1953283,
              28.0141373
            ],
            [
              35.199293,
              28.0143966
            ],
            [
              35.1988831,
              28.018915
            ],
            [
              35.1958433,
              28.0187089
            ]
          ]
        ]
      },
      "properties": {
        "osm_id": 849104048,
        "landuse": "industrial",
        "name": ""
      }
    },
    {
      "type": "Feature",
      "geometry": {
        "type": "Polygon",
        "coordinates": [
          [
            [
              35.1937905,
              28.0139921
            ],
            [
              35.1942911,
              28.0083531
            ],
            [
              35.1957646,
              28.0084983
            ],
            [
              35.195271,
              28.0141058
            ],
            [
              35.1937905,
              28.0139921
            ]
          ]
        ]
      },
      "properties": {
        "osm_id": 849104064,
        "landuse": "industrial",
        "name": ""
      }
    },
    {
      "type": "Feature",
      "geometry": {
        "type": "Polygon",
        "coordinates": [
          [
            [
              35.1958576,
              28.0084983
            ],
            [
              35.1956144,
              28.0111126
            ],
            [
              35.1995054,
              28.0113905
            ],
            [
              35.1996627,
              28.0098686
            ],
            [
              35.1988116,
              28.0098055
            ],
            [
              35.1988831,
              28.0087193
            ],
            [
              35.1958576,
              28.0084983
            ]
          ]
        ]
      },
      "properties": {
        "osm_id": 849104065,
        "landuse": "industrial",
        "name": ""
      }
    },
    {
      "type": "Feature",
      "geometry": {
        "type": "Polygon",
        "coordinates": [
          [
            [
              35.1995268,
              28.0127418
            ],
            [
              35.1999059,
              28.0088141
            ],
            [
              35.2037897,
              28.0090919
            ],
            [
              35.2035609,
              28.0120977
            ],
            [
              35.2017656,
              28.0119777
            ],
            [
              35.2016511,
              28.0129249
            ],
            [
              35.1995268,
              28.0127418
            ]
          ]
        ]
      },
      "properties": {
        "osm_id": 849104066,
        "landuse": "industrial",
        "name": ""
      }
    },
    {
      "type": "Feature",
      "geometry": {
        "type": "Polygon",
        "coordinates": [
          [
            [
              35.1956144,
              28.0111126
            ],
            [
              35.1953283,
              28.0141373
            ],
            [
              35.199293,
              28.0143966
            ],
            [
              35.1995054,
              28.0113905
            ],
            [
              35.1956144,
              28.0111126
            ]
          ]
        ]
      },
      "properties": {
        "osm_id": 849104067,
        "landuse": "residential",
        "name": "Construction Camp Housing"
      }
    },
    {
      "type": "Feature",
      "geometry": {
        "type": "Polygon",
        "coordinates": [
          [
            [
              35.2018858,
              28.0145778
            ],
            [
              35.2019552,
              28.0136911
            ],
            [
              35.2033312,
              28.0137748
            ],
            [
              35.2032618,
              28.0146618
            ],
            [
              35.2018858,
              28.0145778
            ]
          ]
        ]
      },
      "properties": {
        "osm_id": 849104068,
        "landuse": "industrial",
        "name": ""
      }
    },
    {
      "type": "Feature",
      "geometry": {
        "type": "Polygon",
        "coordinates": [
          [
            [
              35.1996207,
              28.0144127
            ],
            [
              35.1997581,
              28.0134415
            ],
            [
              35.2008636,
              28.0135633
            ],
            [
              35.2007264,
              28.0145345
            ],
            [
              35.1996207,
              28.0144127
            ]
          ]
        ]
      },
      "properties": {
        "osm_id": 849104069,
        "landuse": "industrial",
        "name": ""
      }
    },
    {
      "type": "Feature",
      "geometry": {
        "type": "Polygon",
        "coordinates": [
          [
            [
              35.1913241,
              28.0233783
            ],
            [
              35.1908465,
              28.0247625
            ],
            [
              35.1919279,
              28.025033
            ],
            [
              35.1924506,
              28.0238875
            ],
            [
              35.1913241,
              28.0233783
            ]
          ]
        ]
      },
      "properties": {
        "osm_id": 849104072,
        "landuse": "industrial",
        "name": ""
      }
    },
    {
      "type": "Feature",
      "geometry": {
        "type": "Polygon",
        "coordinates": [
          [
            [
              35.2325034,
              27.9867194
            ],
            [
              35.2316304,
              27.9859205
            ],
            [
              35.2321594,
              27.9854696
            ],
            [
              35.2330326,
              27.9862684
            ],
            [
              35.2325034,
              27.9867194
            ]
          ]
        ]
      },
      "properties": {
        "osm_id": 849189742,
        "landuse": "residential",
        "name": ""
      }
    },
    {
      "type": "Feature",
      "geometry": {
        "type": "Polygon",
        "coordinates": [
          [
            [
              35.2237653,
              28.02068
            ],
            [
              35.2226065,
              28.0196066
            ],
            [
              35.2240514,
              28.0188994
            ],
            [
              35.2246379,
              28.0198087
            ],
            [
              35.2237653,
              28.02068
            ]
          ]
        ]
      },
      "properties": {
        "osm_id": 849189748,
        "landuse": "orchard",
        "name": ""
      }
    },
    {
      "type": "Feature",
      "geometry": {
        "type": "Polygon",
        "coordinates": [
          [
            [
              35.2204372,
              28.0479437
            ],
            [
              35.2212888,
              28.0474377
            ],
            [
              35.223588,
              28.0491211
            ],
            [
              35.2208914,
              28.0502534
            ],
            [
              35.2210787,
              28.0492013
            ],
            [
              35.2202896,
              28.0490109
            ],
            [
              35.2198922,
              28.0485901
            ],
            [
              35.2205678,
              28.0483045
            ],
            [
              35.2204372,
              28.0479437
            ]
          ]
        ]
      },
      "properties": {
        "osm_id": 849189795,
        "landuse": "construction",
        "name": ""
      }
    },
    {
      "type": "Feature",
      "geometry": {
        "type": "Polygon",
        "coordinates": [
          [
            [
              35.255853,
              28.0198473
            ],
            [
              35.2532322,
              28.0187302
            ],
            [
              35.2788817,
              27.9696358
            ],
            [
              35.2834833,
              27.9672091
            ],
            [
              35.2817716,
              27.9705843
            ],
            [
              35.255853,
              28.0198473
            ]
          ]
        ]
      },
      "properties": {
        "osm_id": 1216978080,
        "landuse": "construction",
        "name": ""
      }
    },
    {
      "type": "Feature",
      "geometry": {
        "type": "Polygon",
        "coordinates": [
          [
            [
              35.1881843,
              28.0727519
            ],
            [
              35.193243,
              28.07092
            ],
            [
              35.2001362,
              28.0672801
            ],
            [
              35.2105808,
              28.0618126
            ],
            [
              35.2125335,
              28.0607712
            ],
            [
              35.2190351,
              28.0579498
            ],
            [
              35.2468871,
              28.0468718
            ],
            [
              35.2468818,
              28.0459675
            ],
            [
              35.2420538,
              28.0477666
            ],
            [
              35.2409434,
              28.0482164
            ],
            [
              35.2244639,
              28.0548254
            ],
            [
              35.2116,
              28.0600233
            ],
            [
              35.2018099,
              28.0654624
            ],
            [
              35.1967406,
              28.0683261
            ],
            [
              35.1928567,
              28.0702385
            ],
            [
              35.1877552,
              28.0719188
            ],
            [
              35.1881843,
              28.0727519
            ]
          ]
        ]
      },
      "properties": {
        "osm_id": 1249142095,
        "landuse": "construction",
        "name": ""
      }
    },
    {
      "type": "Feature",
      "geometry": {
        "type": "Polygon",
        "coordinates": [
          [
            [
              35.250382,
              28.0594757
            ],
            [
              35.2534166,
              28.082134
            ],
            [
              35.2507129,
              28.0823991
            ],
            [
              35.2475895,
              28.0585863
            ],
            [
              35.2469301,
              28.0435008
            ],
            [
              35.2463078,
              28.0418153
            ],
            [
              35.2464169,
              28.0379654
            ],
            [
              35.2471876,
              28.0338797
            ],
            [
              35.248239,
              28.029798
            ],
            [
              35.249725,
              28.0257352
            ],
            [
              35.2530777,
              28.0247834
            ],
            [
              35.2511144,
              28.0295471
            ],
            [
              35.2498162,
              28.0344337
            ],
            [
              35.2494138,
              28.0367964
            ],
            [
              35.2492261,
              28.038643
            ],
            [
              35.249205,
              28.0392637
            ],
            [
              35.249033,
              28.0424024
            ],
            [
              35.2494406,
              28.0440879
            ],
            [
              35.249666,
              28.0478565
            ],
            [
              35.2505886,
              28.0478755
            ],
            [
              35.2507067,
              28.0483584
            ],
            [
              35.251447,
              28.0494662
            ],
            [
              35.2518225,
              28.0502237
            ],
            [
              35.2519727,
              28.0514262
            ],
            [
              35.2527344,
              28.0517576
            ],
            [
              35.2530134,
              28.0534146
            ],
            [
              35.2538502,
              28.0540205
            ],
            [
              35.254848,
              28.0543803
            ],
            [
              35.2575624,
              28.0537744
            ],
            [
              35.2587962,
              28.0544277
            ],
            [
              35.2601587,
              28.0558858
            ],
            [
              35.2592468,
              28.0595972
            ],
            [
              35.2570152,
              28.0618695
            ],
            [
              35.252552,
              28.0617937
            ],
            [
              35.250382,
              28.0594757
            ]
          ]
        ]
      },
      "properties": {
        "osm_id": 1249996637,
        "landuse": "construction",
        "name": ""
      }
    },
    {
      "type": "Feature",
      "geometry": {
        "type": "Polygon",
        "coordinates": [
          [
            [
              35.2321512,
              28.0501432
            ],
            [
              35.2346509,
              28.0507776
            ],
            [
              35.238111,
              28.0493337
            ],
            [
              35.2354932,
              28.0474399
            ],
            [
              35.2350747,
              28.0474683
            ],
            [
              35.2346778,
              28.0478234
            ],
            [
              35.2342862,
              28.0475251
            ],
            [
              35.2337176,
              28.0476009
            ],
            [
              35.2310675,
              28.0497266
            ],
            [
              35.2321512,
              28.0501432
            ]
          ]
        ]
      },
      "properties": {
        "osm_id": 1250060274,
        "landuse": "industrial",
        "name": ""
      }
    },
    {
      "type": "Feature",
      "geometry": {
        "type": "Polygon",
        "coordinates": [
          [
            [
              35.2705093,
              28.0194764
            ],
            [
              35.2679314,
              28.018795
            ],
            [
              35.2757263,
              27.9994033
            ],
            [
              35.2851684,
              27.9811267
            ],
            [
              35.365119,
              27.9230282
            ],
            [
              35.3737503,
              27.9108081
            ],
            [
              35.3805525,
              27.9045222
            ],
            [
              35.3818238,
              27.905475
            ],
            [
              35.3750431,
              27.9116377
            ],
            [
              35.3663528,
              27.924218
            ],
            [
              35.3167116,
              27.9617259
            ],
            [
              35.2872119,
              27.9821519
            ],
            [
              35.2777433,
              28.0006917
            ],
            [
              35.2723789,
              28.0143886
            ],
            [
              35.273366,
              28.0153358
            ],
            [
              35.2726578,
              28.0180068
            ],
            [
              35.2712416,
              28.0174953
            ],
            [
              35.2705093,
              28.0194764
            ]
          ]
        ]
      },
      "properties": {
        "osm_id": 1253346815,
        "landuse": "construction",
        "name": ""
      }
    },
    {
      "type": "Feature",
      "geometry": {
        "type": "Polygon",
        "coordinates": [
          [
            [
              35.2306218,
              28.019223
            ],
            [
              35.2304475,
              28.0193096
            ],
            [
              35.2301766,
              28.0189743
            ],
            [
              35.2301875,
              28.0189124
            ],
            [
              35.2305284,
              28.0186651
            ],
            [
              35.2304864,
              28.0190361
            ],
            [
              35.2306218,
              28.019223
            ]
          ]
        ]
      },
      "properties": {
        "osm_id": 1342718097,
        "landuse": "grass",
        "name": ""
      }
    },
    {
      "type": "Feature",
      "geometry": {
        "type": "Polygon",
        "coordinates": [
          [
            [
              35.2306926,
              28.0193206
            ],
            [
              35.2305478,
              28.0194121
            ],
            [
              35.2305388,
              28.0194895
            ],
            [
              35.2310842,
              28.020244
            ],
            [
              35.2311736,
              28.0202614
            ],
            [
              35.2313203,
              28.0201682
            ],
            [
              35.2306926,
              28.0193206
            ]
          ]
        ]
      },
      "properties": {
        "osm_id": 1342718098,
        "landuse": "grass",
        "name": ""
      }
    },
    {
      "type": "Feature",
      "geometry": {
        "type": "Polygon",
        "coordinates": [
          [
            [
              35.2314626,
              28.020396
            ],
            [
              35.2316767,
              28.0206425
            ],
            [
              35.2314924,
              28.0207525
            ],
            [
              35.231281,
              28.0204989
            ],
            [
              35.2314626,
              28.020396
            ]
          ]
        ]
      },
      "properties": {
        "osm_id": 1342718101,
        "landuse": "grass",
        "name": ""
      }
    },
    {
      "type": "Feature",
      "geometry": {
        "type": "Polygon",
        "coordinates": [
          [
            [
              35.2515683,
              28.0552876
            ],
            [
              35.2593433,
              28.0611952
            ],
            [
              35.2586656,
              28.0623024
            ],
            [
              35.255964,
              28.0616155
            ],
            [
              35.2542973,
              28.0622943
            ],
            [
              35.252768,
              28.0616963
            ],
            [
              35.2517606,
              28.0607912
            ],
            [
              35.2515683,
              28.0552876
            ]
          ]
        ]
      },
      "properties": {
        "osm_id": 1434729308,
        "landuse": "quarry",
        "name": ""
      }
    }
  ]
}