{
  "type": "FeatureCollection",
  "features": [
    {
      "type": "Feature",
      "geometry": {
        "type": "Point",
        "coordinates": [
          35.20106496,
          28.003775579999996
        ]
      },
      "properties": {
        "osm_id": 849103808,
        "origin_type": "residential_building",
        "building": "dormitory",
        "name": ""
      }
    },
    {
      "type": "Feature",
      "geometry": {
        "type": "Point",
        "coordinates": [
          35.20187186,
          28.00382576
        ]
      },
      "properties": {
        "osm_id": 849103809,
        "origin_type": "residential_building",
        "building": "dormitory",
        "name": ""
      }
    },
    {
      "type": "Feature",
      "geometry": {
        "type": "Point",
        "coordinates": [
          35.202592800000005,
          28.00408638
        ]
      },
      "properties": {
        "osm_id": 849103810,
        "origin_type": "residential_building",
        "building": "dormitory",
        "name": ""
      }
    },
    {
      "type": "Feature",
      "geometry": {
        "type": "Point",
        "coordinates": [
          35.20262406,
          28.00387336
        ]
      },
      "properties": {
        "osm_id": 849103811,
        "origin_type": "residential_building",
        "building": "dormitory",
        "name": ""
      }
    },
    {
      "type": "Feature",
      "geometry": {
        "type": "Point",
        "coordinates": [
          35.20261266,
          28.003665360000003
        ]
      },
      "properties": {
        "osm_id": 849103812,
        "origin_type": "residential_building",
        "building": "dormitory",
        "name": ""
      }
    },
    {
      "type": "Feature",
      "geometry": {
        "type": "Point",
        "coordinates": [
          35.20263536,
          28.003462360000004
        ]
      },
      "properties": {
        "osm_id": 849103813,
        "origin_type": "residential_building",
        "building": "dormitory",
        "name": ""
      }
    },
    {
      "type": "Feature",
      "geometry": {
        "type": "Point",
        "coordinates": [
          35.20215566,
          28.00343226
        ]
      },
      "properties": {
        "osm_id": 849103814,
        "origin_type": "residential_building",
        "building": "dormitory",
        "name": ""
      }
    },
    {
      "type": "Feature",
      "geometry": {
        "type": "Point",
        "coordinates": [
          35.20228556,
          28.003776800000004
        ]
      },
      "properties": {
        "osm_id": 849103815,
        "origin_type": "residential_building",
        "building": "dormitory",
        "name": ""
      }
    },
    {
      "type": "Feature",
      "geometry": {
        "type": "Point",
        "coordinates": [
          35.20462163999999,
          28.003925319999997
        ]
      },
      "properties": {
        "osm_id": 849103828,
        "origin_type": "residential_building",
        "building": "dormitory",
        "name": ""
      }
    },
    {
      "type": "Feature",
      "geometry": {
        "type": "Point",
        "coordinates": [
          35.20436764,
          28.003913219999998
        ]
      },
      "properties": {
        "osm_id": 849103829,
        "origin_type": "residential_building",
        "building": "dormitory",
        "name": ""
      }
    },
    {
      "type": "Feature",
      "geometry": {
        "type": "Point",
        "coordinates": [
          35.20412924,
          28.003895639999996
        ]
      },
      "properties": {
        "osm_id": 849103830,
        "origin_type": "residential_building",
        "building": "dormitory",
        "name": ""
      }
    },
    {
      "type": "Feature",
      "geometry": {
        "type": "Point",
        "coordinates": [
          35.2042002,
          28.003163840000003
        ]
      },
      "properties": {
        "osm_id": 849103831,
        "origin_type": "residential_building",
        "building": "dormitory",
        "name": ""
      }
    },
    {
      "type": "Feature",
      "geometry": {
        "type": "Point",
        "coordinates": [
          35.2044585,
          28.00317892
        ]
      },
      "properties": {
        "osm_id": 849103832,
        "origin_type": "residential_building",
        "building": "dormitory",
        "name": ""
      }
    },
    {
      "type": "Feature",
      "geometry": {
        "type": "Point",
        "coordinates": [
          35.204702600000005,
          28.00319392
        ]
      },
      "properties": {
        "osm_id": 849103833,
        "origin_type": "residential_building",
        "building": "dormitory",
        "name": ""
      }
    },
    {
      "type": "Feature",
      "geometry": {
        "type": "Point",
        "coordinates": [
          35.20792226,
          28.004568639999995
        ]
      },
      "properties": {
        "osm_id": 849103912,
        "origin_type": "residential_building",
        "building": "dormitory",
        "name": ""
      }
    },
    {
      "type": "Feature",
      "geometry": {
        "type": "Point",
        "coordinates": [
          35.20763216,
          28.004456600000005
        ]
      },
      "properties": {
        "osm_id": 849103913,
        "origin_type": "residential_building",
        "building": "dormitory",
        "name": ""
      }
    },
    {
      "type": "Feature",
      "geometry": {
        "type": "Point",
        "coordinates": [
          35.20811856,
          28.004286099999995
        ]
      },
      "properties": {
        "osm_id": 849103914,
        "origin_type": "residential_building",
        "building": "dormitory",
        "name": ""
      }
    },
    {
      "type": "Feature",
      "geometry": {
        "type": "Point",
        "coordinates": [
          35.242029,
          28.0306558
        ]
      },
      "properties": {
        "anchor": "Sharma",
        "origin_type": "village",
        "osm_id": 5796927641
      }
    },
    {
      "type": "Feature",
      "geometry": {
        "type": "Point",
        "coordinates": [
          35.214663,
          28.0809225
        ]
      },
      "properties": {
        "anchor": "Camp26",
        "origin_type": "camp",
        "osm_id": 12390325515
      }
    },
    {
      "type": "Feature",
      "geometry": {
        "type": "Point",
        "coordinates": [
          35.188786,
          28.019137
        ]
      },
      "properties": {
        "anchor": "ConstCampW1",
        "origin_type": "construction_camp",
        "osm_id": 849104049
      }
    },
    {
      "type": "Feature",
      "geometry": {
        "type": "Point",
        "coordinates": [
          35.188342,
          28.006535
        ]
      },
      "properties": {
        "anchor": "ConstCampW2",
        "origin_type": "construction_camp",
        "osm_id": 849118868
      }
    }
  ],
  "properties": {
    "description": "Trip origins: residential buildings + anchor camps/villages",
    "count": 21
  }
}