{"type": "FeatureCollection", "features": [{"type": "Feature", "properties": {"osm_type": "way", "osm_id": 358377281, "type": "marketplace", "floor_area": 50.0}, "geometry": {"type": "Point", "coordinates": [42.496705, 18.214742500000003]}}, {"type": "Feature", "properties": {"osm_type": "way", "osm_id": 1267184794, "type": "parking", "floor_area": 50.0}, "geometry": {"type": "Point", "coordinates": [42.499105500000006, 18.2144326]}}, {"type": "Feature", "properties": {"osm_type": "way", "osm_id": 1414102542, "type": "parking", "floor_area": 50.0}, "geometry": {"type": "Point", "coordinates": [42.4953277, 18.214299700000005]}}, {"type": "Feature", "properties": {"osm_type": "way", "osm_id": 1485066000, "type": "parking", "floor_area": 50.0}, "geometry": {"type": "Point", "coordinates": [42.4952266, 18.2134315]}}, {"type": "Feature", "properties": {"osm_type": "node", "osm_id": 13466545110, "type": "parking", "floor_area": 50.0}, "geometry": {"type": "Point", "coordinates": [42.4980274, 18.215988699999997]}}, {"type": "Feature", "properties": {"osm_type": "node", "osm_id": 13466545111, "type": "parking", "floor_area": 50.0}, "geometry": {"type": "Point", "coordinates": [42.496866, 18.2158307]}}]}