{"type": "FeatureCollection", "features": [{"type": "Feature", "properties": {"osmid": 288438553, "name": null, "highway": "unclassified", "lanes": null, "maxspeed": null, "oneway": false, "junction": null, "u": 2920010650, "v": 1634197552, "key": 4910, "length": 227.03327934375727, "road_segment_id": 4858, "segment_id": 31, "distance_to_poi_m": 45.36972082472359}, "geometry": {"type": "LineString", "coordinates": [[42.4957324, 18.214428900000005], [42.4963045, 18.214345899999998], [42.4969765, 18.214320300000004], [42.4971765, 18.214345], [42.4973364, 18.214444200000003], [42.4974599, 18.214565999999994], [42.4977829, 18.2145947]]}}, {"type": "Feature", "properties": {"osmid": 340239607, "name": "\u0637\u0631\u064a\u0642 \u0627\u0644\u0645\u0644\u0643 \u062e\u0627\u0644\u062f", "highway": "tertiary", "lanes": null, "maxspeed": null, "oneway": true, "junction": null, "u": 2921558448, "v": 7365211543, "key": 5445, "length": 145.83679103680646, "road_segment_id": 5393, "segment_id": 42, "distance_to_poi_m": 52.56610365006749}, "geometry": {"type": "LineString", "coordinates": [[42.4963084, 18.215220999999993], [42.4966621, 18.21522510000001], [42.4969867, 18.2151835], [42.4972427, 18.2151362], [42.4973621, 18.215104199999985], [42.4974529, 18.21505359999999], [42.4975116, 18.214993199999988], [42.4975976, 18.214912199999997]]}}, {"type": "Feature", "properties": {"osmid": 288438549, "name": null, "highway": "unclassified", "lanes": null, "maxspeed": null, "oneway": false, "junction": null, "u": 9819438694, "v": 7117973354, "key": 4904, "length": 221.7628422459402, "road_segment_id": 4852, "segment_id": 26, "distance_to_poi_m": 64.55639469939163}, "geometry": {"type": "LineString", "coordinates": [[42.4978936, 18.213388700000003], [42.497416, 18.214122499999995], [42.4973616, 18.214156300000003], [42.4973072, 18.214174], [42.4962387, 18.2141447]]}}, {"type": "Feature", "properties": {"osmid": 340239607, "name": "\u0637\u0631\u064a\u0642 \u0627\u0644\u0645\u0644\u0643 \u062e\u0627\u0644\u062f", "highway": "tertiary", "lanes": null, "maxspeed": null, "oneway": true, "junction": null, "u": 2920010652, "v": 2921558448, "key": 5444, "length": 80.13297788840967, "road_segment_id": 5392, "segment_id": 41, "distance_to_poi_m": 67.7250582886163}, "geometry": {"type": "LineString", "coordinates": [[42.4955512, 18.215215699999998], [42.4963084, 18.215220999999993]]}}]}