{"type": "FeatureCollection", "features": [{"type": "Feature", "properties": {"osm_type": "way", "osm_id": 358377281, "building": "yes", "origin_weight": 1.0}, "geometry": {"type": "Point", "coordinates": [42.496705, 18.214742500000003]}}, {"type": "Feature", "properties": {"osm_type": "way", "osm_id": 1089590349, "building": "yes", "origin_weight": 1.0}, "geometry": {"type": "Point", "coordinates": [42.4960079, 18.213449199999996]}}, {"type": "Feature", "properties": {"osm_type": "way", "osm_id": 1267184795, "building": "yes", "origin_weight": 1.0}, "geometry": {"type": "Point", "coordinates": [42.4970372, 18.216107100000002]}}, {"type": "Feature", "properties": {"osm_type": "way", "osm_id": 1267184796, "building": "yes", "origin_weight": 1.0}, "geometry": {"type": "Point", "coordinates": [42.4980705, 18.215061199999997]}}, {"type": "Feature", "properties": {"osm_type": "way", "osm_id": 1267184797, "building": "yes", "origin_weight": 1.0}, "geometry": {"type": "Point", "coordinates": [42.4985599, 18.2129006]}}]}