{"type": "FeatureCollection", "features": [{"type": "Feature", "properties": {"osmid": 95290268, "name": null, "highway": "residential", "lanes": null, "maxspeed": null, "oneway": false, "junction": null, "u": 1105400772, "v": 1105401136, "key": 1979, "length": 80.2118242008432, "road_segment_id": 1927, "segment_id": 0}, "geometry": {"type": "LineString", "coordinates": [[42.4939657, 18.2161473], [42.4946826, 18.216382499999995]]}}, {"type": "Feature", "properties": {"osmid": 95290273, "name": null, "highway": "residential", "lanes": null, "maxspeed": null, "oneway": false, "junction": null, "u": 2920010913, "v": 1105401136, "key": 1985, "length": 46.579853007019, "road_segment_id": 1933, "segment_id": 1}, "geometry": {"type": "LineString", "coordinates": [[42.49457760000001, 18.216790999999997], [42.4946826, 18.216382499999995]]}}, {"type": "Feature", "properties": {"osmid": 95290273, "name": null, "highway": "residential", "lanes": null, "maxspeed": null, "oneway": false, "junction": null, "u": 1105401136, "v": 1105400248, "key": 1986, "length": 2.7667971600386654, "road_segment_id": 1934, "segment_id": 2}, "geometry": {"type": "LineString", "coordinates": [[42.4946826, 18.216382499999995], [42.4946895, 18.216358399999997]]}}, {"type": "Feature", "properties": {"osmid": 95290273, "name": null, "highway": "residential", "lanes": null, "maxspeed": null, "oneway": false, "junction": null, "u": 1105400248, "v": 1105400640, "key": 1987, "length": 83.53588161888258, "road_segment_id": 1935, "segment_id": 3}, "geometry": {"type": "LineString", "coordinates": [[42.4946895, 18.216358399999997], [42.4947689, 18.2160796], [42.4948985, 18.215972400000002], [42.495204, 18.215896600000004]]}}, {"type": "Feature", "properties": {"osmid": 95290282, "name": null, "highway": "residential", "lanes": null, "maxspeed": null, "oneway": false, "junction": null, "u": 1105401115, "v": 2920010914, "key": 1997, "length": 49.212182042874154, "road_segment_id": 1945, "segment_id": 4}, "geometry": {"type": "LineString", "coordinates": [[42.4949763, 18.217261], [42.4950295, 18.216845], [42.4950337, 18.21682]]}}, {"type": "Feature", "properties": {"osmid": 95290282, "name": null, "highway": "residential", "lanes": null, "maxspeed": null, "oneway": false, "junction": null, "u": 2920010914, "v": 1105400942, "key": 1998, "length": 42.2675316086484, "road_segment_id": 1946, "segment_id": 5}, "geometry": {"type": "LineString", "coordinates": [[42.4950337, 18.21682], [42.4950975, 18.216443200000004]]}}, {"type": "Feature", "properties": {"osmid": 95290282, "name": null, "highway": "residential", "lanes": null, "maxspeed": null, "oneway": false, "junction": null, "u": 1105400942, "v": 1105400248, "key": 1999, "length": 44.185749034778375, "road_segment_id": 1947, "segment_id": 6}, "geometry": {"type": "LineString", "coordinates": [[42.4950975, 18.216443200000004], [42.4946895, 18.216358399999997]]}}, {"type": "Feature", "properties": {"osmid": 95290290, "name": null, "highway": "residential", "lanes": null, "maxspeed": null, "oneway": false, "junction": null, "u": 1105400505, "v": 2920013658, "key": 2013, "length": 67.40836651968937, "road_segment_id": 1961, "segment_id": 7}, "geometry": {"type": "LineString", "coordinates": [[42.4964064, 18.21595659999999], [42.4960927, 18.2164864]]}}, {"type": "Feature", "properties": {"osmid": 95290290, "name": null, "highway": "residential", "lanes": null, "maxspeed": null, "oneway": false, "junction": null, "u": 2920013658, "v": 2920010919, "key": 2014, "length": 52.19802263103222, "road_segment_id": 1962, "segment_id": 8}, "geometry": {"type": "LineString", "coordinates": [[42.4960927, 18.2164864], [42.4960691, 18.216526299999998], [42.4958733, 18.2169085]]}}, {"type": "Feature", "properties": {"osmid": 95290290, "name": null, "highway": "residential", "lanes": null, "maxspeed": null, "oneway": false, "junction": null, "u": 2920010919, "v": 2920010918, "key": 2015, "length": 16.31148472062939, "road_segment_id": 1963, "segment_id": 9}, "geometry": {"type": "LineString", "coordinates": [[42.4958733, 18.2169085], [42.495827, 18.217049]]}}, {"type": "Feature", "properties": {"osmid": 95290290, "name": null, "highway": "residential", "lanes": null, "maxspeed": null, "oneway": false, "junction": null, "u": 2920010918, "v": 1105400277, "key": 2016, "length": 30.2901331819206, "road_segment_id": 1964, "segment_id": 10}, "geometry": {"type": "LineString", "coordinates": [[42.495827, 18.217049], [42.4957331, 18.2173074]]}}, {"type": "Feature", "properties": {"osmid": 95507286, "name": null, "highway": "tertiary", "lanes": null, "maxspeed": null, "oneway": true, "junction": null, "u": 2919142284, "v": 1107476673, "key": 2342, "length": 82.32670814438863, "road_segment_id": 2290, "segment_id": 11}, "geometry": {"type": "LineString", "coordinates": [[42.4985892, 18.2161703], [42.4983906, 18.216319499999997], [42.4979526, 18.216596699999997]]}}, {"type": "Feature", "properties": {"osmid": 95507286, "name": null, "highway": "tertiary", "lanes": null, "maxspeed": null, "oneway": true, "junction": null, "u": 1107476673, "v": 9819488021, "key": 2343, "length": 40.349593054224236, "road_segment_id": 2291, "segment_id": 12}, "geometry": {"type": "LineString", "coordinates": [[42.4979526, 18.216596699999997], [42.4976212, 18.216776899999996]]}}, {"type": "Feature", "properties": {"osmid": 95507286, "name": null, "highway": "tertiary", "lanes": null, "maxspeed": null, "oneway": true, "junction": null, "u": 9819488021, "v": 1107476607, "key": 2344, "length": 51.979783556442435, "road_segment_id": 2292, "segment_id": 13}, "geometry": {"type": "LineString", "coordinates": [[42.4976212, 18.216776899999996], [42.4971857, 18.216994]]}}, {"type": "Feature", "properties": {"osmid": 95507286, "name": null, "highway": "tertiary", "lanes": null, "maxspeed": null, "oneway": true, "junction": null, "u": 1107476607, "v": 13614335167, "key": 2345, "length": 58.44944005676945, "road_segment_id": 2293, "segment_id": 14}, "geometry": {"type": "LineString", "coordinates": [[42.4971857, 18.216994], [42.4966846, 18.217216]]}}, {"type": "Feature", "properties": {"osmid": 95507286, "name": null, "highway": "tertiary", "lanes": null, "maxspeed": null, "oneway": true, "junction": null, "u": 13614335167, "v": 1107476549, "key": 2346, "length": 86.36448173887537, "road_segment_id": 2294, "segment_id": 15}, "geometry": {"type": "LineString", "coordinates": [[42.4966846, 18.217216], [42.4959318, 18.2175172]]}}, {"type": "Feature", "properties": {"osmid": 95507294, "name": null, "highway": "tertiary", "lanes": null, "maxspeed": null, "oneway": false, "junction": null, "u": 2919142278, "v": 1105400772, "key": 2387, "length": 135.30895302587612, "road_segment_id": 2335, "segment_id": 16}, "geometry": {"type": "LineString", "coordinates": [[42.494351, 18.2149822], [42.4943194, 18.2150717], [42.4939657, 18.2161473]]}}, {"type": "Feature", "properties": {"osmid": 135229579, "name": null, "highway": "tertiary", "lanes": null, "maxspeed": null, "oneway": true, "junction": null, "u": 1105400702, "v": 1105401113, "key": 3116, "length": 39.385258815236845, "road_segment_id": 3064, "segment_id": 17}, "geometry": {"type": "LineString", "coordinates": [[42.4972577, 18.212123300000002], [42.4968882, 18.2120808]]}}, {"type": "Feature", "properties": {"osmid": 135229579, "name": null, "highway": "tertiary", "lanes": null, "maxspeed": null, "oneway": true, "junction": null, "u": 1105401113, "v": 1144640928, "key": 3117, "length": 123.59812208808225, "road_segment_id": 3065, "segment_id": 18}, "geometry": {"type": "LineString", "coordinates": [[42.4968882, 18.2120808], [42.4966993, 18.212005299999994], [42.4963238, 18.2117504], [42.4959335, 18.2114478]]}}, {"type": "Feature", "properties": {"osmid": 158458203, "name": "\u0637\u0631\u064a\u0642 \u0627\u0644\u0645\u0644\u0643 \u062e\u0627\u0644\u062f", "highway": "tertiary", "lanes": null, "maxspeed": null, "oneway": true, "junction": null, "u": 2919827561, "v": 2919142284, "key": 3677, "length": 214.4792327330902, "road_segment_id": 3625, "segment_id": 19}, "geometry": {"type": "LineString", "coordinates": [[42.5000736, 18.2174881], [42.4995123, 18.217017900000002], [42.4989229, 18.216491099999992], [42.4985892, 18.2161703]]}}, {"type": "Feature", "properties": {"osmid": 158458203, "name": "\u0637\u0631\u064a\u0642 \u0627\u0644\u0645\u0644\u0643 \u062e\u0627\u0644\u062f", "highway": "tertiary", "lanes": null, "maxspeed": null, "oneway": true, "junction": null, "u": 2919142284, "v": 9819488029, "key": 3678, "length": 37.01603200500064, "road_segment_id": 3626, "segment_id": 20}, "geometry": {"type": "LineString", "coordinates": [[42.4985892, 18.2161703], [42.498357, 18.2159203]]}}, {"type": "Feature", "properties": {"osmid": 158458203, "name": "\u0637\u0631\u064a\u0642 \u0627\u0644\u0645\u0644\u0643 \u062e\u0627\u0644\u062f", "highway": "tertiary", "lanes": null, "maxspeed": null, "oneway": true, "junction": null, "u": 9819488029, "v": 1634197537, "key": 3679, "length": 52.73490820633491, "road_segment_id": 3627, "segment_id": 21}, "geometry": {"type": "LineString", "coordinates": [[42.498357, 18.2159203], [42.4980253, 18.2155649]]}}, {"type": "Feature", "properties": {"osmid": 158458216, "name": null, "highway": "tertiary", "lanes": null, "maxspeed": null, "oneway": true, "junction": null, "u": 7365223286, "v": 7365223342, "key": 3680, "length": 40.474866505826924, "road_segment_id": 3628, "segment_id": 22}, "geometry": {"type": "LineString", "coordinates": [[42.4987998, 18.2131176], [42.4989062, 18.213042899999998], [42.4989862, 18.2130153], [42.499051, 18.2130205], [42.4991489, 18.2130416]]}}, {"type": "Feature", "properties": {"osmid": 288438549, "name": null, "highway": "unclassified", "lanes": null, "maxspeed": null, "oneway": false, "junction": null, "u": 1105401113, "v": 9884264805, "key": 4901, "length": 191.8713150820238, "road_segment_id": 4849, "segment_id": 23}, "geometry": {"type": "LineString", "coordinates": [[42.4968882, 18.2120808], [42.4969022, 18.2126823], [42.4969349, 18.212722299999992], [42.4973836, 18.212738999999996], [42.4977043, 18.212739900000003], [42.4978725, 18.2127666], [42.4980355, 18.2128602]]}}, {"type": "Feature", "properties": {"osmid": 288438549, "name": null, "highway": "unclassified", "lanes": null, "maxspeed": null, "oneway": false, "junction": null, "u": 9884264805, "v": 9819438700, "key": 4902, "length": 46.103421932111175, "road_segment_id": 4850, "segment_id": 24}, "geometry": {"type": "LineString", "coordinates": [[42.4980355, 18.2128602], [42.4980754, 18.212883100000003], [42.4981227, 18.212928499999997], [42.4981473, 18.212979299999997], [42.4981036, 18.213066099999995], [42.4980176, 18.213198099999996]]}}, {"type": "Feature", "properties": {"osmid": 288438549, "name": null, "highway": "unclassified", "lanes": null, "maxspeed": null, "oneway": false, "junction": null, "u": 9819438700, "v": 9819438694, "key": 4903, "length": 24.852783204815115, "road_segment_id": 4851, "segment_id": 25}, "geometry": {"type": "LineString", "coordinates": [[42.4980176, 18.213198099999996], [42.4978936, 18.213388700000003]]}}, {"type": "Feature", "properties": {"osmid": 288438549, "name": null, "highway": "unclassified", "lanes": null, "maxspeed": null, "oneway": false, "junction": null, "u": 9819438694, "v": 7117973354, "key": 4904, "length": 221.7628422459402, "road_segment_id": 4852, "segment_id": 26}, "geometry": {"type": "LineString", "coordinates": [[42.4978936, 18.213388700000003], [42.497416, 18.214122499999995], [42.4973616, 18.214156300000003], [42.4973072, 18.214174], [42.4962387, 18.2141447]]}}, {"type": "Feature", "properties": {"osmid": 288438549, "name": null, "highway": "unclassified", "lanes": null, "maxspeed": null, "oneway": false, "junction": null, "u": 7117973354, "v": 2920010649, "key": 4905, "length": 58.97155786559396, "road_segment_id": 4853, "segment_id": 27}, "geometry": {"type": "LineString", "coordinates": [[42.4962387, 18.2141447], [42.4956818, 18.214125799999998]]}}, {"type": "Feature", "properties": {"osmid": 288438551, "name": null, "highway": "unclassified", "lanes": null, "maxspeed": null, "oneway": false, "junction": null, "u": 1105400935, "v": 2920010649, "key": 4907, "length": 253.8167638437098, "road_segment_id": 4855, "segment_id": 28}, "geometry": {"type": "LineString", "coordinates": [[42.4939168, 18.213050300000003], [42.4947886, 18.2135504], [42.4954977, 18.2135526], [42.4955766, 18.213582599999995], [42.495616, 18.213631799999998], [42.4956457, 18.213727500000005], [42.4956818, 18.214125799999998]]}}, {"type": "Feature", "properties": {"osmid": 288438551, "name": null, "highway": "unclassified", "lanes": null, "maxspeed": null, "oneway": false, "junction": null, "u": 2920010649, "v": 2920010650, "key": 4908, "length": 33.98811924377423, "road_segment_id": 4856, "segment_id": 29}, "geometry": {"type": "LineString", "coordinates": [[42.4956818, 18.214125799999998], [42.4957324, 18.214428900000005]]}}, {"type": "Feature", "properties": {"osmid": 288438551, "name": null, "highway": "unclassified", "lanes": null, "maxspeed": null, "oneway": false, "junction": null, "u": 2920010650, "v": 2920010651, "key": 4909, "length": 43.1657338999462, "road_segment_id": 4857, "segment_id": 30}, "geometry": {"type": "LineString", "coordinates": [[42.4957324, 18.214428900000005], [42.4957936, 18.2148143]]}}, {"type": "Feature", "properties": {"osmid": 288438553, "name": null, "highway": "unclassified", "lanes": null, "maxspeed": null, "oneway": false, "junction": null, "u": 2920010650, "v": 1634197552, "key": 4910, "length": 227.03327934375727, "road_segment_id": 4858, "segment_id": 31}, "geometry": {"type": "LineString", "coordinates": [[42.4957324, 18.214428900000005], [42.4963045, 18.214345899999998], [42.4969765, 18.214320300000004], [42.4971765, 18.214345], [42.4973364, 18.214444200000003], [42.4974599, 18.214565999999994], [42.4977829, 18.2145947]]}}, {"type": "Feature", "properties": {"osmid": 288438572, "name": null, "highway": "unclassified", "lanes": null, "maxspeed": null, "oneway": false, "junction": null, "u": 2920010913, "v": 2920010914, "key": 4934, "length": 48.37317618442933, "road_segment_id": 4882, "segment_id": 32}, "geometry": {"type": "LineString", "coordinates": [[42.49457760000001, 18.216790999999997], [42.4950337, 18.21682]]}}, {"type": "Feature", "properties": {"osmid": 288438572, "name": null, "highway": "unclassified", "lanes": null, "maxspeed": null, "oneway": false, "junction": null, "u": 2920010914, "v": 2920010919, "key": 4935, "length": 89.51507836229999, "road_segment_id": 4883, "segment_id": 33}, "geometry": {"type": "LineString", "coordinates": [[42.4950337, 18.21682], [42.4952971, 18.216847], [42.4956021, 18.2168617], [42.4958733, 18.2169085]]}}, {"type": "Feature", "properties": {"osmid": 288438573, "name": null, "highway": "unclassified", "lanes": null, "maxspeed": null, "oneway": false, "junction": null, "u": 2920010917, "v": 2920010918, "key": 4936, "length": 48.610719062563064, "road_segment_id": 4884, "segment_id": 34}, "geometry": {"type": "LineString", "coordinates": [[42.4962861, 18.2170636], [42.495827, 18.217049]]}}, {"type": "Feature", "properties": {"osmid": 288439080, "name": null, "highway": "unclassified", "lanes": null, "maxspeed": null, "oneway": false, "junction": null, "u": 1105400505, "v": 9819488046, "key": 4937, "length": 15.09707465027869, "road_segment_id": 4885, "segment_id": 35}, "geometry": {"type": "LineString", "coordinates": [[42.4964064, 18.21595659999999], [42.4964399, 18.215922799999998], [42.4965301, 18.2159479]]}}, {"type": "Feature", "properties": {"osmid": 288439080, "name": null, "highway": "unclassified", "lanes": null, "maxspeed": null, "oneway": false, "junction": null, "u": 9819488046, "v": 9819488024, "key": 4938, "length": 121.81147685295744, "road_segment_id": 4886, "segment_id": 36}, "geometry": {"type": "LineString", "coordinates": [[42.4965301, 18.2159479], [42.4966314, 18.215975999999998], [42.4969163, 18.216228899999997], [42.4969992, 18.216328100000002], [42.4970851, 18.216430099999997], [42.49714, 18.2167961]]}}, {"type": "Feature", "properties": {"osmid": 288439080, "name": null, "highway": "unclassified", "lanes": null, "maxspeed": null, "oneway": false, "junction": null, "u": 9819488024, "v": 1107476607, "key": 4939, "length": 22.441644662511553, "road_segment_id": 4887, "segment_id": 37}, "geometry": {"type": "LineString", "coordinates": [[42.49714, 18.2167961], [42.4971857, 18.216994]]}}, {"type": "Feature", "properties": {"osmid": 288439081, "name": null, "highway": "unclassified", "lanes": null, "maxspeed": null, "oneway": false, "junction": null, "u": 1105400942, "v": 2920013658, "key": 4940, "length": 105.62290271055072, "road_segment_id": 4888, "segment_id": 38}, "geometry": {"type": "LineString", "coordinates": [[42.4950975, 18.216443200000004], [42.4953005, 18.2164285], [42.495604, 18.2164507], [42.4960927, 18.2164864]]}}, {"type": "Feature", "properties": {"osmid": 340239607, "name": "\u0637\u0631\u064a\u0642 \u0627\u0644\u0645\u0644\u0643 \u062e\u0627\u0644\u062f", "highway": "tertiary", "lanes": null, "maxspeed": null, "oneway": true, "junction": null, "u": 1105400427, "v": 2919142278, "key": 5442, "length": 211.0635188062016, "road_segment_id": 5390, "segment_id": 39}, "geometry": {"type": "LineString", "coordinates": [[42.4926001, 18.214075600000005], [42.4929512, 18.2142949], [42.4933037, 18.214497299999998], [42.4937684, 18.2147076], [42.494351, 18.2149822]]}}, {"type": "Feature", "properties": {"osmid": 340239607, "name": "\u0637\u0631\u064a\u0642 \u0627\u0644\u0645\u0644\u0643 \u062e\u0627\u0644\u062f", "highway": "tertiary", "lanes": null, "maxspeed": null, "oneway": true, "junction": null, "u": 2919142278, "v": 2920010652, "key": 5443, "length": 130.13578514465704, "road_segment_id": 5391, "segment_id": 40}, "geometry": {"type": "LineString", "coordinates": [[42.494351, 18.2149822], [42.4947606, 18.215112600000005], [42.4951743, 18.2151715], [42.4955512, 18.215215699999998]]}}, {"type": "Feature", "properties": {"osmid": 340239607, "name": "\u0637\u0631\u064a\u0642 \u0627\u0644\u0645\u0644\u0643 \u062e\u0627\u0644\u062f", "highway": "tertiary", "lanes": null, "maxspeed": null, "oneway": true, "junction": null, "u": 2920010652, "v": 2921558448, "key": 5444, "length": 80.13297788840967, "road_segment_id": 5392, "segment_id": 41}, "geometry": {"type": "LineString", "coordinates": [[42.4955512, 18.215215699999998], [42.4963084, 18.215220999999996]]}}, {"type": "Feature", "properties": {"osmid": 340239607, "name": "\u0637\u0631\u064a\u0642 \u0627\u0644\u0645\u0644\u0643 \u062e\u0627\u0644\u062f", "highway": "tertiary", "lanes": null, "maxspeed": null, "oneway": true, "junction": null, "u": 2921558448, "v": 7365211543, "key": 5445, "length": 145.83679103680646, "road_segment_id": 5393, "segment_id": 42}, "geometry": {"type": "LineString", "coordinates": [[42.4963084, 18.215220999999996], [42.4966621, 18.215225100000005], [42.4969867, 18.2151835], [42.4972427, 18.2151362], [42.4973621, 18.215104199999992], [42.4974529, 18.215053599999994], [42.4975116, 18.21499319999999], [42.4975976, 18.214912199999997]]}}, {"type": "Feature", "properties": {"osmid": 761832058, "name": null, "highway": "residential", "lanes": null, "maxspeed": null, "oneway": false, "junction": null, "u": 1105400942, "v": 1105400640, "key": 5712, "length": 61.56788757702791, "road_segment_id": 5660, "segment_id": 43}, "geometry": {"type": "LineString", "coordinates": [[42.4950975, 18.216443200000004], [42.495204, 18.215896600000004]]}}, {"type": "Feature", "properties": {"osmid": 761832103, "name": null, "highway": "residential", "lanes": null, "maxspeed": null, "oneway": false, "junction": null, "u": 1105400702, "v": 2920084144, "key": 5745, "length": 57.01358157783871, "road_segment_id": 5693, "segment_id": 44}, "geometry": {"type": "LineString", "coordinates": [[42.4972577, 18.212123300000002], [42.4973567, 18.211617199999996]]}}, {"type": "Feature", "properties": {"osmid": 761832104, "name": null, "highway": "service", "lanes": null, "maxspeed": null, "oneway": false, "junction": null, "u": 7117973354, "v": 7365223337, "key": 5746, "length": 186.37349964761464, "road_segment_id": 5694, "segment_id": 45}, "geometry": {"type": "LineString", "coordinates": [[42.4962387, 18.2141447], [42.4963921, 18.2137906], [42.496338, 18.2132514], [42.4961869, 18.2131395], [42.4960368, 18.213093699999998], [42.4958809, 18.2129457], [42.49583280000001, 18.2127358]]}}, {"type": "Feature", "properties": {"osmid": 787786457, "name": null, "highway": "tertiary", "lanes": null, "maxspeed": null, "oneway": true, "junction": null, "u": 2920010651, "v": 2921558448, "key": 6190, "length": 77.09601112223412, "road_segment_id": 6137, "segment_id": 46}, "geometry": {"type": "LineString", "coordinates": [[42.4957936, 18.2148143], [42.495869, 18.2149627], [42.4959682, 18.215104400000005], [42.4960332, 18.215166199999995], [42.4961227, 18.215207999999997], [42.4963084, 18.215220999999996]]}}, {"type": "Feature", "properties": {"osmid": 787786458, "name": null, "highway": "tertiary", "lanes": null, "maxspeed": null, "oneway": true, "junction": null, "u": 2920010652, "v": 2920010651, "key": 6191, "length": 54.61508725419708, "road_segment_id": 6138, "segment_id": 47}, "geometry": {"type": "LineString", "coordinates": [[42.4955512, 18.215215699999998], [42.4956423, 18.215162199999995], [42.4956954, 18.215106800000004], [42.4957456, 18.215052199999995], [42.4957805, 18.2149353], [42.4957936, 18.2148143]]}}, {"type": "Feature", "properties": {"osmid": 787786462, "name": null, "highway": "tertiary", "lanes": null, "maxspeed": null, "oneway": true, "junction": null, "u": 7365211543, "v": 1634197552, "key": 6192, "length": 40.2570188093444, "road_segment_id": 6139, "segment_id": 48}, "geometry": {"type": "LineString", "coordinates": [[42.4975976, 18.214912199999997], [42.4977829, 18.2145947]]}}, {"type": "Feature", "properties": {"osmid": 787786462, "name": null, "highway": "tertiary", "lanes": null, "maxspeed": null, "oneway": true, "junction": null, "u": 1634197552, "v": 7365211572, "key": 6193, "length": 102.24165937994272, "road_segment_id": 6140, "segment_id": 49}, "geometry": {"type": "LineString", "coordinates": [[42.4977829, 18.2145947], [42.49830300000001, 18.213816599999998]]}}, {"type": "Feature", "properties": {"osmid": 787786462, "name": null, "highway": "tertiary", "lanes": null, "maxspeed": null, "oneway": true, "junction": null, "u": 7365211572, "v": 9819470936, "key": 6194, "length": 55.6482580919756, "road_segment_id": 6141, "segment_id": 50}, "geometry": {"type": "LineString", "coordinates": [[42.49830300000001, 18.213816599999998], [42.4985895, 18.213395200000004]]}}, {"type": "Feature", "properties": {"osmid": 787786462, "name": null, "highway": "tertiary", "lanes": null, "maxspeed": null, "oneway": true, "junction": null, "u": 9819470936, "v": 7365223286, "key": 6195, "length": 37.95041870216106, "road_segment_id": 6142, "segment_id": 51}, "geometry": {"type": "LineString", "coordinates": [[42.4985895, 18.213395200000004], [42.4987998, 18.2131176]]}}, {"type": "Feature", "properties": {"osmid": 787786465, "name": null, "highway": "tertiary", "lanes": null, "maxspeed": null, "oneway": true, "junction": null, "u": 7365223286, "v": 9884264806, "key": 6199, "length": 69.8497031354669, "road_segment_id": 6146, "segment_id": 52}, "geometry": {"type": "LineString", "coordinates": [[42.4987998, 18.2131176], [42.4988634, 18.212916499999995], [42.4988374, 18.2128271], [42.4987673, 18.212749100000003], [42.49869160000001, 18.2126642], [42.4985889, 18.212607099999996]]}}, {"type": "Feature", "properties": {"osmid": 787786465, "name": null, "highway": "tertiary", "lanes": null, "maxspeed": null, "oneway": true, "junction": null, "u": 9884264806, "v": 1105400702, "key": 6200, "length": 154.74565567663683, "road_segment_id": 6147, "segment_id": 53}, "geometry": {"type": "LineString", "coordinates": [[42.4985889, 18.212607099999996], [42.4985066, 18.212556500000005], [42.4983724, 18.212507899999995], [42.4981777, 18.2124622], [42.4979695, 18.212468499999996], [42.497839, 18.2124086], [42.4975905, 18.212218000000004], [42.4974331, 18.2121574], [42.4972577, 18.212123300000002]]}}, {"type": "Feature", "properties": {"osmid": 787786466, "name": null, "highway": "tertiary", "lanes": null, "maxspeed": null, "oneway": true, "junction": null, "u": 7365223312, "v": 1105400702, "key": 6203, "length": 62.00769373606974, "road_segment_id": 6150, "segment_id": 54}, "geometry": {"type": "LineString", "coordinates": [[42.4978346, 18.212027999999997], [42.4974827, 18.2120749], [42.4972577, 18.212123300000002]]}}, {"type": "Feature", "properties": {"osmid": 787786469, "name": null, "highway": "tertiary", "lanes": null, "maxspeed": null, "oneway": true, "junction": null, "u": 7365223354, "v": 10576583555, "key": 6207, "length": 168.74500352127822, "road_segment_id": 6154, "segment_id": 55}, "geometry": {"type": "LineString", "coordinates": [[42.500066, 18.2145225], [42.4995814, 18.2150927], [42.4990683, 18.215711199999998]]}}, {"type": "Feature", "properties": {"osmid": 787786469, "name": null, "highway": "tertiary", "lanes": null, "maxspeed": null, "oneway": true, "junction": null, "u": 10576583555, "v": 9819483442, "key": 6208, "length": 137.29727864257802, "road_segment_id": 6155, "segment_id": 56}, "geometry": {"type": "LineString", "coordinates": [[42.4990683, 18.215711199999998], [42.4988493, 18.215951099999998], [42.4987896, 18.2159951], [42.4987344, 18.216016099999997], [42.4986728, 18.2160265], [42.4986019, 18.216019], [42.498553, 18.2160056], [42.4985009, 18.215975599999997], [42.4980673, 18.215601899999992]]}}, {"type": "Feature", "properties": {"osmid": 787786469, "name": null, "highway": "tertiary", "lanes": null, "maxspeed": null, "oneway": true, "junction": null, "u": 9819483442, "v": 1634197537, "key": 6209, "length": 6.044970532737277, "road_segment_id": 6156, "segment_id": 57}, "geometry": {"type": "LineString", "coordinates": [[42.4980673, 18.215601899999992], [42.4980253, 18.2155649]]}}, {"type": "Feature", "properties": {"osmid": 787786469, "name": null, "highway": "tertiary", "lanes": null, "maxspeed": null, "oneway": true, "junction": null, "u": 1634197537, "v": 7365211543, "key": 6210, "length": 90.4861797705508, "road_segment_id": 6157, "segment_id": 58}, "geometry": {"type": "LineString", "coordinates": [[42.4980253, 18.2155649], [42.4979923, 18.215537499999993], [42.4978203, 18.215394199999995], [42.4977532, 18.2153384], [42.497691, 18.2152771], [42.4976335, 18.215187799999995], [42.4976009, 18.215109300000005], [42.4975921, 18.2150114], [42.4975976, 18.214912199999997]]}}, {"type": "Feature", "properties": {"osmid": 1069882872, "name": null, "highway": "service", "lanes": null, "maxspeed": null, "oneway": false, "junction": null, "u": 9819470938, "v": 9819470930, "key": 6654, "length": 24.342880948424913, "road_segment_id": 6599, "segment_id": 59}, "geometry": {"type": "LineString", "coordinates": [[42.4982902, 18.213617999999997], [42.49812860000001, 18.213492499999997], [42.4981199, 18.213473399999998]]}}, {"type": "Feature", "properties": {"osmid": 1069882872, "name": null, "highway": "service", "lanes": null, "maxspeed": null, "oneway": false, "junction": null, "u": 9819470930, "v": 9819470933, "key": 6655, "length": 13.219799098370753, "road_segment_id": 6600, "segment_id": 60}, "geometry": {"type": "LineString", "coordinates": [[42.4981199, 18.213473399999998], [42.4981226, 18.21345429999999], [42.4981689, 18.2133645]]}}, {"type": "Feature", "properties": {"osmid": 1069882872, "name": null, "highway": "service", "lanes": null, "maxspeed": null, "oneway": false, "junction": null, "u": 9819470933, "v": 9819470937, "key": 6656, "length": 26.181768287066003, "road_segment_id": 6601, "segment_id": 61}, "geometry": {"type": "LineString", "coordinates": [[42.4981689, 18.2133645], [42.4981871, 18.213357900000002], [42.4982078, 18.2133576], [42.4983868, 18.213457400000003]]}}, {"type": "Feature", "properties": {"osmid": 1069882873, "name": null, "highway": "service", "lanes": null, "maxspeed": null, "oneway": true, "junction": null, "u": 7365211572, "v": 9819470938, "key": 6657, "length": 22.033523040302523, "road_segment_id": 6602, "segment_id": 62}, "geometry": {"type": "LineString", "coordinates": [[42.49830300000001, 18.213816599999998], [42.4982902, 18.213617999999997]]}}, {"type": "Feature", "properties": {"osmid": 1069882873, "name": null, "highway": "service", "lanes": null, "maxspeed": null, "oneway": true, "junction": null, "u": 9819470938, "v": 9819470937, "key": 6658, "length": 20.512776344202873, "road_segment_id": 6603, "segment_id": 63}, "geometry": {"type": "LineString", "coordinates": [[42.4982902, 18.213617999999997], [42.4983868, 18.213457400000003]]}}, {"type": "Feature", "properties": {"osmid": 1069882873, "name": null, "highway": "service", "lanes": null, "maxspeed": null, "oneway": true, "junction": null, "u": 9819470937, "v": 9819470936, "key": 6659, "length": 22.52960702481836, "road_segment_id": 6604, "segment_id": 64}, "geometry": {"type": "LineString", "coordinates": [[42.4983868, 18.213457400000003], [42.4985895, 18.213395200000004]]}}, {"type": "Feature", "properties": {"osmid": 1069882948, "name": null, "highway": "service", "lanes": null, "maxspeed": null, "oneway": false, "junction": null, "u": 9819470930, "v": 9819438694, "key": 6660, "length": 26.259860985847105, "road_segment_id": 6605, "segment_id": 65}, "geometry": {"type": "LineString", "coordinates": [[42.4981199, 18.213473399999998], [42.4980522, 18.213470799999996], [42.4980146, 18.213452399999994], [42.4978936, 18.213388700000003]]}}, {"type": "Feature", "properties": {"osmid": 1069882949, "name": null, "highway": "service", "lanes": null, "maxspeed": null, "oneway": false, "junction": null, "u": 9819438700, "v": 9819470933, "key": 6661, "length": 29.24082875414676, "road_segment_id": 6606, "segment_id": 66}, "geometry": {"type": "LineString", "coordinates": [[42.4980176, 18.213198099999996], [42.4981578, 18.213248200000002], [42.4981709, 18.2132664], [42.4981759, 18.2132874], [42.4981689, 18.2133645]]}}, {"type": "Feature", "properties": {"osmid": 1069884442, "name": null, "highway": "service", "lanes": null, "maxspeed": null, "oneway": false, "junction": null, "u": 9819483442, "v": 9819434656, "key": 6662, "length": 28.65251667430312, "road_segment_id": 6607, "segment_id": 67}, "geometry": {"type": "LineString", "coordinates": [[42.4980673, 18.215601899999992], [42.4980911, 18.2155441], [42.498141, 18.2154982], [42.498244, 18.215412599999997]]}}, {"type": "Feature", "properties": {"osmid": 1069885058, "name": null, "highway": "service", "lanes": null, "maxspeed": null, "oneway": false, "junction": null, "u": 9819488021, "v": 9819479316, "key": 6663, "length": 55.75911344841672, "road_segment_id": 6608, "segment_id": 68}, "geometry": {"type": "LineString", "coordinates": [[42.4976212, 18.216776899999996], [42.497826200000006, 18.216935200000005], [42.4978933, 18.216987399999997], [42.4979791, 18.216983599999995], [42.4980247, 18.2169632], [42.4980408, 18.21692760000001]]}}, {"type": "Feature", "properties": {"osmid": 1069885059, "name": null, "highway": "service", "lanes": null, "maxspeed": null, "oneway": false, "junction": null, "u": 9819488023, "v": 9819488022, "key": 6664, "length": 39.41130586248263, "road_segment_id": 6609, "segment_id": 69}, "geometry": {"type": "LineString", "coordinates": [[42.4966057, 18.215692599999997], [42.4969693, 18.2157696]]}}, {"type": "Feature", "properties": {"osmid": 1069885060, "name": null, "highway": "service", "lanes": null, "maxspeed": null, "oneway": false, "junction": null, "u": 9819488040, "v": 9819488024, "key": 6665, "length": 137.030209463726, "road_segment_id": 6610, "segment_id": 70}, "geometry": {"type": "LineString", "coordinates": [[42.4975795, 18.215680400000004], [42.4974722, 18.2163072], [42.4974158, 18.216465099999997], [42.4973032, 18.2166804], [42.4972495, 18.2167276], [42.49714, 18.2167961]]}}, {"type": "Feature", "properties": {"osmid": 1069885061, "name": null, "highway": "service", "lanes": null, "maxspeed": null, "oneway": false, "junction": null, "u": 9819488030, "v": 9819488029, "key": 6666, "length": 32.451444705333785, "road_segment_id": 6611, "segment_id": 71}, "geometry": {"type": "LineString", "coordinates": [[42.4980517, 18.215892799999995], [42.498172800000006, 18.215903699999995], [42.498357, 18.2159203]]}}, {"type": "Feature", "properties": {"osmid": 1069885062, "name": null, "highway": "service", "lanes": null, "maxspeed": null, "oneway": false, "junction": null, "u": 9819488046, "v": 9819488023, "key": 6667, "length": 29.380744654202374, "road_segment_id": 6612, "segment_id": 72}, "geometry": {"type": "LineString", "coordinates": [[42.4965301, 18.2159479], [42.4966057, 18.215692599999997]]}}, {"type": "Feature", "properties": {"osmid": 1069885062, "name": null, "highway": "service", "lanes": null, "maxspeed": null, "oneway": false, "junction": null, "u": 9819488023, "v": 9819488040, "key": 6668, "length": 107.4757278180671, "road_segment_id": 6613, "segment_id": 73}, "geometry": {"type": "LineString", "coordinates": [[42.4966057, 18.215692599999997], [42.4966139, 18.2156651], [42.4966648, 18.2156396], [42.4967614, 18.215611599999995], [42.49744, 18.2156384], [42.4975231, 18.2156747], [42.4975795, 18.215680400000004]]}}, {"type": "Feature", "properties": {"osmid": 1069885062, "name": null, "highway": "service", "lanes": null, "maxspeed": null, "oneway": false, "junction": null, "u": 9819488040, "v": 9819488030, "key": 6669, "length": 71.7443295442569, "road_segment_id": 6614, "segment_id": 74}, "geometry": {"type": "LineString", "coordinates": [[42.4975795, 18.215680400000004], [42.4977471, 18.2155798], [42.4978115, 18.215581], [42.49786780000001, 18.215602699999998], [42.4980517, 18.215892799999995]]}}, {"type": "Feature", "properties": {"osmid": 1069885062, "name": null, "highway": "service", "lanes": null, "maxspeed": null, "oneway": false, "junction": null, "u": 9819488030, "v": 1107476673, "key": 6670, "length": 102.14397813461, "road_segment_id": 6615, "segment_id": 75}, "geometry": {"type": "LineString", "coordinates": [[42.4980517, 18.215892799999995], [42.4982353, 18.216182299999996], [42.4982513, 18.216225599999998], [42.4982393, 18.216257500000005], [42.4979523, 18.216428799999992], [42.4979308, 18.216446], [42.4979268, 18.2164995], [42.4979526, 18.216596699999997]]}}, {"type": "Feature", "properties": {"osmid": 1078102793, "name": null, "highway": "service", "lanes": null, "maxspeed": null, "oneway": false, "junction": null, "u": 9884264805, "v": 9884264804, "key": 6847, "length": 15.539739240229048, "road_segment_id": 6792, "segment_id": 76}, "geometry": {"type": "LineString", "coordinates": [[42.4980355, 18.2128602], [42.4981204, 18.212745699999996]]}}, {"type": "Feature", "properties": {"osmid": 1078102794, "name": null, "highway": "service", "lanes": null, "maxspeed": null, "oneway": false, "junction": null, "u": 9884264811, "v": 9884264804, "key": 6848, "length": 22.198065510476784, "road_segment_id": 6793, "segment_id": 77}, "geometry": {"type": "LineString", "coordinates": [[42.4979348, 18.2126523], [42.4981204, 18.212745699999996]]}}, {"type": "Feature", "properties": {"osmid": 1078102794, "name": null, "highway": "service", "lanes": null, "maxspeed": null, "oneway": false, "junction": null, "u": 9884264804, "v": 9884264806, "key": 6849, "length": 60.92508481044155, "road_segment_id": 6794, "segment_id": 78}, "geometry": {"type": "LineString", "coordinates": [[42.4981204, 18.212745699999996], [42.4982399, 18.2128058], [42.4982949, 18.2128205], [42.4983264, 18.212823699999998], [42.498368, 18.2128135], [42.4985889, 18.212607099999996]]}}, {"type": "Feature", "properties": {"osmid": 1134493619, "name": null, "highway": "service", "lanes": null, "maxspeed": null, "oneway": false, "junction": null, "u": 10576583555, "v": 10576583562, "key": 7000, "length": 33.6221063970764, "road_segment_id": 6937, "segment_id": 79}, "geometry": {"type": "LineString", "coordinates": [[42.4990683, 18.215711199999998], [42.4992315, 18.215757399999998], [42.4993079, 18.215795299999996], [42.4993565, 18.215831200000004]]}}, {"type": "Feature", "properties": {"osmid": 1484918445, "name": null, "highway": "residential", "lanes": null, "maxspeed": null, "oneway": true, "junction": null, "u": 1107476607, "v": 13614335164, "key": 7246, "length": 51.457697622438744, "road_segment_id": 7183, "segment_id": 80}, "geometry": {"type": "LineString", "coordinates": [[42.4971857, 18.216994], [42.4971457, 18.217066800000005], [42.4970795, 18.217443999999997]]}}, {"type": "Feature", "properties": {"osmid": 1484918446, "name": null, "highway": "residential", "lanes": null, "maxspeed": null, "oneway": true, "junction": null, "u": 13614335164, "v": 13614335167, "key": 7247, "length": 63.22289381988929, "road_segment_id": 7184, "segment_id": 81}, "geometry": {"type": "LineString", "coordinates": [[42.4970795, 18.217443999999997], [42.4970238, 18.21721309999999], [42.4969, 18.2171754], [42.4966846, 18.217216]]}}]}