{
"type": "FeatureCollection",
"name": "residential",
"crs": { "type": "name", "properties": { "name": "urn:ogc:def:crs:OGC:1.3:CRS84" } },
"features": [
{"type":"Feature","properties":{"residents":9.6},"geometry":{"type":"Point","coordinates":[46.632327340905427,24.737138686085231]}},
{"type":"Feature","properties":{"residents":12.1},"geometry":{"type":"Point","coordinates":[46.632417191876925,24.737232261228151]}},
{"type":"Feature","properties":{"residents":12.1},"geometry":{"type":"Point","coordinates":[46.632517491876918,24.737333061228149]}},
{"type":"Feature","properties":{"residents":12.1},"geometry":{"type":"Point","coordinates":[46.632618991876917,24.737432061228148]}},
{"type":"Feature","properties":{"residents":12.2},"geometry":{"type":"Point","coordinates":[46.632715871725331,24.737531670146556]}},
{"type":"Feature","properties":{"residents":10.4},"geometry":{"type":"Point","coordinates":[46.632800264096133,24.737619655227775]}},
{"type":"Feature","properties":{"residents":12.1},"geometry":{"type":"Point","coordinates":[46.632888991876925,24.737712461228153]}},
{"type":"Feature","properties":{"residents":12.1},"geometry":{"type":"Point","coordinates":[46.63298399187692,24.737809861228151]}},
{"type":"Feature","properties":{"residents":12.1},"geometry":{"type":"Point","coordinates":[46.633079691876915,24.737906661228148]}},
{"type":"Feature","properties":{"residents":12.1},"geometry":{"type":"Point","coordinates":[46.633172991876926,24.73800346122815]}},
{"type":"Feature","properties":{"residents":12.1},"geometry":{"type":"Point","coordinates":[46.633266891876922,24.738101861228145]}},
{"type":"Feature","properties":{"residents":12.1},"geometry":{"type":"Point","coordinates":[46.633362491876923,24.738196861228147]}},
{"type":"Feature","properties":{"residents":15.6},"geometry":{"type":"Point","coordinates":[46.633469754613039,24.73831056619181]}},
{"type":"Feature","properties":{"residents":19.9},"geometry":{"type":"Point","coordinates":[46.633253750030491,24.738474900034536]}},
{"type":"Feature","properties":{"residents":13.3},"geometry":{"type":"Point","coordinates":[46.633121408804286,24.738357064451645]}},
{"type":"Feature","properties":{"residents":13.3},"geometry":{"type":"Point","coordinates":[46.633035308804288,24.738257964451648]}},
{"type":"Feature","properties":{"residents":13.3},"geometry":{"type":"Point","coordinates":[46.632935408804293,24.738162464451644]}},
{"type":"Feature","properties":{"residents":13.3},"geometry":{"type":"Point","coordinates":[46.632843308804283,24.738067564451647]}},
{"type":"Feature","properties":{"residents":13.3},"geometry":{"type":"Point","coordinates":[46.632752008804282,24.737971964451638]}},
{"type":"Feature","properties":{"residents":11.2},"geometry":{"type":"Point","coordinates":[46.632661538568478,24.737888687006048]}},
{"type":"Feature","properties":{"residents":11.2},"geometry":{"type":"Point","coordinates":[46.632585038568479,24.737804787006034]}},
{"type":"Feature","properties":{"residents":12.8},"geometry":{"type":"Point","coordinates":[46.632487809747872,24.737715264102395]}},
{"type":"Feature","properties":{"residents":13.7},"geometry":{"type":"Point","coordinates":[46.632385664750963,24.737606604254335]}},
{"type":"Feature","properties":{"residents":13.7},"geometry":{"type":"Point","coordinates":[46.632289164750972,24.737505304254338]}},
{"type":"Feature","properties":{"residents":13.7},"geometry":{"type":"Point","coordinates":[46.632188073495612,24.737409168940651]}},
{"type":"Feature","properties":{"residents":9.0},"geometry":{"type":"Point","coordinates":[46.632109646192873,24.737326697679915]}},
{"type":"Feature","properties":{"residents":12.4},"geometry":{"type":"Point","coordinates":[46.632099727786596,24.737925780694926]}},
{"type":"Feature","properties":{"residents":12.4},"geometry":{"type":"Point","coordinates":[46.632210327786588,24.738031480694939]}},
{"type":"Feature","properties":{"residents":12.4},"geometry":{"type":"Point","coordinates":[46.632316927786597,24.738129980694922]}},
{"type":"Feature","properties":{"residents":12.4},"geometry":{"type":"Point","coordinates":[46.632419027786597,24.738234480694928]}},
{"type":"Feature","properties":{"residents":11.6},"geometry":{"type":"Point","coordinates":[46.632523942649691,24.738334685020916]}},
{"type":"Feature","properties":{"residents":57.6},"geometry":{"type":"Point","coordinates":[46.631976399682323,24.738184200128643]}},
{"type":"Feature","properties":{"residents":23.8},"geometry":{"type":"Point","coordinates":[46.632281250015261,24.738482600040602]}},
{"type":"Feature","properties":{"residents":23.8},"geometry":{"type":"Point","coordinates":[46.632450550015257,24.73866120004061]}},
{"type":"Feature","properties":{"residents":14.6},"geometry":{"type":"Point","coordinates":[46.632589770858665,24.738804140382967]}},
{"type":"Feature","properties":{"residents":22.0},"geometry":{"type":"Point","coordinates":[46.632728558625288,24.7389147440263]}},
{"type":"Feature","properties":{"residents":44.2},"geometry":{"type":"Point","coordinates":[46.632832287042653,24.738628580589175]}},
{"type":"Feature","properties":{"residents":9.0},"geometry":{"type":"Point","coordinates":[46.632612200062901,24.738422200024878]}},
{"type":"Feature","properties":{"residents":36.1},"geometry":{"type":"Point","coordinates":[46.631146176681533,24.737935925483033]}},
{"type":"Feature","properties":{"residents":24.3},"geometry":{"type":"Point","coordinates":[46.631353696559458,24.738144733606397]}},
{"type":"Feature","properties":{"residents":24.3},"geometry":{"type":"Point","coordinates":[46.631530296559461,24.7383210336064]}},
{"type":"Feature","properties":{"residents":24.3},"geometry":{"type":"Point","coordinates":[46.631711796559458,24.738500233606398]}},
{"type":"Feature","properties":{"residents":24.3},"geometry":{"type":"Point","coordinates":[46.63144869655946,24.738681133606402]}},
{"type":"Feature","properties":{"residents":24.3},"geometry":{"type":"Point","coordinates":[46.631288996559462,24.7385149336064]}},
{"type":"Feature","properties":{"residents":25.2},"geometry":{"type":"Point","coordinates":[46.631117400016649,24.738340400043022]}},
{"type":"Feature","properties":{"residents":30.6},"geometry":{"type":"Point","coordinates":[46.630923549962233,24.738119500052811]}},
{"type":"Feature","properties":{"residents":28.3},"geometry":{"type":"Point","coordinates":[46.631974651972691,24.738778283012838]}},
{"type":"Feature","properties":{"residents":24.5},"geometry":{"type":"Point","coordinates":[46.632155150028709,24.738961050041684]}},
{"type":"Feature","properties":{"residents":30.2},"geometry":{"type":"Point","coordinates":[46.632349117481766,24.739161115584512]}},
{"type":"Feature","properties":{"residents":30.2},"geometry":{"type":"Point","coordinates":[46.632123017481767,24.739338715584513]}},
{"type":"Feature","properties":{"residents":24.5},"geometry":{"type":"Point","coordinates":[46.631929350028699,24.73914615004168]}},
{"type":"Feature","properties":{"residents":27.3},"geometry":{"type":"Point","coordinates":[46.63174675001499,24.738971100046044]}},
{"type":"Feature","properties":{"residents":12.9},"geometry":{"type":"Point","coordinates":[46.633685974254121,24.738985672227109]}},
{"type":"Feature","properties":{"residents":12.9},"geometry":{"type":"Point","coordinates":[46.633824991456592,24.73890807819269]}},
{"type":"Feature","properties":{"residents":12.9},"geometry":{"type":"Point","coordinates":[46.633968453239156,24.73883737400601]}},
{"type":"Feature","properties":{"residents":15.3},"geometry":{"type":"Point","coordinates":[46.634133066658329,24.738786569931172]}},
{"type":"Feature","properties":{"residents":14.8},"geometry":{"type":"Point","coordinates":[46.634356476530527,24.738711532296239]}},
{"type":"Feature","properties":{"residents":14.1},"geometry":{"type":"Point","coordinates":[46.634367116622556,24.738862024073658]}},
{"type":"Feature","properties":{"residents":14.1},"geometry":{"type":"Point","coordinates":[46.634372316622553,24.739007324073658]}},
{"type":"Feature","properties":{"residents":14.1},"geometry":{"type":"Point","coordinates":[46.634384616622555,24.739153824073661]}},
{"type":"Feature","properties":{"residents":14.0},"geometry":{"type":"Point","coordinates":[46.634383951304606,24.739293810327478]}},
{"type":"Feature","properties":{"residents":16.8},"geometry":{"type":"Point","coordinates":[46.634393148100685,24.739443127818628]}},
{"type":"Feature","properties":{"residents":14.0},"geometry":{"type":"Point","coordinates":[46.634147039217424,24.739390525374233]}},
{"type":"Feature","properties":{"residents":14.0},"geometry":{"type":"Point","coordinates":[46.633981138039189,24.739407431175142]}},
{"type":"Feature","properties":{"residents":14.0},"geometry":{"type":"Point","coordinates":[46.633811040411956,24.739439645511041]}}
]
}
