{"type": "FeatureCollection", "features": [{"type": "Feature", "properties": {"osm_type": "way", "osm_id": 1185291251, "type": "parking", "floor_area": 50.0}, "geometry": {"type": "Point", "coordinates": [42.5079843, 18.198033499999998]}}, {"type": "Feature", "properties": {"osm_type": "way", "osm_id": 1185292048, "type": "school", "floor_area": 50.0}, "geometry": {"type": "Point", "coordinates": [42.5070596, 18.199086899999998]}}, {"type": "Feature", "properties": {"osm_type": "way", "osm_id": 1185292049, "type": "school", "floor_area": 50.0}, "geometry": {"type": "Point", "coordinates": [42.50776, 18.199461499999998]}}, {"type": "Feature", "properties": {"osm_type": "way", "osm_id": 1185292114, "type": "school", "floor_area": 50.0}, "geometry": {"type": "Point", "coordinates": [42.5074248, 18.199997200000002]}}, {"type": "Feature", "properties": {"osm_type": "way", "osm_id": 1185293633, "type": "school", "floor_area": 50.0}, "geometry": {"type": "Point", "coordinates": [42.5057098, 18.198997299999995]}}]}