{"type": "FeatureCollection", "features": [{"type": "Feature", "properties": {"osmid": 339782907, "name": null, "highway": "residential", "lanes": null, "maxspeed": null, "oneway": false, "junction": null, "u": 7117973314, "v": 3469927322, "key": 696, "length": 71.70296770405751, "road_segment_id": 691, "segment_id": 35, "distance_to_poi_m": 36.43959882158976}, "geometry": {"type": "LineString", "coordinates": [[42.5065555, 18.1995695], [42.5067402, 18.198946499999995]]}}, {"type": "Feature", "properties": {"osmid": 339782907, "name": null, "highway": "residential", "lanes": null, "maxspeed": null, "oneway": false, "junction": null, "u": 3469927322, "v": 3469927319, "key": 697, "length": 60.936186266793634, "road_segment_id": 692, "segment_id": 36, "distance_to_poi_m": 36.52906427895813}, "geometry": {"type": "LineString", "coordinates": [[42.5067402, 18.198946499999995], [42.5068955, 18.1984166]]}}, {"type": "Feature", "properties": {"osmid": 339782908, "name": null, "highway": "residential", "lanes": null, "maxspeed": null, "oneway": false, "junction": null, "u": 3469927325, "v": 3469927322, "key": 699, "length": 117.84717052490038, "road_segment_id": 694, "segment_id": 38, "distance_to_poi_m": 36.52906427895813}, "geometry": {"type": "LineString", "coordinates": [[42.5060377, 18.1993179], [42.5061762, 18.1988239], [42.5067402, 18.198946499999995]]}}, {"type": "Feature", "properties": {"osmid": 1072560660, "name": null, "highway": "residential", "lanes": null, "maxspeed": null, "oneway": false, "junction": null, "u": 7117973312, "v": 1537166084, "key": 891, "length": 100.81037468057578, "road_segment_id": 872, "segment_id": 84, "distance_to_poi_m": 37.53937421108216}, "geometry": {"type": "LineString", "coordinates": [[42.5072836, 18.199745299999993], [42.5074694, 18.198852399999993]]}}]}