{"type": "FeatureCollection", "features": [{"type": "Feature", "properties": {"osmid": 95298099, "name": null, "highway": "residential", "lanes": null, "maxspeed": null, "oneway": false, "junction": null, "u": 1105459903, "v": 1537166094, "key": 413, "length": 215.3670754932765, "road_segment_id": 408, "segment_id": 0}, "geometry": {"type": "LineString", "coordinates": [[42.5103537, 18.200635399999996], [42.5100081, 18.2007879], [42.5097856, 18.2007852], [42.5089244, 18.200583699999996], [42.5089071, 18.2005328], [42.5089116, 18.200469500000004], [42.5089685, 18.200069099999993]]}}, {"type": "Feature", "properties": {"osmid": 95298104, "name": null, "highway": "residential", "lanes": null, "maxspeed": null, "oneway": false, "junction": null, "u": 1105459869, "v": 7117973320, "key": 425, "length": 151.13375763530996, "road_segment_id": 420, "segment_id": 1}, "geometry": {"type": "LineString", "coordinates": [[42.508066, 18.2003991], [42.506672, 18.2001029]]}}, {"type": "Feature", "properties": {"osmid": 95298104, "name": null, "highway": "residential", "lanes": null, "maxspeed": null, "oneway": false, "junction": null, "u": 7117973320, "v": 3469927318, "key": 426, "length": 27.613474994620166, "road_segment_id": 421, "segment_id": 2}, "geometry": {"type": "LineString", "coordinates": [[42.506672, 18.2001029], [42.5064173, 18.200048799999998]]}}, {"type": "Feature", "properties": {"osmid": 95298104, "name": null, "highway": "residential", "lanes": null, "maxspeed": null, "oneway": false, "junction": null, "u": 3469927318, "v": 3469927320, "key": 427, "length": 59.77347105467425, "road_segment_id": 422, "segment_id": 3}, "geometry": {"type": "LineString", "coordinates": [[42.5064173, 18.200048799999998], [42.5058672, 18.1999265]]}}, {"type": "Feature", "properties": {"osmid": 95298104, "name": null, "highway": "residential", "lanes": null, "maxspeed": null, "oneway": false, "junction": null, "u": 3469927320, "v": 7117973323, "key": 428, "length": 78.06300496465886, "road_segment_id": 423, "segment_id": 4}, "geometry": {"type": "LineString", "coordinates": [[42.5058672, 18.1999265], [42.50514880000001, 18.199766699999998]]}}, {"type": "Feature", "properties": {"osmid": 95298104, "name": null, "highway": "residential", "lanes": null, "maxspeed": null, "oneway": false, "junction": null, "u": 7117973323, "v": 3469927323, "key": 429, "length": 19.874754331079263, "road_segment_id": 424, "segment_id": 5}, "geometry": {"type": "LineString", "coordinates": [[42.50514880000001, 18.199766699999998], [42.5049659, 18.199726]]}}, {"type": "Feature", "properties": {"osmid": 95298104, "name": null, "highway": "residential", "lanes": null, "maxspeed": null, "oneway": false, "junction": null, "u": 3469927323, "v": 3469927317, "key": 430, "length": 48.947812687327364, "road_segment_id": 425, "segment_id": 6}, "geometry": {"type": "LineString", "coordinates": [[42.5049659, 18.199726], [42.504521700000005, 18.1996029]]}}, {"type": "Feature", "properties": {"osmid": 95298117, "name": null, "highway": "residential", "lanes": null, "maxspeed": null, "oneway": false, "junction": null, "u": 1537166091, "v": 1537166094, "key": 434, "length": 210.60016044573254, "road_segment_id": 429, "segment_id": 7}, "geometry": {"type": "LineString", "coordinates": [[42.510736400000006, 18.199643699999996], [42.5100239, 18.200165500000004], [42.5099368, 18.2002195], [42.5098518, 18.2002364], [42.509777, 18.2002346], [42.5089685, 18.200069099999993]]}}, {"type": "Feature", "properties": {"osmid": 95298117, "name": null, "highway": "residential", "lanes": null, "maxspeed": null, "oneway": false, "junction": null, "u": 1537166094, "v": 1105459749, "key": 435, "length": 87.4629530336523, "road_segment_id": 430, "segment_id": 8}, "geometry": {"type": "LineString", "coordinates": [[42.5089685, 18.200069099999993], [42.5081572, 18.199918699999994]]}}, {"type": "Feature", "properties": {"osmid": 95298139, "name": null, "highway": "residential", "lanes": null, "maxspeed": null, "oneway": false, "junction": null, "u": 1105459922, "v": 13608403745, "key": 442, "length": 34.82867853750784, "road_segment_id": 437, "segment_id": 9}, "geometry": {"type": "LineString", "coordinates": [[42.5079733, 18.200911299999998], [42.5080277, 18.2006011]]}}, {"type": "Feature", "properties": {"osmid": 95298139, "name": null, "highway": "residential", "lanes": null, "maxspeed": null, "oneway": false, "junction": null, "u": 13608403745, "v": 13608403744, "key": 443, "length": 8.450785041532711, "road_segment_id": 438, "segment_id": 10}, "geometry": {"type": "LineString", "coordinates": [[42.5080277, 18.2006011], [42.5080419, 18.200525999999996]]}}, {"type": "Feature", "properties": {"osmid": 95298139, "name": null, "highway": "residential", "lanes": null, "maxspeed": null, "oneway": false, "junction": null, "u": 13608403744, "v": 1105459869, "key": 444, "length": 14.281680202195098, "road_segment_id": 439, "segment_id": 11}, "geometry": {"type": "LineString", "coordinates": [[42.5080419, 18.200525999999996], [42.508066, 18.2003991]]}}, {"type": "Feature", "properties": {"osmid": 95298139, "name": null, "highway": "residential", "lanes": null, "maxspeed": null, "oneway": false, "junction": null, "u": 1105459869, "v": 1105459749, "key": 445, "length": 54.06490695870557, "road_segment_id": 440, "segment_id": 12}, "geometry": {"type": "LineString", "coordinates": [[42.508066, 18.2003991], [42.5081572, 18.199918699999994]]}}, {"type": "Feature", "properties": {"osmid": 95298139, "name": null, "highway": "residential", "lanes": null, "maxspeed": null, "oneway": false, "junction": null, "u": 1105459749, "v": 9884359617, "key": 446, "length": 47.40129394143371, "road_segment_id": 441, "segment_id": 13}, "geometry": {"type": "LineString", "coordinates": [[42.5081572, 18.199918699999994], [42.5082371, 18.1994975]]}}, {"type": "Feature", "properties": {"osmid": 95298139, "name": null, "highway": "residential", "lanes": null, "maxspeed": null, "oneway": false, "junction": null, "u": 9884359617, "v": 1105459897, "key": 447, "length": 39.32139684798509, "road_segment_id": 442, "segment_id": 14}, "geometry": {"type": "LineString", "coordinates": [[42.5082371, 18.1994975], [42.5083034, 18.19914809999999]]}}, {"type": "Feature", "properties": {"osmid": 140294342, "name": null, "highway": "residential", "lanes": null, "maxspeed": null, "oneway": false, "junction": null, "u": 1537166082, "v": 1537166084, "key": 468, "length": 29.524808333556926, "road_segment_id": 463, "segment_id": 15}, "geometry": {"type": "LineString", "coordinates": [[42.5075029, 18.1985877], [42.5074694, 18.198852399999993]]}}, {"type": "Feature", "properties": {"osmid": 140294342, "name": null, "highway": "residential", "lanes": null, "maxspeed": null, "oneway": false, "junction": null, "u": 1537166084, "v": 1105459897, "key": 469, "length": 101.00829123039323, "road_segment_id": 464, "segment_id": 16}, "geometry": {"type": "LineString", "coordinates": [[42.5074694, 18.198852399999993], [42.5075116, 18.1989385], [42.507553900000005, 18.198986999999995], [42.5076225, 18.199048099999995], [42.50770440000001, 18.199090299999995], [42.5083034, 18.19914809999999]]}}, {"type": "Feature", "properties": {"osmid": 140294342, "name": null, "highway": "residential", "lanes": null, "maxspeed": null, "oneway": false, "junction": null, "u": 1105459897, "v": 11010315641, "key": 470, "length": 48.59906716822074, "road_segment_id": 465, "segment_id": 17}, "geometry": {"type": "LineString", "coordinates": [[42.5083034, 18.19914809999999], [42.5087626, 18.199147199999988]]}}, {"type": "Feature", "properties": {"osmid": 140294342, "name": null, "highway": "residential", "lanes": null, "maxspeed": null, "oneway": false, "junction": null, "u": 11010315641, "v": 9884350503, "key": 471, "length": 69.25845432985263, "road_segment_id": 466, "segment_id": 18}, "geometry": {"type": "LineString", "coordinates": [[42.5087626, 18.199147199999988], [42.5090924, 18.1991466], [42.509193, 18.1991223], [42.5092804, 18.1990854], [42.5093794, 18.199012000000003]]}}, {"type": "Feature", "properties": {"osmid": 140294342, "name": null, "highway": "residential", "lanes": null, "maxspeed": null, "oneway": false, "junction": null, "u": 9884350503, "v": 7117973315, "key": 472, "length": 16.76815320095062, "road_segment_id": 467, "segment_id": 19}, "geometry": {"type": "LineString", "coordinates": [[42.5093794, 18.199012000000003], [42.5095046, 18.198919200000002]]}}, {"type": "Feature", "properties": {"osmid": 288432002, "name": null, "highway": "unclassified", "lanes": null, "maxspeed": null, "oneway": false, "junction": null, "u": 2919928646, "v": 2919928669, "key": 525, "length": 21.900629964338613, "road_segment_id": 520, "segment_id": 20}, "geometry": {"type": "LineString", "coordinates": [[42.5062515, 18.2009254], [42.506172, 18.201108]]}}, {"type": "Feature", "properties": {"osmid": 288432002, "name": null, "highway": "unclassified", "lanes": null, "maxspeed": null, "oneway": false, "junction": null, "u": 2919928669, "v": 2919928648, "key": 526, "length": 53.99397145376666, "road_segment_id": 521, "segment_id": 21}, "geometry": {"type": "LineString", "coordinates": [[42.506172, 18.201108], [42.5059817, 18.201092299999996], [42.5056832, 18.200984299999995]]}}, {"type": "Feature", "properties": {"osmid": 288432003, "name": null, "highway": "unclassified", "lanes": null, "maxspeed": null, "oneway": false, "junction": null, "u": 13608403757, "v": 2919928651, "key": 528, "length": 9.604205917817177, "road_segment_id": 523, "segment_id": 22}, "geometry": {"type": "LineString", "coordinates": [[42.5071585, 18.201129299999995], [42.5071385, 18.2012139]]}}, {"type": "Feature", "properties": {"osmid": 288432003, "name": null, "highway": "unclassified", "lanes": null, "maxspeed": null, "oneway": false, "junction": null, "u": 2919928651, "v": 2919928657, "key": 529, "length": 129.4133192723003, "road_segment_id": 524, "segment_id": 23}, "geometry": {"type": "LineString", "coordinates": [[42.5071385, 18.2012139], [42.5071262, 18.201525499999992], [42.5071148, 18.2023823]]}}, {"type": "Feature", "properties": {"osmid": 288432008, "name": null, "highway": "unclassified", "lanes": null, "maxspeed": null, "oneway": false, "junction": null, "u": 2919928668, "v": 2919928669, "key": 541, "length": 8.327319617849165, "road_segment_id": 536, "segment_id": 24}, "geometry": {"type": "LineString", "coordinates": [[42.5061473, 18.201179399999997], [42.506172, 18.201108]]}}, {"type": "Feature", "properties": {"osmid": 339782905, "name": null, "highway": "residential", "lanes": null, "maxspeed": null, "oneway": false, "junction": null, "u": 1537166082, "v": 7117973331, "key": 680, "length": 151.91376375114234, "road_segment_id": 675, "segment_id": 25}, "geometry": {"type": "LineString", "coordinates": [[42.5075029, 18.1985877], [42.50759430000001, 18.198301399999995], [42.5076544, 18.1978687], [42.5075341, 18.1973216], [42.5074957, 18.197253899999996]]}}, {"type": "Feature", "properties": {"osmid": 339782905, "name": null, "highway": "residential", "lanes": null, "maxspeed": null, "oneway": false, "junction": null, "u": 7117973331, "v": 11010323314, "key": 681, "length": 52.06204741354528, "road_segment_id": 676, "segment_id": 26}, "geometry": {"type": "LineString", "coordinates": [[42.5074957, 18.197253899999996], [42.5072614, 18.196840499999993]]}}, {"type": "Feature", "properties": {"osmid": 339782905, "name": null, "highway": "residential", "lanes": null, "maxspeed": null, "oneway": false, "junction": null, "u": 11010323314, "v": 3469927345, "key": 682, "length": 62.10449427420709, "road_segment_id": 677, "segment_id": 27}, "geometry": {"type": "LineString", "coordinates": [[42.5072614, 18.196840499999993], [42.5072333, 18.196790899999996], [42.5068831, 18.196413500000002]]}}, {"type": "Feature", "properties": {"osmid": 339782906, "name": null, "highway": "residential", "lanes": null, "maxspeed": null, "oneway": false, "junction": null, "u": 1537166082, "v": 3469927328, "key": 688, "length": 56.89683258158299, "road_segment_id": 683, "segment_id": 28}, "geometry": {"type": "LineString", "coordinates": [[42.5075029, 18.1985877], [42.5069878, 18.198440599999998]]}}, {"type": "Feature", "properties": {"osmid": 339782906, "name": null, "highway": "residential", "lanes": null, "maxspeed": null, "oneway": false, "junction": null, "u": 3469927328, "v": 3469927319, "key": 689, "length": 10.12358603525176, "road_segment_id": 684, "segment_id": 29}, "geometry": {"type": "LineString", "coordinates": [[42.5069878, 18.198440599999998], [42.5068955, 18.1984166]]}}, {"type": "Feature", "properties": {"osmid": 339782906, "name": null, "highway": "residential", "lanes": null, "maxspeed": null, "oneway": false, "junction": null, "u": 3469927319, "v": 3469927344, "key": 690, "length": 97.16366713168284, "road_segment_id": 685, "segment_id": 30}, "geometry": {"type": "LineString", "coordinates": [[42.5068955, 18.1984166], [42.5068293, 18.198399399999996], [42.5059998, 18.198224399999997]]}}, {"type": "Feature", "properties": {"osmid": 339782906, "name": null, "highway": "residential", "lanes": null, "maxspeed": null, "oneway": false, "junction": null, "u": 3469927344, "v": 3469927324, "key": 691, "length": 54.169878905969334, "road_segment_id": 686, "segment_id": 31}, "geometry": {"type": "LineString", "coordinates": [[42.5059998, 18.198224399999997], [42.5054973, 18.1981314]]}}, {"type": "Feature", "properties": {"osmid": 339782906, "name": null, "highway": "residential", "lanes": null, "maxspeed": null, "oneway": false, "junction": null, "u": 3469927324, "v": 3469927312, "key": 692, "length": 61.340073958925686, "road_segment_id": 687, "segment_id": 32}, "geometry": {"type": "LineString", "coordinates": [[42.5054973, 18.1981314], [42.5050528, 18.198037699999997], [42.5049303, 18.1980584]]}}, {"type": "Feature", "properties": {"osmid": 339782906, "name": null, "highway": "residential", "lanes": null, "maxspeed": null, "oneway": false, "junction": null, "u": 3469927312, "v": 3469927327, "key": 693, "length": 114.44011253629111, "road_segment_id": 688, "segment_id": 33}, "geometry": {"type": "LineString", "coordinates": [[42.5049303, 18.1980584], [42.5046659, 18.199060500000005]]}}, {"type": "Feature", "properties": {"osmid": 339782907, "name": null, "highway": "residential", "lanes": null, "maxspeed": null, "oneway": false, "junction": null, "u": 3469927318, "v": 7117973314, "key": 695, "length": 55.053073578225224, "road_segment_id": 690, "segment_id": 34}, "geometry": {"type": "LineString", "coordinates": [[42.5064173, 18.200048799999998], [42.5065555, 18.1995695]]}}, {"type": "Feature", "properties": {"osmid": 339782907, "name": null, "highway": "residential", "lanes": null, "maxspeed": null, "oneway": false, "junction": null, "u": 7117973314, "v": 3469927322, "key": 696, "length": 71.70296770405751, "road_segment_id": 691, "segment_id": 35}, "geometry": {"type": "LineString", "coordinates": [[42.5065555, 18.1995695], [42.5067402, 18.198946499999998]]}}, {"type": "Feature", "properties": {"osmid": 339782907, "name": null, "highway": "residential", "lanes": null, "maxspeed": null, "oneway": false, "junction": null, "u": 3469927322, "v": 3469927319, "key": 697, "length": 60.936186266793634, "road_segment_id": 692, "segment_id": 36}, "geometry": {"type": "LineString", "coordinates": [[42.5067402, 18.198946499999998], [42.5068955, 18.1984166]]}}, {"type": "Feature", "properties": {"osmid": 339782908, "name": null, "highway": "residential", "lanes": null, "maxspeed": null, "oneway": false, "junction": null, "u": 3469927320, "v": 3469927325, "key": 698, "length": 69.76645459015042, "road_segment_id": 693, "segment_id": 37}, "geometry": {"type": "LineString", "coordinates": [[42.5058672, 18.1999265], [42.5060377, 18.1993179]]}}, {"type": "Feature", "properties": {"osmid": 339782908, "name": null, "highway": "residential", "lanes": null, "maxspeed": null, "oneway": false, "junction": null, "u": 3469927325, "v": 3469927322, "key": 699, "length": 117.84717052490038, "road_segment_id": 694, "segment_id": 38}, "geometry": {"type": "LineString", "coordinates": [[42.5060377, 18.1993179], [42.5061762, 18.1988239], [42.5067402, 18.198946499999998]]}}, {"type": "Feature", "properties": {"osmid": 339782909, "name": null, "highway": "residential", "lanes": null, "maxspeed": null, "oneway": false, "junction": null, "u": 3469927323, "v": 3469927326, "key": 700, "length": 68.06146581954746, "road_segment_id": 695, "segment_id": 39}, "geometry": {"type": "LineString", "coordinates": [[42.5049659, 18.199726], [42.50514660000001, 18.1992279], [42.5052213, 18.199177400000004]]}}, {"type": "Feature", "properties": {"osmid": 339782909, "name": null, "highway": "residential", "lanes": null, "maxspeed": null, "oneway": false, "junction": null, "u": 3469927326, "v": 3469927324, "key": 701, "length": 119.4539003906899, "road_segment_id": 696, "segment_id": 40}, "geometry": {"type": "LineString", "coordinates": [[42.5052213, 18.199177400000004], [42.5054973, 18.1981314]]}}, {"type": "Feature", "properties": {"osmid": 339782910, "name": null, "highway": "residential", "lanes": null, "maxspeed": null, "oneway": false, "junction": null, "u": 3469927325, "v": 3469927326, "key": 702, "length": 87.79253979620717, "road_segment_id": 697, "segment_id": 41}, "geometry": {"type": "LineString", "coordinates": [[42.5060377, 18.1993179], [42.5052213, 18.199177400000004]]}}, {"type": "Feature", "properties": {"osmid": 339782911, "name": null, "highway": "residential", "lanes": null, "maxspeed": null, "oneway": false, "junction": null, "u": 3469927326, "v": 3469927327, "key": 703, "length": 60.18884074371531, "road_segment_id": 698, "segment_id": 42}, "geometry": {"type": "LineString", "coordinates": [[42.5052213, 18.199177400000004], [42.5046659, 18.199060500000005]]}}, {"type": "Feature", "properties": {"osmid": 339782912, "name": null, "highway": "residential", "lanes": null, "maxspeed": null, "oneway": false, "junction": null, "u": 3469927328, "v": 3469927329, "key": 704, "length": 67.35765062131016, "road_segment_id": 699, "segment_id": 43}, "geometry": {"type": "LineString", "coordinates": [[42.5069878, 18.198440599999998], [42.507113, 18.19784419999999]]}}, {"type": "Feature", "properties": {"osmid": 339782913, "name": null, "highway": "residential", "lanes": null, "maxspeed": null, "oneway": false, "junction": null, "u": 3469927329, "v": 7117973333, "key": 705, "length": 12.308064347850648, "road_segment_id": 700, "segment_id": 44}, "geometry": {"type": "LineString", "coordinates": [[42.507113, 18.19784419999999], [42.5069992, 18.1978213]]}}, {"type": "Feature", "properties": {"osmid": 339782913, "name": null, "highway": "residential", "lanes": null, "maxspeed": null, "oneway": false, "junction": null, "u": 7117973333, "v": 3469927340, "key": 706, "length": 25.115347818432937, "road_segment_id": 701, "segment_id": 45}, "geometry": {"type": "LineString", "coordinates": [[42.5069992, 18.1978213], [42.506767, 18.1977745]]}}, {"type": "Feature", "properties": {"osmid": 339782913, "name": null, "highway": "residential", "lanes": null, "maxspeed": null, "oneway": false, "junction": null, "u": 3469927340, "v": 3469927343, "key": 707, "length": 65.89512135976672, "road_segment_id": 702, "segment_id": 46}, "geometry": {"type": "LineString", "coordinates": [[42.506767, 18.1977745], [42.5061479, 18.197711299999998]]}}, {"type": "Feature", "properties": {"osmid": 339782913, "name": null, "highway": "residential", "lanes": null, "maxspeed": null, "oneway": false, "junction": null, "u": 3469927343, "v": 9840653970, "key": 708, "length": 11.995353932573005, "road_segment_id": 703, "segment_id": 47}, "geometry": {"type": "LineString", "coordinates": [[42.5061479, 18.197711299999998], [42.5060393, 18.1976803]]}}, {"type": "Feature", "properties": {"osmid": 339782913, "name": null, "highway": "residential", "lanes": null, "maxspeed": null, "oneway": false, "junction": null, "u": 9840653970, "v": 3469927331, "key": 709, "length": 97.69274504923676, "road_segment_id": 704, "segment_id": 48}, "geometry": {"type": "LineString", "coordinates": [[42.5060393, 18.1976803], [42.5054686, 18.197555], [42.505323000000004, 18.1974666], [42.5052152, 18.197347199999992]]}}, {"type": "Feature", "properties": {"osmid": 339782913, "name": null, "highway": "residential", "lanes": null, "maxspeed": null, "oneway": false, "junction": null, "u": 3469927337, "v": 9840653984, "key": 712, "length": 88.06294060817999, "road_segment_id": 707, "segment_id": 49}, "geometry": {"type": "LineString", "coordinates": [[42.5064082, 18.1967583], [42.5068122, 18.197239999999997], [42.5068463, 18.1974149]]}}, {"type": "Feature", "properties": {"osmid": 339782913, "name": null, "highway": "residential", "lanes": null, "maxspeed": null, "oneway": false, "junction": null, "u": 9840653984, "v": 3469927339, "key": 713, "length": 5.236470098580946, "road_segment_id": 708, "segment_id": 50}, "geometry": {"type": "LineString", "coordinates": [[42.5068463, 18.1974149], [42.5068553, 18.197461400000005]]}}, {"type": "Feature", "properties": {"osmid": 339782913, "name": null, "highway": "residential", "lanes": null, "maxspeed": null, "oneway": false, "junction": null, "u": 3469927339, "v": 7117973332, "key": 714, "length": 10.22256869300952, "road_segment_id": 709, "segment_id": 51}, "geometry": {"type": "LineString", "coordinates": [[42.5068553, 18.197461400000005], [42.506821, 18.197547700000005]]}}, {"type": "Feature", "properties": {"osmid": 339782913, "name": null, "highway": "residential", "lanes": null, "maxspeed": null, "oneway": false, "junction": null, "u": 7117973332, "v": 3469927340, "key": 715, "length": 25.756432365862526, "road_segment_id": 710, "segment_id": 52}, "geometry": {"type": "LineString", "coordinates": [[42.506821, 18.197547700000005], [42.506767, 18.1977745]]}}, {"type": "Feature", "properties": {"osmid": 339782915, "name": null, "highway": "residential", "lanes": null, "maxspeed": null, "oneway": false, "junction": null, "u": 3469927343, "v": 3469927344, "key": 717, "length": 58.93977826733485, "road_segment_id": 712, "segment_id": 53}, "geometry": {"type": "LineString", "coordinates": [[42.5061479, 18.197711299999998], [42.5059998, 18.198224399999997]]}}, {"type": "Feature", "properties": {"osmid": 553861881, "name": null, "highway": "trunk_link", "lanes": null, "maxspeed": null, "oneway": true, "junction": null, "u": 7117973321, "v": 5345828708, "key": 751, "length": 173.85547360445034, "road_segment_id": 746, "segment_id": 54}, "geometry": {"type": "LineString", "coordinates": [[42.5048412, 18.200295800000003], [42.5064429, 18.2006445]]}}, {"type": "Feature", "properties": {"osmid": 553861881, "name": null, "highway": "trunk_link", "lanes": null, "maxspeed": null, "oneway": true, "junction": null, "u": 5345828708, "v": 6504941566, "key": 752, "length": 113.74845151835446, "road_segment_id": 747, "segment_id": 55}, "geometry": {"type": "LineString", "coordinates": [[42.5064429, 18.2006445], [42.5071235, 18.200824499999996], [42.5074838, 18.20089889999999]]}}, {"type": "Feature", "properties": {"osmid": 553861881, "name": null, "highway": "trunk_link", "lanes": null, "maxspeed": null, "oneway": true, "junction": null, "u": 6504941566, "v": 5345828710, "key": 753, "length": 32.06678468535826, "road_segment_id": 748, "segment_id": 56}, "geometry": {"type": "LineString", "coordinates": [[42.5074838, 18.20089889999999], [42.5077814, 18.2009533]]}}, {"type": "Feature", "properties": {"osmid": 553861882, "name": null, "highway": "trunk_link", "lanes": null, "maxspeed": null, "oneway": true, "junction": "roundabout", "u": 13608403747, "v": 1105459922, "key": 754, "length": 7.118256602068862, "road_segment_id": 749, "segment_id": 57}, "geometry": {"type": "LineString", "coordinates": [[42.5079061, 18.2009086], [42.5079733, 18.200911299999998]]}}, {"type": "Feature", "properties": {"osmid": 553861882, "name": null, "highway": "trunk_link", "lanes": null, "maxspeed": null, "oneway": true, "junction": "roundabout", "u": 1105459922, "v": 5345843127, "key": 755, "length": 18.3227671885666, "road_segment_id": 750, "segment_id": 58}, "geometry": {"type": "LineString", "coordinates": [[42.5079733, 18.200911299999998], [42.5080547, 18.200939600000005], [42.5081211, 18.2009926]]}}, {"type": "Feature", "properties": {"osmid": 553861882, "name": null, "highway": "trunk_link", "lanes": null, "maxspeed": null, "oneway": true, "junction": "roundabout", "u": 5345843127, "v": 5345843134, "key": 756, "length": 38.400253490225055, "road_segment_id": 751, "segment_id": 59}, "geometry": {"type": "LineString", "coordinates": [[42.5081211, 18.2009926], [42.5081542, 18.2010409], [42.5081742, 18.201095499999994], [42.5081797, 18.201153000000005], [42.5081705, 18.201210100000004], [42.5081471, 18.201263399999995], [42.5081109, 18.2013098]]}}, {"type": "Feature", "properties": {"osmid": 553861882, "name": null, "highway": "trunk_link", "lanes": null, "maxspeed": null, "oneway": true, "junction": "roundabout", "u": 5345828718, "v": 5345828710, "key": 760, "length": 38.00318146540192, "road_segment_id": 755, "segment_id": 60}, "geometry": {"type": "LineString", "coordinates": [[42.5077095, 18.2012607], [42.5076842, 18.2011966], [42.5076791, 18.201128200000003], [42.5076947, 18.2010612], [42.5077298, 18.201001299999998], [42.5077814, 18.2009533]]}}, {"type": "Feature", "properties": {"osmid": 553861882, "name": null, "highway": "trunk_link", "lanes": null, "maxspeed": null, "oneway": true, "junction": "roundabout", "u": 5345828710, "v": 13608403747, "key": 761, "length": 14.22024684010243, "road_segment_id": 756, "segment_id": 61}, "geometry": {"type": "LineString", "coordinates": [[42.5077814, 18.2009533], [42.5078406, 18.200922999999996], [42.5079061, 18.2009086]]}}, {"type": "Feature", "properties": {"osmid": 553861883, "name": null, "highway": "trunk_link", "lanes": null, "maxspeed": null, "oneway": true, "junction": null, "u": 5345843127, "v": 6504941579, "key": 762, "length": 31.99835409711621, "road_segment_id": 757, "segment_id": 62}, "geometry": {"type": "LineString", "coordinates": [[42.5081211, 18.2009926], [42.5084119, 18.2010717]]}}, {"type": "Feature", "properties": {"osmid": 553861885, "name": null, "highway": "trunk_link", "lanes": null, "maxspeed": null, "oneway": true, "junction": null, "u": 5345828718, "v": 6504941564, "key": 770, "length": 14.641068076468343, "road_segment_id": 765, "segment_id": 63}, "geometry": {"type": "LineString", "coordinates": [[42.5077095, 18.2012607], [42.5075757, 18.2012271]]}}, {"type": "Feature", "properties": {"osmid": 553861885, "name": null, "highway": "trunk_link", "lanes": null, "maxspeed": null, "oneway": true, "junction": null, "u": 6504941564, "v": 6504941572, "key": 771, "length": 16.754478520303213, "road_segment_id": 766, "segment_id": 64}, "geometry": {"type": "LineString", "coordinates": [[42.5075757, 18.2012271], [42.5074226, 18.2011886]]}}, {"type": "Feature", "properties": {"osmid": 553861885, "name": null, "highway": "trunk_link", "lanes": null, "maxspeed": null, "oneway": true, "junction": null, "u": 6504941572, "v": 13608403757, "key": 772, "length": 28.711443680470246, "road_segment_id": 767, "segment_id": 65}, "geometry": {"type": "LineString", "coordinates": [[42.5074226, 18.2011886], [42.5071585, 18.201129299999995]]}}, {"type": "Feature", "properties": {"osmid": 553861885, "name": null, "highway": "trunk_link", "lanes": null, "maxspeed": null, "oneway": true, "junction": null, "u": 13608403757, "v": 2919928646, "key": 773, "length": 98.61019609505763, "road_segment_id": 768, "segment_id": 66}, "geometry": {"type": "LineString", "coordinates": [[42.5071585, 18.201129299999995], [42.5062515, 18.2009254]]}}, {"type": "Feature", "properties": {"osmid": 553861885, "name": null, "highway": "trunk_link", "lanes": null, "maxspeed": null, "oneway": true, "junction": null, "u": 2919928646, "v": 5345843135, "key": 774, "length": 160.62188204136402, "road_segment_id": 769, "segment_id": 67}, "geometry": {"type": "LineString", "coordinates": [[42.5062515, 18.2009254], [42.5047741, 18.200593399999995]]}}, {"type": "Feature", "properties": {"osmid": 692867446, "name": null, "highway": "unclassified", "lanes": null, "maxspeed": null, "oneway": true, "junction": null, "u": 2919928644, "v": 6504941564, "key": 812, "length": 33.08618533606814, "road_segment_id": 793, "segment_id": 68}, "geometry": {"type": "LineString", "coordinates": [[42.5076999, 18.201501299999997], [42.5075757, 18.2012271]]}}, {"type": "Feature", "properties": {"osmid": 692867447, "name": null, "highway": "trunk_link", "lanes": null, "maxspeed": null, "oneway": true, "junction": null, "u": 6504941566, "v": 6504941572, "key": 813, "length": 43.784266627686506, "road_segment_id": 794, "segment_id": 69}, "geometry": {"type": "LineString", "coordinates": [[42.5074838, 18.20089889999999], [42.5075481, 18.200954999999993], [42.5075656, 18.2009882], [42.5075706, 18.201045299999997], [42.5075556, 18.201102399999996], [42.507498, 18.2011642], [42.5074226, 18.2011886]]}}, {"type": "Feature", "properties": {"osmid": 692867450, "name": null, "highway": "residential", "lanes": null, "maxspeed": null, "oneway": false, "junction": null, "u": 13608403744, "v": 6504941583, "key": 816, "length": 184.16474984315815, "road_segment_id": 797, "segment_id": 70}, "geometry": {"type": "LineString", "coordinates": [[42.5080419, 18.200525999999996], [42.5081208, 18.200753000000002], [42.5082083, 18.2008707], [42.5095163, 18.201143599999998]]}}, {"type": "Feature", "properties": {"osmid": 761832086, "name": null, "highway": "residential", "lanes": null, "maxspeed": null, "oneway": false, "junction": null, "u": 1105459749, "v": 7117973312, "key": 847, "length": 94.42904895536917, "road_segment_id": 828, "segment_id": 71}, "geometry": {"type": "LineString", "coordinates": [[42.5081572, 18.199918699999994], [42.5072836, 18.199745299999996]]}}, {"type": "Feature", "properties": {"osmid": 761832086, "name": null, "highway": "residential", "lanes": null, "maxspeed": null, "oneway": false, "junction": null, "u": 7117973312, "v": 7117973314, "key": 848, "length": 79.50892833200538, "road_segment_id": 829, "segment_id": 72}, "geometry": {"type": "LineString", "coordinates": [[42.5072836, 18.199745299999996], [42.5069456, 18.199673900000004], [42.5065555, 18.1995695]]}}, {"type": "Feature", "properties": {"osmid": 761832090, "name": null, "highway": "residential", "lanes": null, "maxspeed": null, "oneway": false, "junction": null, "u": 5345828708, "v": 7117973320, "key": 853, "length": 64.68916429632556, "road_segment_id": 834, "segment_id": 73}, "geometry": {"type": "LineString", "coordinates": [[42.5064429, 18.2006445], [42.506672, 18.2001029]]}}, {"type": "Feature", "properties": {"osmid": 761832091, "name": null, "highway": "residential", "lanes": null, "maxspeed": null, "oneway": false, "junction": null, "u": 7117973321, "v": 7117973323, "key": 854, "length": 68.2931263029759, "road_segment_id": 835, "segment_id": 74}, "geometry": {"type": "LineString", "coordinates": [[42.5048412, 18.200295800000003], [42.5050629, 18.2000357], [42.50514880000001, 18.199766699999998]]}}, {"type": "Feature", "properties": {"osmid": 761832095, "name": null, "highway": "residential", "lanes": null, "maxspeed": null, "oneway": false, "junction": null, "u": 3469927339, "v": 7117973331, "key": 858, "length": 71.6939683831418, "road_segment_id": 839, "segment_id": 75}, "geometry": {"type": "LineString", "coordinates": [[42.5068553, 18.197461400000005], [42.5071655, 18.197381299999996], [42.5074957, 18.197253899999996]]}}, {"type": "Feature", "properties": {"osmid": 761832096, "name": null, "highway": "residential", "lanes": null, "maxspeed": null, "oneway": false, "junction": null, "u": 7117973332, "v": 7117973333, "key": 859, "length": 35.68727659739455, "road_segment_id": 840, "segment_id": 76}, "geometry": {"type": "LineString", "coordinates": [[42.506821, 18.197547700000005], [42.5069992, 18.1978213]]}}, {"type": "Feature", "properties": {"osmid": 1072560221, "name": null, "highway": "residential", "lanes": null, "maxspeed": null, "oneway": false, "junction": null, "u": 9840653984, "v": 9840653983, "key": 884, "length": 36.088489175000895, "road_segment_id": 865, "segment_id": 77}, "geometry": {"type": "LineString", "coordinates": [[42.5068463, 18.1974149], [42.5065098, 18.197362199999997]]}}, {"type": "Feature", "properties": {"osmid": 1072560221, "name": null, "highway": "residential", "lanes": null, "maxspeed": null, "oneway": false, "junction": null, "u": 9840653983, "v": 9840653968, "key": 885, "length": 54.122577559433196, "road_segment_id": 866, "segment_id": 78}, "geometry": {"type": "LineString", "coordinates": [[42.5065098, 18.197362199999997], [42.5061704, 18.1969966]]}}, {"type": "Feature", "properties": {"osmid": 1072560221, "name": null, "highway": "residential", "lanes": null, "maxspeed": null, "oneway": false, "junction": null, "u": 9840653968, "v": 9840653982, "key": 886, "length": 21.341145114574587, "road_segment_id": 867, "segment_id": 79}, "geometry": {"type": "LineString", "coordinates": [[42.5061704, 18.1969966], [42.50603650000001, 18.196852500000002]]}}, {"type": "Feature", "properties": {"osmid": 1072560222, "name": null, "highway": "residential", "lanes": null, "maxspeed": null, "oneway": false, "junction": null, "u": 9840653968, "v": 3469927337, "key": 887, "length": 36.46545063972347, "road_segment_id": 868, "segment_id": 80}, "geometry": {"type": "LineString", "coordinates": [[42.5061704, 18.1969966], [42.5064082, 18.1967583]]}}, {"type": "Feature", "properties": {"osmid": 1072560223, "name": null, "highway": "residential", "lanes": null, "maxspeed": null, "oneway": false, "junction": null, "u": 9840653970, "v": 9840653969, "key": 888, "length": 35.922998020816394, "road_segment_id": 869, "segment_id": 81}, "geometry": {"type": "LineString", "coordinates": [[42.5060393, 18.1976803], [42.5060938, 18.1973601]]}}, {"type": "Feature", "properties": {"osmid": 1072560224, "name": null, "highway": "residential", "lanes": null, "maxspeed": null, "oneway": false, "junction": null, "u": 9840653982, "v": 9840653969, "key": 889, "length": 166.13059533984557, "road_segment_id": 870, "segment_id": 82}, "geometry": {"type": "LineString", "coordinates": [[42.50603650000001, 18.196852500000002], [42.5059567, 18.1967671], [42.5059117, 18.196746700000006], [42.5058816, 18.196753699999995], [42.5058226, 18.1968009], [42.5054169, 18.1971895], [42.5054182, 18.197203500000004], [42.50542690000001, 18.19722000000001], [42.5054698, 18.197237899999998], [42.5060938, 18.1973601]]}}, {"type": "Feature", "properties": {"osmid": 1072560224, "name": null, "highway": "residential", "lanes": null, "maxspeed": null, "oneway": false, "junction": null, "u": 9840653969, "v": 9840653983, "key": 890, "length": 55.14736148623834, "road_segment_id": 871, "segment_id": 83}, "geometry": {"type": "LineString", "coordinates": [[42.5060938, 18.1973601], [42.5064944, 18.1974385], [42.5065199, 18.197433399999998], [42.5065347, 18.1974181], [42.5065283, 18.197392000000004], [42.5065098, 18.197362199999997]]}}, {"type": "Feature", "properties": {"osmid": 1072560660, "name": null, "highway": "residential", "lanes": null, "maxspeed": null, "oneway": false, "junction": null, "u": 7117973312, "v": 1537166084, "key": 891, "length": 100.81037468057578, "road_segment_id": 872, "segment_id": 84}, "geometry": {"type": "LineString", "coordinates": [[42.5072836, 18.199745299999996], [42.5074694, 18.198852399999993]]}}, {"type": "Feature", "properties": {"osmid": 1078112145, "name": null, "highway": "service", "lanes": null, "maxspeed": null, "oneway": false, "junction": null, "u": 9884350515, "v": 9884350506, "key": 919, "length": 221.3705664255431, "road_segment_id": 900, "segment_id": 85}, "geometry": {"type": "LineString", "coordinates": [[42.5077698, 18.197299000000005], [42.5078431, 18.197617399999995], [42.5078805, 18.1977929], [42.5079414, 18.1979481], [42.5080149, 18.1980633], [42.5081377, 18.198184600000005], [42.5083233, 18.1983197], [42.5084628, 18.198417899999995], [42.5085379, 18.198459000000003], [42.5085738, 18.198502599999998], [42.5085993, 18.198706199999997], [42.5086832, 18.198849899999995], [42.5087731, 18.198945]]}}, {"type": "Feature", "properties": {"osmid": 1078112145, "name": null, "highway": "service", "lanes": null, "maxspeed": null, "oneway": false, "junction": null, "u": 9884350506, "v": 9884350503, "key": 920, "length": 66.10690158772711, "road_segment_id": 901, "segment_id": 86}, "geometry": {"type": "LineString", "coordinates": [[42.5087731, 18.198945], [42.5089882, 18.199022099999997], [42.5091156, 18.1990425], [42.5093794, 18.199012000000003]]}}, {"type": "Feature", "properties": {"osmid": 1078112146, "name": null, "highway": "service", "lanes": null, "maxspeed": null, "oneway": false, "junction": null, "u": 9884359617, "v": 9884350516, "key": 921, "length": 74.92898645721765, "road_segment_id": 902, "segment_id": 87}, "geometry": {"type": "LineString", "coordinates": [[42.5082371, 18.1994975], [42.508941300000004, 18.1995674]]}}, {"type": "Feature", "properties": {"osmid": 1185289915, "name": null, "highway": "service", "lanes": null, "maxspeed": null, "oneway": false, "junction": null, "u": 3469927345, "v": 11010323314, "key": 929, "length": 81.5036698039136, "road_segment_id": 910, "segment_id": 88}, "geometry": {"type": "LineString", "coordinates": [[42.5068831, 18.196413500000002], [42.5069649, 18.196352900000004], [42.507326, 18.196792599999995], [42.5072614, 18.196840499999993]]}}, {"type": "Feature", "properties": {"osmid": 1185291252, "name": null, "highway": "service", "lanes": null, "maxspeed": null, "oneway": false, "junction": null, "u": 11010315641, "v": 9884350506, "key": 930, "length": 22.417856016912733, "road_segment_id": 911, "segment_id": 89}, "geometry": {"type": "LineString", "coordinates": [[42.5087626, 18.199147199999988], [42.5087731, 18.198945]]}}, {"type": "Feature", "properties": {"osmid": 1484154848, "name": null, "highway": "residential", "lanes": null, "maxspeed": null, "oneway": true, "junction": null, "u": 13608403745, "v": 5345843127, "key": 932, "length": 44.6906432981566, "road_segment_id": 913, "segment_id": 90}, "geometry": {"type": "LineString", "coordinates": [[42.5080277, 18.2006011], [42.5080688, 18.2008603], [42.5081211, 18.2009926]]}}, {"type": "Feature", "properties": {"osmid": 1484154850, "name": null, "highway": "residential", "lanes": null, "maxspeed": null, "oneway": true, "junction": null, "u": 5345828708, "v": 13608403745, "key": 934, "length": 189.58187018177978, "road_segment_id": 915, "segment_id": 91}, "geometry": {"type": "LineString", "coordinates": [[42.5064429, 18.2006445], [42.5065949, 18.2006323], [42.5077595, 18.2008866], [42.5078926, 18.200867300000002], [42.5080277, 18.2006011]]}}, {"type": "Feature", "properties": {"osmid": 1484154852, "name": null, "highway": "unclassified", "lanes": null, "maxspeed": null, "oneway": false, "junction": null, "u": 13608403760, "v": 2919928651, "key": 938, "length": 44.92248551561342, "road_segment_id": 919, "segment_id": 92}, "geometry": {"type": "LineString", "coordinates": [[42.5075152, 18.201368000000002], [42.5074086, 18.2012697], [42.5071385, 18.2012139]]}}, {"type": "Feature", "properties": {"osmid": 1484154852, "name": null, "highway": "unclassified", "lanes": null, "maxspeed": null, "oneway": false, "junction": null, "u": 2919928651, "v": 13608403758, "key": 939, "length": 91.0580732626136, "road_segment_id": 920, "segment_id": 93}, "geometry": {"type": "LineString", "coordinates": [[42.5071385, 18.2012139], [42.5063948, 18.201037199999995], [42.5063039, 18.201060299999998]]}}]}