{
"type": "FeatureCollection",
"name": "s1b_king_abdulaziz",
"crs": { "type": "name", "properties": { "name": "urn:ogc:def:crs:OGC:1.3:CRS84" } },
"features": [
{ "type": "Feature", "properties": { "u": 688950923, "v": 2116561267, "key": 0, "osmid": "340235246", "name": "طريق الملك عبدالعزيز", "highway": "trunk", "lanes": null, "maxspeed": null, "oneway": true, "junction": null, "length": 176.62948348740372, "road_segment_id": 3, "scenario": "King Abdulaziz One-Way — SW", "scenario_id": "S1B", "is_study_corridor": true, "intervention": "King Abdulaziz one-way candidate", "road_open": false, "direction_modified": true, "lane_modified": false, "speed_modified": false, "signal_modified": false, "traffic_volume": null, "observed_speed": null, "capacity": null, "congestion_level": null, "travel_time": null, "vkt": null, "needs_lane_data": true, "needs_speed_data": true, "target_road": true, "target_direction": false, "segment_bearing": 80.970183377308899, "bearing_difference": 144.0298166226911 }, "geometry": { "type": "LineString", "coordinates": [ [ 42.4988664, 18.231947 ], [ 42.5005181, 18.2321963 ] ] } },
{ "type": "Feature", "properties": { "u": 1105400282, "v": 2116561241, "key": 0, "osmid": "290631446", "name": "طريق الملك عبدالعزيز", "highway": "trunk", "lanes": null, "maxspeed": null, "oneway": true, "junction": null, "length": 3.8595962201914316, "road_segment_id": 21, "scenario": "King Abdulaziz One-Way — SW", "scenario_id": "S1B", "is_study_corridor": true, "intervention": "King Abdulaziz one-way candidate", "road_open": true, "direction_modified": true, "lane_modified": false, "speed_modified": false, "signal_modified": false, "traffic_volume": null, "observed_speed": null, "capacity": null, "congestion_level": null, "travel_time": null, "vkt": null, "needs_lane_data": true, "needs_speed_data": true, "target_road": true, "target_direction": true, "segment_bearing": 261.04990830519722, "bearing_difference": 36.049908305197221 }, "geometry": { "type": "LineString", "coordinates": [ [ 42.5042143, 18.2329049 ], [ 42.5041782, 18.2328995 ] ] } },
{ "type": "Feature", "properties": { "u": 1105400597, "v": 2932562548, "key": 0, "osmid": "290631446", "name": "طريق الملك عبدالعزيز", "highway": "trunk", "lanes": null, "maxspeed": null, "oneway": true, "junction": null, "length": 169.63242678059157, "road_segment_id": 59, "scenario": "King Abdulaziz One-Way — SW", "scenario_id": "S1B", "is_study_corridor": true, "intervention": "King Abdulaziz one-way candidate", "road_open": true, "direction_modified": true, "lane_modified": false, "speed_modified": false, "signal_modified": false, "traffic_volume": null, "observed_speed": null, "capacity": null, "congestion_level": null, "travel_time": null, "vkt": null, "needs_lane_data": true, "needs_speed_data": true, "target_road": true, "target_direction": true, "segment_bearing": 260.66344078141918, "bearing_difference": 35.663440781419183 }, "geometry": { "type": "LineString", "coordinates": [ [ 42.5036129, 18.2328043 ], [ 42.502028, 18.2325568 ] ] } },
{ "type": "Feature", "properties": { "u": 1105401078, "v": 1105400282, "key": 0, "osmid": "290631446", "name": "طريق الملك عبدالعزيز", "highway": "trunk", "lanes": null, "maxspeed": null, "oneway": true, "junction": null, "length": 121.40260462698846, "road_segment_id": 88, "scenario": "King Abdulaziz One-Way — SW", "scenario_id": "S1B", "is_study_corridor": true, "intervention": "King Abdulaziz one-way candidate", "road_open": true, "direction_modified": true, "lane_modified": false, "speed_modified": false, "signal_modified": false, "traffic_volume": null, "observed_speed": null, "capacity": null, "congestion_level": null, "travel_time": null, "vkt": null, "needs_lane_data": true, "needs_speed_data": true, "target_road": true, "target_direction": true, "segment_bearing": 260.21798769606607, "bearing_difference": 35.217987696066075 }, "geometry": { "type": "LineString", "coordinates": [ [ 42.5053471, 18.2330904 ], [ 42.5042143, 18.2329049 ] ] } },
{ "type": "Feature", "properties": { "u": 1107416138, "v": 688950923, "key": 0, "osmid": "340235246", "name": "طريق الملك عبدالعزيز", "highway": "trunk", "lanes": null, "maxspeed": null, "oneway": true, "junction": null, "length": 522.45855043067263, "road_segment_id": 209, "scenario": "King Abdulaziz One-Way — SW", "scenario_id": "S1B", "is_study_corridor": true, "intervention": "King Abdulaziz one-way candidate", "road_open": false, "direction_modified": true, "lane_modified": false, "speed_modified": false, "signal_modified": false, "traffic_volume": null, "observed_speed": null, "capacity": null, "congestion_level": null, "travel_time": null, "vkt": null, "needs_lane_data": true, "needs_speed_data": true, "target_road": true, "target_direction": false, "segment_bearing": 80.655922921183958, "bearing_difference": 144.34407707881604 }, "geometry": { "type": "LineString", "coordinates": [ [ 42.4939852, 18.2311842 ], [ 42.4940656, 18.2311971 ], [ 42.4962855, 18.2315551 ], [ 42.4964368, 18.2315787 ], [ 42.4975877, 18.2317585 ], [ 42.4981649, 18.2318436 ], [ 42.4984956, 18.2318924 ], [ 42.4988664, 18.231947 ] ] } },
{ "type": "Feature", "properties": { "u": 1107416177, "v": 2920087206, "key": 0, "osmid": "290631447", "name": "طريق الملك عبدالعزيز", "highway": "trunk", "lanes": null, "maxspeed": null, "oneway": true, "junction": null, "length": 147.34808149298755, "road_segment_id": 210, "scenario": "King Abdulaziz One-Way — SW", "scenario_id": "S1B", "is_study_corridor": true, "intervention": "King Abdulaziz one-way candidate", "road_open": false, "direction_modified": true, "lane_modified": false, "speed_modified": false, "signal_modified": false, "traffic_volume": null, "observed_speed": null, "capacity": null, "congestion_level": null, "travel_time": null, "vkt": null, "needs_lane_data": true, "needs_speed_data": true, "target_road": true, "target_direction": false, "segment_bearing": 80.438831758483843, "bearing_difference": 144.56116824151616 }, "geometry": { "type": "LineString", "coordinates": [ [ 42.5044254, 18.2328052 ], [ 42.5058012, 18.2330253 ] ] } },
{ "type": "Feature", "properties": { "u": 1540085491, "v": 2920084120, "key": 0, "osmid": "340235246", "name": "طريق الملك عبدالعزيز", "highway": "trunk", "lanes": null, "maxspeed": null, "oneway": true, "junction": null, "length": 109.53556474673125, "road_segment_id": 1009, "scenario": "King Abdulaziz One-Way — SW", "scenario_id": "S1B", "is_study_corridor": true, "intervention": "King Abdulaziz one-way candidate", "road_open": false, "direction_modified": true, "lane_modified": false, "speed_modified": false, "signal_modified": false, "traffic_volume": null, "observed_speed": null, "capacity": null, "congestion_level": null, "travel_time": null, "vkt": null, "needs_lane_data": true, "needs_speed_data": true, "target_road": true, "target_direction": false, "segment_bearing": 80.905592110039493, "bearing_difference": 144.09440788996051 }, "geometry": { "type": "LineString", "coordinates": [ [ 42.4926033, 18.2309723 ], [ 42.4936274, 18.231128 ] ] } },
{ "type": "Feature", "properties": { "u": 1540085493, "v": 2919142285, "key": 0, "osmid": "95512377", "name": "طريق الملك عبدالعزيز", "highway": "trunk", "lanes": null, "maxspeed": null, "oneway": true, "junction": null, "length": 102.99481125741008, "road_segment_id": 1010, "scenario": "King Abdulaziz One-Way — SW", "scenario_id": "S1B", "is_study_corridor": true, "intervention": "King Abdulaziz one-way candidate", "road_open": true, "direction_modified": true, "lane_modified": false, "speed_modified": false, "signal_modified": false, "traffic_volume": null, "observed_speed": null, "capacity": null, "congestion_level": null, "travel_time": null, "vkt": null, "needs_lane_data": true, "needs_speed_data": true, "target_road": true, "target_direction": true, "segment_bearing": 260.00280053595998, "bearing_difference": 35.002800535959977 }, "geometry": { "type": "LineString", "coordinates": [ [ 42.494894, 18.2314379 ], [ 42.4939336, 18.2312771 ] ] } },
{ "type": "Feature", "properties": { "u": 1540085498, "v": 1540085493, "key": 0, "osmid": "95512377", "name": "طريق الملك عبدالعزيز", "highway": "trunk", "lanes": null, "maxspeed": null, "oneway": true, "junction": null, "length": 356.38326604679685, "road_segment_id": 1013, "scenario": "King Abdulaziz One-Way — SW", "scenario_id": "S1B", "is_study_corridor": true, "intervention": "King Abdulaziz one-way candidate", "road_open": true, "direction_modified": true, "lane_modified": false, "speed_modified": false, "signal_modified": false, "traffic_volume": null, "observed_speed": null, "capacity": null, "congestion_level": null, "travel_time": null, "vkt": null, "needs_lane_data": true, "needs_speed_data": true, "target_road": true, "target_direction": true, "segment_bearing": 260.35304376168779, "bearing_difference": 35.353043761687786 }, "geometry": { "type": "LineString", "coordinates": [ [ 42.4982206, 18.231975 ], [ 42.4962576, 18.2316707 ], [ 42.494894, 18.2314379 ] ] } },
{ "type": "Feature", "properties": { "u": 1618334776, "v": 3283857213, "key": 0, "osmid": "290631447", "name": "طريق الملك عبدالعزيز", "highway": "trunk", "lanes": null, "maxspeed": null, "oneway": true, "junction": null, "length": 36.891019148007665, "road_segment_id": 1141, "scenario": "King Abdulaziz One-Way — SW", "scenario_id": "S1B", "is_study_corridor": true, "intervention": "King Abdulaziz one-way candidate", "road_open": true, "direction_modified": true, "lane_modified": false, "speed_modified": false, "signal_modified": false, "traffic_volume": null, "observed_speed": null, "capacity": null, "congestion_level": null, "travel_time": null, "vkt": null, "needs_lane_data": true, "needs_speed_data": true, "target_road": true, "target_direction": true, "segment_bearing": 138.27115988337539, "bearing_difference": 86.72884011662461 }, "geometry": { "type": "LineString", "coordinates": [ [ 42.5134726, 18.2328906 ], [ 42.5137051, 18.232643 ] ] } },
{ "type": "Feature", "properties": { "u": 1618340816, "v": 1618334776, "key": 0, "osmid": "290631447", "name": "طريق الملك عبدالعزيز", "highway": "trunk", "lanes": null, "maxspeed": null, "oneway": true, "junction": null, "length": 347.87821964579132, "road_segment_id": 1198, "scenario": "King Abdulaziz One-Way — SW", "scenario_id": "S1B", "is_study_corridor": true, "intervention": "King Abdulaziz one-way candidate", "road_open": false, "direction_modified": true, "lane_modified": false, "speed_modified": false, "signal_modified": false, "traffic_volume": null, "observed_speed": null, "capacity": null, "congestion_level": null, "travel_time": null, "vkt": null, "needs_lane_data": true, "needs_speed_data": true, "target_road": true, "target_direction": false, "segment_bearing": 107.79532675445228, "bearing_difference": 117.20467324554772 }, "geometry": { "type": "LineString", "coordinates": [ [ 42.5105756, 18.2337738 ], [ 42.511331, 18.2339055 ], [ 42.5117101, 18.2339297 ], [ 42.5121237, 18.2338768 ], [ 42.5123841, 18.2337835 ], [ 42.5125759, 18.2336859 ], [ 42.5128295, 18.2335254 ], [ 42.5130327, 18.2333432 ], [ 42.5133323, 18.2330346 ], [ 42.5134726, 18.2328906 ] ] } },
{ "type": "Feature", "properties": { "u": 2116561241, "v": 1105400597, "key": 0, "osmid": "290631446", "name": "طريق الملك عبدالعزيز", "highway": "trunk", "lanes": null, "maxspeed": null, "oneway": true, "junction": null, "length": 60.633838553641922, "road_segment_id": 1429, "scenario": "King Abdulaziz One-Way — SW", "scenario_id": "S1B", "is_study_corridor": true, "intervention": "King Abdulaziz one-way candidate", "road_open": true, "direction_modified": true, "lane_modified": false, "speed_modified": false, "signal_modified": false, "traffic_volume": null, "observed_speed": null, "capacity": null, "congestion_level": null, "travel_time": null, "vkt": null, "needs_lane_data": true, "needs_speed_data": true, "target_road": true, "target_direction": true, "segment_bearing": 259.94556711982278, "bearing_difference": 34.945567119822783 }, "geometry": { "type": "LineString", "coordinates": [ [ 42.5041782, 18.2328995 ], [ 42.5036129, 18.2328043 ] ] } },
{ "type": "Feature", "properties": { "u": 2116561255, "v": 1540085498, "key": 0, "osmid": "95512377", "name": "طريق الملك عبدالعزيز", "highway": "trunk", "lanes": null, "maxspeed": null, "oneway": true, "junction": null, "length": 64.818573871008809, "road_segment_id": 1434, "scenario": "King Abdulaziz One-Way — SW", "scenario_id": "S1B", "is_study_corridor": true, "intervention": "King Abdulaziz one-way candidate", "road_open": true, "direction_modified": true, "lane_modified": false, "speed_modified": false, "signal_modified": false, "traffic_volume": null, "observed_speed": null, "capacity": null, "congestion_level": null, "travel_time": null, "vkt": null, "needs_lane_data": true, "needs_speed_data": true, "target_road": true, "target_direction": true, "segment_bearing": 259.94087687419972, "bearing_difference": 34.940876874199716 }, "geometry": { "type": "LineString", "coordinates": [ [ 42.4988248, 18.2320768 ], [ 42.4985853, 18.2320418 ], [ 42.4982206, 18.231975 ] ] } },
{ "type": "Feature", "properties": { "u": 2116561267, "v": 2932562549, "key": 0, "osmid": "95512376;340235246;290631447", "name": "طريق الملك عبدالعزيز", "highway": "trunk", "lanes": null, "maxspeed": null, "oneway": true, "junction": null, "length": 183.10981742332871, "road_segment_id": 1435, "scenario": "King Abdulaziz One-Way — SW", "scenario_id": "S1B", "is_study_corridor": true, "intervention": "King Abdulaziz one-way candidate", "road_open": false, "direction_modified": true, "lane_modified": false, "speed_modified": false, "signal_modified": false, "traffic_volume": null, "observed_speed": null, "capacity": null, "congestion_level": null, "travel_time": null, "vkt": null, "needs_lane_data": true, "needs_speed_data": true, "target_road": true, "target_direction": false, "segment_bearing": 80.293218111465251, "bearing_difference": 144.70678188853475 }, "geometry": { "type": "LineString", "coordinates": [ [ 42.5005181, 18.2321963 ], [ 42.5013591, 18.2323422 ], [ 42.5017865, 18.2323989 ], [ 42.5022268, 18.2324739 ] ] } },
{ "type": "Feature", "properties": { "u": 2918588432, "v": 9095952041, "key": 0, "osmid": "290631446", "name": "طريق الملك عبدالعزيز", "highway": "trunk", "lanes": null, "maxspeed": null, "oneway": true, "junction": null, "length": 231.9340883913676, "road_segment_id": 2409, "scenario": "King Abdulaziz One-Way — SW", "scenario_id": "S1B", "is_study_corridor": true, "intervention": "King Abdulaziz one-way candidate", "road_open": true, "direction_modified": true, "lane_modified": false, "speed_modified": false, "signal_modified": false, "traffic_volume": null, "observed_speed": null, "capacity": null, "congestion_level": null, "travel_time": null, "vkt": null, "needs_lane_data": true, "needs_speed_data": true, "target_road": true, "target_direction": true, "segment_bearing": 260.7690576593094, "bearing_difference": 35.769057659309397 }, "geometry": { "type": "LineString", "coordinates": [ [ 42.5105904, 18.2339174 ], [ 42.5097757, 18.2337844 ], [ 42.5096935, 18.2337713 ], [ 42.5084228, 18.2335828 ] ] } },
{ "type": "Feature", "properties": { "u": 2919142285, "v": 2918364137, "key": 0, "osmid": "95512377", "name": "طريق الملك عبدالعزيز", "highway": "trunk", "lanes": null, "maxspeed": null, "oneway": true, "junction": null, "length": 225.06559892636028, "road_segment_id": 2509, "scenario": "King Abdulaziz One-Way — SW", "scenario_id": "S1B", "is_study_corridor": true, "intervention": "King Abdulaziz one-way candidate", "road_open": true, "direction_modified": true, "lane_modified": false, "speed_modified": false, "signal_modified": false, "traffic_volume": null, "observed_speed": null, "capacity": null, "congestion_level": null, "travel_time": null, "vkt": null, "needs_lane_data": true, "needs_speed_data": true, "target_road": true, "target_direction": true, "segment_bearing": 260.9152801004218, "bearing_difference": 35.915280100421796 }, "geometry": { "type": "LineString", "coordinates": [ [ 42.4939336, 18.2312771 ], [ 42.4921324, 18.2310035 ], [ 42.4918293, 18.2309575 ] ] } },
{ "type": "Feature", "properties": { "u": 2920084120, "v": 1107416138, "key": 0, "osmid": "340235246", "name": "طريق الملك عبدالعزيز", "highway": "trunk", "lanes": null, "maxspeed": null, "oneway": true, "junction": null, "length": 38.301680264293054, "road_segment_id": 3629, "scenario": "King Abdulaziz One-Way — SW", "scenario_id": "S1B", "is_study_corridor": true, "intervention": "King Abdulaziz one-way candidate", "road_open": false, "direction_modified": true, "lane_modified": false, "speed_modified": false, "signal_modified": false, "traffic_volume": null, "observed_speed": null, "capacity": null, "congestion_level": null, "travel_time": null, "vkt": null, "needs_lane_data": true, "needs_speed_data": true, "target_road": true, "target_direction": false, "segment_bearing": 80.609792171131517, "bearing_difference": 144.39020782886848 }, "geometry": { "type": "LineString", "coordinates": [ [ 42.4936274, 18.231128 ], [ 42.4939852, 18.2311842 ] ] } },
{ "type": "Feature", "properties": { "u": 2920087206, "v": 9095952039, "key": 0, "osmid": "290631447", "name": "طريق الملك عبدالعزيز", "highway": "trunk", "lanes": null, "maxspeed": null, "oneway": true, "junction": null, "length": 100.06889334977342, "road_segment_id": 3682, "scenario": "King Abdulaziz One-Way — SW", "scenario_id": "S1B", "is_study_corridor": true, "intervention": "King Abdulaziz one-way candidate", "road_open": false, "direction_modified": true, "lane_modified": false, "speed_modified": false, "signal_modified": false, "traffic_volume": null, "observed_speed": null, "capacity": null, "congestion_level": null, "travel_time": null, "vkt": null, "needs_lane_data": true, "needs_speed_data": true, "target_road": true, "target_direction": false, "segment_bearing": 80.261375757301494, "bearing_difference": 144.73862424269851 }, "geometry": { "type": "LineString", "coordinates": [ [ 42.5058012, 18.2330253 ], [ 42.5064967, 18.2331313 ], [ 42.5067349, 18.2331775 ] ] } },
{ "type": "Feature", "properties": { "u": 2930606746, "v": 3283857210, "key": 0, "osmid": "321635970;1321645843;290631446", "name": "طريق الملك عبدالعزيز", "highway": "trunk;motorway", "lanes": null, "maxspeed": null, "oneway": true, "junction": null, "length": 748.80611340586961, "road_segment_id": 3895, "scenario": "King Abdulaziz One-Way — SW", "scenario_id": "S1B", "is_study_corridor": false, "intervention": "King Abdulaziz one-way candidate", "road_open": false, "direction_modified": true, "lane_modified": false, "speed_modified": false, "signal_modified": false, "traffic_volume": null, "observed_speed": null, "capacity": null, "congestion_level": null, "travel_time": null, "vkt": null, "needs_lane_data": true, "needs_speed_data": true, "target_road": true, "target_direction": false, "segment_bearing": 318.81466913133613, "bearing_difference": 93.814669131336132 }, "geometry": { "type": "LineString", "coordinates": [ [ 42.5184795, 18.2276536 ], [ 42.5178881, 18.2282206 ], [ 42.5175627, 18.2286395 ], [ 42.5160593, 18.2303246 ], [ 42.5150528, 18.2313704 ], [ 42.5138134, 18.2327186 ] ] } },
{ "type": "Feature", "properties": { "u": 2932562524, "v": 2116561255, "key": 0, "osmid": "95512377", "name": "طريق الملك عبدالعزيز", "highway": "trunk", "lanes": null, "maxspeed": null, "oneway": true, "junction": null, "length": 213.73156536858662, "road_segment_id": 3896, "scenario": "King Abdulaziz One-Way — SW", "scenario_id": "S1B", "is_study_corridor": true, "intervention": "King Abdulaziz one-way candidate", "road_open": true, "direction_modified": true, "lane_modified": false, "speed_modified": false, "signal_modified": false, "traffic_volume": null, "observed_speed": null, "capacity": null, "congestion_level": null, "travel_time": null, "vkt": null, "needs_lane_data": true, "needs_speed_data": true, "target_road": true, "target_direction": true, "segment_bearing": 261.0723135101357, "bearing_difference": 36.0723135101357 }, "geometry": { "type": "LineString", "coordinates": [ [ 42.500824, 18.2323751 ], [ 42.4999555, 18.2322423 ], [ 42.4988248, 18.2320768 ] ] } },
{ "type": "Feature", "properties": { "u": 2932562548, "v": 2932562524, "key": 0, "osmid": "95512377;290631446;95512375", "name": "طريق الملك عبدالعزيز", "highway": "trunk", "lanes": null, "maxspeed": null, "oneway": true, "junction": null, "length": 128.75708703488135, "road_segment_id": 3899, "scenario": "King Abdulaziz One-Way — SW", "scenario_id": "S1B", "is_study_corridor": true, "intervention": "King Abdulaziz one-way candidate", "road_open": true, "direction_modified": true, "lane_modified": false, "speed_modified": false, "signal_modified": false, "traffic_volume": null, "observed_speed": null, "capacity": null, "congestion_level": null, "travel_time": null, "vkt": null, "needs_lane_data": true, "needs_speed_data": true, "target_road": true, "target_direction": true, "segment_bearing": 260.97189140151289, "bearing_difference": 35.971891401512892 }, "geometry": { "type": "LineString", "coordinates": [ [ 42.502028, 18.2325568 ], [ 42.5017749, 18.2325165 ], [ 42.5013343, 18.2324473 ], [ 42.500824, 18.2323751 ] ] } },
{ "type": "Feature", "properties": { "u": 2932562549, "v": 9095952051, "key": 0, "osmid": "290631447", "name": "طريق الملك عبدالعزيز", "highway": "trunk", "lanes": null, "maxspeed": null, "oneway": true, "junction": null, "length": 170.42735169081772, "road_segment_id": 3901, "scenario": "King Abdulaziz One-Way — SW", "scenario_id": "S1B", "is_study_corridor": true, "intervention": "King Abdulaziz one-way candidate", "road_open": false, "direction_modified": true, "lane_modified": false, "speed_modified": false, "signal_modified": false, "traffic_volume": null, "observed_speed": null, "capacity": null, "congestion_level": null, "travel_time": null, "vkt": null, "needs_lane_data": true, "needs_speed_data": true, "target_road": true, "target_direction": false, "segment_bearing": 81.175146106116017, "bearing_difference": 143.82485389388398 }, "geometry": { "type": "LineString", "coordinates": [ [ 42.5022268, 18.2324739 ], [ 42.5025618, 18.2325334 ], [ 42.5038212, 18.232709 ] ] } },
{ "type": "Feature", "properties": { "u": 3283857210, "v": 2918588432, "key": 0, "osmid": "290631446", "name": "طريق الملك عبدالعزيز", "highway": "trunk", "lanes": null, "maxspeed": null, "oneway": true, "junction": null, "length": 396.18938597821659, "road_segment_id": 3903, "scenario": "King Abdulaziz One-Way — SW", "scenario_id": "S1B", "is_study_corridor": true, "intervention": "King Abdulaziz one-way candidate", "road_open": true, "direction_modified": true, "lane_modified": false, "speed_modified": false, "signal_modified": false, "traffic_volume": null, "observed_speed": null, "capacity": null, "congestion_level": null, "travel_time": null, "vkt": null, "needs_lane_data": true, "needs_speed_data": true, "target_road": true, "target_direction": true, "segment_bearing": 291.38653339572392, "bearing_difference": 66.386533395723916 }, "geometry": { "type": "LineString", "coordinates": [ [ 42.5138134, 18.2327186 ], [ 42.5135099, 18.2330471 ], [ 42.513154, 18.233417 ], [ 42.512927, 18.2336295 ], [ 42.5126546, 18.2338052 ], [ 42.5124336, 18.2339017 ], [ 42.5121325, 18.2339932 ], [ 42.5118005, 18.2340484 ], [ 42.5114751, 18.2340369 ], [ 42.5105904, 18.2339174 ] ] } },
{ "type": "Feature", "properties": { "u": 3283857213, "v": 2930606747, "key": 0, "osmid": "321635968;290631450;290631447", "name": "طريق الملك عبدالعزيز", "highway": "trunk;motorway", "lanes": null, "maxspeed": null, "oneway": true, "junction": null, "length": 728.93310872084089, "road_segment_id": 3905, "scenario": "King Abdulaziz One-Way — SW", "scenario_id": "S1B", "is_study_corridor": false, "intervention": "King Abdulaziz one-way candidate", "road_open": true, "direction_modified": true, "lane_modified": false, "speed_modified": false, "signal_modified": false, "traffic_volume": null, "observed_speed": null, "capacity": null, "congestion_level": null, "travel_time": null, "vkt": null, "needs_lane_data": true, "needs_speed_data": true, "target_road": true, "target_direction": true, "segment_bearing": 138.89039391248059, "bearing_difference": 86.10960608751941 }, "geometry": { "type": "LineString", "coordinates": [ [ 42.5137051, 18.232643 ], [ 42.514975, 18.2313116 ], [ 42.5160094, 18.230232 ], [ 42.5174917, 18.2285718 ], [ 42.5178118, 18.2281402 ], [ 42.5182402, 18.2277068 ] ] } },
{ "type": "Feature", "properties": { "u": 7359264718, "v": 1618340816, "key": 0, "osmid": "290631447", "name": "طريق الملك عبدالعزيز", "highway": "trunk", "lanes": null, "maxspeed": null, "oneway": true, "junction": null, "length": 318.66165697409974, "road_segment_id": 4044, "scenario": "King Abdulaziz One-Way — SW", "scenario_id": "S1B", "is_study_corridor": true, "intervention": "King Abdulaziz one-way candidate", "road_open": false, "direction_modified": true, "lane_modified": false, "speed_modified": false, "signal_modified": false, "traffic_volume": null, "observed_speed": null, "capacity": null, "congestion_level": null, "travel_time": null, "vkt": null, "needs_lane_data": true, "needs_speed_data": true, "target_road": true, "target_direction": false, "segment_bearing": 80.843654512696389, "bearing_difference": 144.15634548730361 }, "geometry": { "type": "LineString", "coordinates": [ [ 42.5075968, 18.2333178 ], [ 42.5100112, 18.2336938 ], [ 42.5105756, 18.2337738 ] ] } },
{ "type": "Feature", "properties": { "u": 9095952039, "v": 7359264718, "key": 0, "osmid": "290631447", "name": "طريق الملك عبدالعزيز", "highway": "trunk", "lanes": null, "maxspeed": null, "oneway": true, "junction": null, "length": 92.354212038082508, "road_segment_id": 4242, "scenario": "King Abdulaziz One-Way — SW", "scenario_id": "S1B", "is_study_corridor": true, "intervention": "King Abdulaziz one-way candidate", "road_open": false, "direction_modified": true, "lane_modified": false, "speed_modified": false, "signal_modified": false, "traffic_volume": null, "observed_speed": null, "capacity": null, "congestion_level": null, "travel_time": null, "vkt": null, "needs_lane_data": true, "needs_speed_data": true, "target_road": true, "target_direction": false, "segment_bearing": 80.274709801436586, "bearing_difference": 144.72529019856341 }, "geometry": { "type": "LineString", "coordinates": [ [ 42.5067349, 18.2331775 ], [ 42.5075968, 18.2333178 ] ] } },
{ "type": "Feature", "properties": { "u": 9095952041, "v": 10128898469, "key": 0, "osmid": "290631446", "name": "طريق الملك عبدالعزيز", "highway": "trunk", "lanes": null, "maxspeed": null, "oneway": true, "junction": null, "length": 167.53606399798744, "road_segment_id": 4244, "scenario": "King Abdulaziz One-Way — SW", "scenario_id": "S1B", "is_study_corridor": true, "intervention": "King Abdulaziz one-way candidate", "road_open": true, "direction_modified": true, "lane_modified": false, "speed_modified": false, "signal_modified": false, "traffic_volume": null, "observed_speed": null, "capacity": null, "congestion_level": null, "travel_time": null, "vkt": null, "needs_lane_data": true, "needs_speed_data": true, "target_road": true, "target_direction": true, "segment_bearing": 260.4607182017636, "bearing_difference": 35.460718201763598 }, "geometry": { "type": "LineString", "coordinates": [ [ 42.5084228, 18.2335828 ], [ 42.5068584, 18.2333331 ] ] } },
{ "type": "Feature", "properties": { "u": 9095952051, "v": 1107416177, "key": 0, "osmid": "290631447", "name": "طريق الملك عبدالعزيز", "highway": "trunk", "lanes": null, "maxspeed": null, "oneway": true, "junction": null, "length": 64.701363269968795, "road_segment_id": 4246, "scenario": "King Abdulaziz One-Way — SW", "scenario_id": "S1B", "is_study_corridor": true, "intervention": "King Abdulaziz one-way candidate", "road_open": false, "direction_modified": true, "lane_modified": false, "speed_modified": false, "signal_modified": false, "traffic_volume": null, "observed_speed": null, "capacity": null, "congestion_level": null, "travel_time": null, "vkt": null, "needs_lane_data": true, "needs_speed_data": true, "target_road": true, "target_direction": false, "segment_bearing": 80.483598281556965, "bearing_difference": 144.51640171844303 }, "geometry": { "type": "LineString", "coordinates": [ [ 42.5038212, 18.232709 ], [ 42.5044254, 18.2328052 ] ] } },
{ "type": "Feature", "properties": { "u": 10128898469, "v": 1105401078, "key": 0, "osmid": "290631446", "name": "طريق الملك عبدالعزيز", "highway": "trunk", "lanes": null, "maxspeed": null, "oneway": true, "junction": null, "length": 161.87706324940359, "road_segment_id": 4478, "scenario": "King Abdulaziz One-Way — SW", "scenario_id": "S1B", "is_study_corridor": true, "intervention": "King Abdulaziz one-way candidate", "road_open": true, "direction_modified": true, "lane_modified": false, "speed_modified": false, "signal_modified": false, "traffic_volume": null, "observed_speed": null, "capacity": null, "congestion_level": null, "travel_time": null, "vkt": null, "needs_lane_data": true, "needs_speed_data": true, "target_road": true, "target_direction": true, "segment_bearing": 260.40345480553447, "bearing_difference": 35.403454805534466 }, "geometry": { "type": "LineString", "coordinates": [ [ 42.5068584, 18.2333331 ], [ 42.5060816, 18.2332074 ], [ 42.5053471, 18.2330904 ] ] } }
]
}
