{
  "type": "FeatureCollection",
  "features": [
    {
      "type": "Feature",
      "geometry": {
        "type": "Point",
        "coordinates": [
          35.222209,
          28.008358
        ]
      },
      "properties": {
        "destination_id": "camp26_activity_hub",
        "destination_weight": 1.0,
        "osm_id": 849103999,
        "name": "Sharma/Camp26 activity-area hub (way 849103999, network-validated)",
        "reachable_origins": 19,
        "reachable_pct": 90.5,
        "mean_network_dist_m": 3130,
        "max_network_dist_m": 3456
      }
    }
  ]
}