{"bbox": [42.4915762, 18.2134206, 42.5184795, 18.239244], "features": [{"bbox": [42.4988664, 18.231947, 42.5005181, 18.2321963], "geometry": {"coordinates": [[42.4988664, 18.231947], [42.5005181, 18.2321963]], "type": "LineString"}, "id": "3", "properties": {"display_name": "King Abdulaziz Road", "highway": "trunk", "junction": null, "key": 0, "lanes": null, "length": 176.62948348740372, "maxspeed": null, "name": "\u0637\u0631\u064a\u0642 \u0627\u0644\u0645\u0644\u0643 \u0639\u0628\u062f\u0627\u0644\u0639\u0632\u064a\u0632", "oneway": true, "osmid": 340235246, "road_segment_id": 3, "u": 688950923, "v": 2116561267}, "type": "Feature"}, {"bbox": [42.5008321, 18.2338225, 42.5010575, 18.234298], "geometry": {"coordinates": [[42.5010575, 18.2338225], [42.5008321, 18.234298]], "type": "LineString"}, "id": "10", "properties": {"display_name": "King Faisal Road", "highway": "trunk", "junction": null, "key": 0, "lanes": null, "length": 57.984933511172166, "maxspeed": null, "name": "\u0637\u0631\u064a\u0642 \u0627\u0644\u0645\u0644\u0643 \u0641\u064a\u0635\u0644", "oneway": true, "osmid": 54934546, "road_segment_id": 10, "u": 691230377, "v": 691230380}, "type": "Feature"}, {"bbox": [42.5010575, 18.2326439, 42.5016086, 18.2338225], "geometry": {"coordinates": [[42.5016086, 18.2326439], [42.5014053, 18.2332011], [42.5012227, 18.2335472], [42.5010575, 18.2338225]], "type": "LineString"}, "id": "11", "properties": {"display_name": "King Faisal Road", "highway": "trunk", "junction": null, "key": 0, "lanes": null, "length": 143.85370121173534, "maxspeed": null, "name": "\u0637\u0631\u064a\u0642 \u0627\u0644\u0645\u0644\u0643 \u0641\u064a\u0635\u0644", "oneway": true, "osmid": 54934546, "road_segment_id": 11, "u": 691230379, "v": 691230377}, "type": "Feature"}, {"bbox": [42.5007677, 18.234298, 42.5008321, 18.2344336], "geometry": {"coordinates": [[42.5008321, 18.234298], [42.5007677, 18.2344336]], "type": "LineString"}, "id": "13", "properties": {"display_name": "King Faisal Road", "highway": "trunk", "junction": null, "key": 0, "lanes": null, "length": 16.541050712713403, "maxspeed": null, "name": "\u0637\u0631\u064a\u0642 \u0627\u0644\u0645\u0644\u0643 \u0641\u064a\u0635\u0644", "oneway": true, "osmid": 54934546, "road_segment_id": 13, "u": 691230380, "v": 9102539549}, "type": "Feature"}, {"bbox": [42.5041782, 18.2328995, 42.5042143, 18.2329049], "geometry": {"coordinates": [[42.5042143, 18.2329049], [42.5041782, 18.2328995]], "type": "LineString"}, "id": "21", "properties": {"display_name": "King Abdulaziz Road", "highway": "trunk", "junction": null, "key": 0, "lanes": null, "length": 3.8595962201914316, "maxspeed": null, "name": "\u0637\u0631\u064a\u0642 \u0627\u0644\u0645\u0644\u0643 \u0639\u0628\u062f\u0627\u0644\u0639\u0632\u064a\u0632", "oneway": true, "osmid": 290631446, "road_segment_id": 21, "u": 1105400282, "v": 2116561241}, "type": "Feature"}, {"bbox": [42.4926001, 18.2140756, 42.494351, 18.2149822], "geometry": {"coordinates": [[42.4926001, 18.2140756], [42.4929512, 18.2142949], [42.4933037, 18.2144973], [42.4937684, 18.2147076], [42.494351, 18.2149822]], "type": "LineString"}, "id": "28", "properties": {"display_name": "King Khalid Road", "highway": "tertiary", "junction": null, "key": 0, "lanes": null, "length": 210.95340121859425, "maxspeed": null, "name": "\u0637\u0631\u064a\u0642 \u0627\u0644\u0645\u0644\u0643 \u062e\u0627\u0644\u062f", "oneway": true, "osmid": 340239607, "road_segment_id": 28, "u": 1105400427, "v": 2919142278}, "type": "Feature"}, {"bbox": [42.502028, 18.2325568, 42.5036129, 18.2328043], "geometry": {"coordinates": [[42.5036129, 18.2328043], [42.502028, 18.2325568]], "type": "LineString"}, "id": "59", "properties": {"display_name": "King Abdulaziz Road", "highway": "trunk", "junction": null, "key": 0, "lanes": null, "length": 169.63242678059157, "maxspeed": null, "name": "\u0637\u0631\u064a\u0642 \u0627\u0644\u0645\u0644\u0643 \u0639\u0628\u062f\u0627\u0644\u0639\u0632\u064a\u0632", "oneway": true, "osmid": 290631446, "road_segment_id": 59, "u": 1105400597, "v": 2932562548}, "type": "Feature"}, {"bbox": [42.5042143, 18.2329049, 42.5053471, 18.2330904], "geometry": {"coordinates": [[42.5053471, 18.2330904], [42.5042143, 18.2329049]], "type": "LineString"}, "id": "88", "properties": {"display_name": "King Abdulaziz Road", "highway": "trunk", "junction": null, "key": 0, "lanes": null, "length": 121.40260462698846, "maxspeed": null, "name": "\u0637\u0631\u064a\u0642 \u0627\u0644\u0645\u0644\u0643 \u0639\u0628\u062f\u0627\u0644\u0639\u0632\u064a\u0632", "oneway": true, "osmid": 290631446, "road_segment_id": 88, "u": 1105401078, "v": 1105400282}, "type": "Feature"}, {"bbox": [42.5074834, 18.2147515, 42.5082227, 18.215217], "geometry": {"coordinates": [[42.5074834, 18.2147515], [42.5076691, 18.2148891], [42.5080023, 18.2151071], [42.5082227, 18.215217]], "type": "LineString"}, "id": "142", "properties": {"display_name": "King Faisal Road", "highway": "primary", "junction": null, "key": 0, "lanes": "3", "length": 93.90201091071582, "maxspeed": null, "name": "\u0637\u0631\u064a\u0642 \u0627\u0644\u0645\u0644\u0643 \u0641\u064a\u0635\u0644", "oneway": true, "osmid": 787179214, "road_segment_id": 142, "u": 1105459728, "v": 1706503297}, "type": "Feature"}, {"bbox": [42.4939852, 18.2311842, 42.4988664, 18.231947], "geometry": {"coordinates": [[42.4939852, 18.2311842], [42.4940656, 18.2311971], [42.4962855, 18.2315551], [42.4964368, 18.2315787], [42.4975877, 18.2317585], [42.4981649, 18.2318436], [42.4984956, 18.2318924], [42.4988664, 18.231947]], "type": "LineString"}, "id": "209", "properties": {"display_name": "King Abdulaziz Road", "highway": "trunk", "junction": null, "key": 0, "lanes": null, "length": 522.4585504306726, "maxspeed": null, "name": "\u0637\u0631\u064a\u0642 \u0627\u0644\u0645\u0644\u0643 \u0639\u0628\u062f\u0627\u0644\u0639\u0632\u064a\u0632", "oneway": true, "osmid": 340235246, "road_segment_id": 209, "u": 1107416138, "v": 688950923}, "type": "Feature"}, {"bbox": [42.5044254, 18.2328052, 42.5058012, 18.2330253], "geometry": {"coordinates": [[42.5044254, 18.2328052], [42.5058012, 18.2330253]], "type": "LineString"}, "id": "210", "properties": {"display_name": "King Abdulaziz Road", "highway": "trunk", "junction": null, "key": 0, "lanes": null, "length": 147.34808149298755, "maxspeed": null, "name": "\u0637\u0631\u064a\u0642 \u0627\u0644\u0645\u0644\u0643 \u0639\u0628\u062f\u0627\u0644\u0639\u0632\u064a\u0632", "oneway": true, "osmid": 290631447, "road_segment_id": 210, "u": 1107416177, "v": 2920087206}, "type": "Feature"}, {"bbox": [42.5106149, 18.216018, 42.5130485, 18.2174869], "geometry": {"coordinates": [[42.5106149, 18.216018], [42.5119199, 18.2167723], [42.5124895, 18.2171245], [42.5130485, 18.2174869]], "type": "LineString"}, "id": "220", "properties": {"display_name": "King Faisal Road", "highway": "primary", "junction": null, "key": 0, "lanes": "3", "length": 304.61991679617427, "maxspeed": null, "name": "\u0637\u0631\u064a\u0642 \u0627\u0644\u0645\u0644\u0643 \u0641\u064a\u0635\u0644", "oneway": true, "osmid": 787179214, "road_segment_id": 220, "u": 1107465647, "v": 2919870100}, "type": "Feature"}, {"bbox": [42.5001619, 18.2252564, 42.5001644, 18.2254393], "geometry": {"coordinates": [[42.5001644, 18.2252564], [42.5001619, 18.2254393]], "type": "LineString"}, "id": "301", "properties": {"display_name": "King Faisal Road", "highway": "tertiary", "junction": null, "key": 0, "lanes": null, "length": 20.339294765891715, "maxspeed": null, "name": "\u0637\u0631\u064a\u0642 \u0627\u0644\u0645\u0644\u0643 \u0641\u064a\u0635\u0644", "oneway": true, "osmid": 95507291, "road_segment_id": 301, "u": 1107476590, "v": 2919142255}, "type": "Feature"}, {"bbox": [42.5007529, 18.2296619, 42.5011478, 18.2304952], "geometry": {"coordinates": [[42.5007529, 18.2296619], [42.5008385, 18.229842], [42.5009549, 18.2300632], [42.5011478, 18.2304952]], "type": "LineString"}, "id": "311", "properties": {"display_name": "King Faisal Road", "highway": "tertiary", "junction": null, "key": 0, "lanes": null, "length": 101.64771657646878, "maxspeed": null, "name": "\u0637\u0631\u064a\u0642 \u0627\u0644\u0645\u0644\u0643 \u0641\u064a\u0635\u0644", "oneway": true, "osmid": 95507291, "road_segment_id": 311, "u": 1107476614, "v": 1107476624}, "type": "Feature"}, {"bbox": [42.5011478, 18.2304952, 42.5014953, 18.2311945], "geometry": {"coordinates": [[42.5011478, 18.2304952], [42.5012897, 18.2308062], [42.5014953, 18.2311945]], "type": "LineString"}, "id": "314", "properties": {"display_name": "King Faisal Road", "highway": "tertiary", "junction": null, "key": 0, "lanes": null, "length": 86.01908787149858, "maxspeed": null, "name": "\u0637\u0631\u064a\u0642 \u0627\u0644\u0645\u0644\u0643 \u0641\u064a\u0635\u0644", "oneway": true, "osmid": 95507291, "road_segment_id": 314, "u": 1107476624, "v": 2116561230}, "type": "Feature"}, {"bbox": [42.5001929, 18.2276586, 42.5002057, 18.2278846], "geometry": {"coordinates": [[42.5001929, 18.2276586], [42.5002057, 18.2278846]], "type": "LineString"}, "id": "592", "properties": {"display_name": "King Faisal Road", "highway": "tertiary", "junction": null, "key": 0, "lanes": null, "length": 25.166424857178143, "maxspeed": null, "name": "\u0637\u0631\u064a\u0642 \u0627\u0644\u0645\u0644\u0643 \u0641\u064a\u0635\u0644", "oneway": true, "osmid": 95507291, "road_segment_id": 592, "u": 1144553648, "v": 2919767325}, "type": "Feature"}, {"bbox": [42.5004551, 18.2391151, 42.5004558, 18.239244], "geometry": {"coordinates": [[42.5004558, 18.2391151], [42.5004551, 18.239244]], "type": "LineString"}, "id": "720", "properties": {"display_name": "King Faisal Road", "highway": "trunk", "junction": null, "key": 0, "lanes": null, "length": 14.333236935211723, "maxspeed": null, "name": "\u0637\u0631\u064a\u0642 \u0627\u0644\u0645\u0644\u0643 \u0641\u064a\u0635\u0644", "oneway": true, "osmid": 54934546, "road_segment_id": 720, "u": 1457222211, "v": 9096816272}, "type": "Feature"}, {"bbox": [42.5074005, 18.2232295, 42.5075959, 18.2232807], "geometry": {"coordinates": [[42.5075959, 18.2232295], [42.5074005, 18.2232807]], "type": "LineString"}, "id": "722", "properties": {"display_name": "King Khalid Road", "highway": "tertiary", "junction": null, "key": 0, "lanes": null, "length": 21.408651477104804, "maxspeed": null, "name": "\u0637\u0631\u064a\u0642 \u0627\u0644\u0645\u0644\u0643 \u062e\u0627\u0644\u062f", "oneway": true, "osmid": 787792740, "road_segment_id": 722, "u": 1483585554, "v": 1483585558}, "type": "Feature"}, {"bbox": [42.5070818, 18.2232807, 42.5074005, 18.2233316], "geometry": {"coordinates": [[42.5074005, 18.2232807], [42.5070818, 18.2233316]], "type": "LineString"}, "id": "724", "properties": {"display_name": "King Khalid Road", "highway": "tertiary", "junction": null, "key": 0, "lanes": null, "length": 34.13300243430777, "maxspeed": null, "name": "\u0637\u0631\u064a\u0642 \u0627\u0644\u0645\u0644\u0643 \u062e\u0627\u0644\u062f", "oneway": true, "osmid": 787792740, "road_segment_id": 724, "u": 1483585558, "v": 2918393074}, "type": "Feature"}, {"bbox": [42.5035969, 18.2165671, 42.5039023, 18.2168701], "geometry": {"coordinates": [[42.5039023, 18.2165671], [42.5037956, 18.2166387], [42.5037006, 18.2167257], [42.5036566, 18.2167749], [42.5035969, 18.2168701]], "type": "LineString"}, "id": "757", "properties": {"display_name": "King Faisal Road", "highway": "primary", "junction": null, "key": 0, "lanes": "3", "length": 47.236262667997416, "maxspeed": null, "name": "\u0637\u0631\u064a\u0642 \u0627\u0644\u0645\u0644\u0643 \u0641\u064a\u0635\u0644", "oneway": true, "osmid": 158458200, "road_segment_id": 757, "u": 1485260721, "v": 7365223406}, "type": "Feature"}, {"bbox": [42.5041863, 18.2157943, 42.505152, 18.2163643], "geometry": {"coordinates": [[42.505152, 18.2157943], [42.5046576, 18.2160692], [42.5041863, 18.2163643]], "type": "LineString"}, "id": "760", "properties": {"display_name": "King Faisal Road", "highway": "primary", "junction": null, "key": 0, "lanes": "3", "length": 120.1303967542188, "maxspeed": null, "name": "\u0637\u0631\u064a\u0642 \u0627\u0644\u0645\u0644\u0643 \u0641\u064a\u0635\u0644", "oneway": true, "osmid": 158458200, "road_segment_id": 760, "u": 1485260723, "v": 2918393052}, "type": "Feature"}, {"bbox": [42.505152, 18.2151054, 42.5065403, 18.2157943], "geometry": {"coordinates": [[42.5065403, 18.2151054], [42.5062603, 18.215211], [42.505152, 18.2157943]], "type": "LineString"}, "id": "762", "properties": {"display_name": "King Faisal Road", "highway": "primary", "junction": null, "key": 0, "lanes": "3", "length": 165.6495659201996, "maxspeed": null, "name": "\u0637\u0631\u064a\u0642 \u0627\u0644\u0645\u0644\u0643 \u0641\u064a\u0635\u0644", "oneway": true, "osmid": 158458200, "road_segment_id": 762, "u": 1485260725, "v": 1485260723}, "type": "Feature"}, {"bbox": [42.5065403, 18.2150273, 42.5068561, 18.2151054], "geometry": {"coordinates": [[42.5068561, 18.2150273], [42.5065403, 18.2151054]], "type": "LineString"}, "id": "763", "properties": {"display_name": "King Faisal Road", "highway": "primary", "junction": null, "key": 0, "lanes": "3", "length": 34.467740190929156, "maxspeed": null, "name": "\u0637\u0631\u064a\u0642 \u0627\u0644\u0645\u0644\u0643 \u0641\u064a\u0635\u0644", "oneway": true, "osmid": 158458200, "road_segment_id": 763, "u": 1485260726, "v": 1485260725}, "type": "Feature"}, {"bbox": [42.5068561, 18.2150273, 42.5071798, 18.2150396], "geometry": {"coordinates": [[42.5071798, 18.2150396], [42.5068561, 18.2150273]], "type": "LineString"}, "id": "764", "properties": {"display_name": "King Faisal Road", "highway": "primary", "junction": null, "key": 0, "lanes": "3", "length": 34.217544160830286, "maxspeed": null, "name": "\u0637\u0631\u064a\u0642 \u0627\u0644\u0645\u0644\u0643 \u0641\u064a\u0635\u0644", "oneway": true, "osmid": 158458200, "road_segment_id": 764, "u": 1485260727, "v": 1485260726}, "type": "Feature"}, {"bbox": [42.5071798, 18.2150396, 42.5075259, 18.2151082], "geometry": {"coordinates": [[42.5075259, 18.2151082], [42.5071798, 18.2150396]], "type": "LineString"}, "id": "766", "properties": {"display_name": "King Faisal Road", "highway": "primary", "junction": null, "key": 0, "lanes": "3", "length": 37.343514866624076, "maxspeed": null, "name": "\u0637\u0631\u064a\u0642 \u0627\u0644\u0645\u0644\u0643 \u0641\u064a\u0635\u0644", "oneway": true, "osmid": 158458200, "road_segment_id": 766, "u": 1485260728, "v": 1485260727}, "type": "Feature"}, {"bbox": [42.4926033, 18.2309723, 42.4936274, 18.231128], "geometry": {"coordinates": [[42.4926033, 18.2309723], [42.4936274, 18.231128]], "type": "LineString"}, "id": "1009", "properties": {"display_name": "King Abdulaziz Road", "highway": "trunk", "junction": null, "key": 0, "lanes": null, "length": 109.53556474673125, "maxspeed": null, "name": "\u0637\u0631\u064a\u0642 \u0627\u0644\u0645\u0644\u0643 \u0639\u0628\u062f\u0627\u0644\u0639\u0632\u064a\u0632", "oneway": true, "osmid": 340235246, "road_segment_id": 1009, "u": 1540085491, "v": 2920084120}, "type": "Feature"}, {"bbox": [42.4939336, 18.2312771, 42.494894, 18.2314379], "geometry": {"coordinates": [[42.494894, 18.2314379], [42.4939336, 18.2312771]], "type": "LineString"}, "id": "1010", "properties": {"display_name": "King Abdulaziz Road", "highway": "trunk", "junction": null, "key": 0, "lanes": null, "length": 102.99481125741008, "maxspeed": null, "name": "\u0637\u0631\u064a\u0642 \u0627\u0644\u0645\u0644\u0643 \u0639\u0628\u062f\u0627\u0644\u0639\u0632\u064a\u0632", "oneway": true, "osmid": 95512377, "road_segment_id": 1010, "u": 1540085493, "v": 2919142285}, "type": "Feature"}, {"bbox": [42.494894, 18.2314379, 42.4982206, 18.231975], "geometry": {"coordinates": [[42.4982206, 18.231975], [42.4962576, 18.2316707], [42.494894, 18.2314379]], "type": "LineString"}, "id": "1013", "properties": {"display_name": "King Abdulaziz Road", "highway": "trunk", "junction": null, "key": 0, "lanes": null, "length": 356.38326604679685, "maxspeed": null, "name": "\u0637\u0631\u064a\u0642 \u0627\u0644\u0645\u0644\u0643 \u0639\u0628\u062f\u0627\u0644\u0639\u0632\u064a\u0632", "oneway": true, "osmid": 95512377, "road_segment_id": 1013, "u": 1540085498, "v": 1540085493}, "type": "Feature"}, {"bbox": [42.5134726, 18.232643, 42.5137051, 18.2328906], "geometry": {"coordinates": [[42.5134726, 18.2328906], [42.5137051, 18.232643]], "type": "LineString"}, "id": "1141", "properties": {"display_name": "King Abdulaziz Road", "highway": "trunk", "junction": null, "key": 0, "lanes": null, "length": 36.891019148007665, "maxspeed": null, "name": "\u0637\u0631\u064a\u0642 \u0627\u0644\u0645\u0644\u0643 \u0639\u0628\u062f\u0627\u0644\u0639\u0632\u064a\u0632", "oneway": true, "osmid": 290631447, "road_segment_id": 1141, "u": 1618334776, "v": 3283857213}, "type": "Feature"}, {"bbox": [42.5105756, 18.2328906, 42.5134726, 18.2339297], "geometry": {"coordinates": [[42.5105756, 18.2337738], [42.511331, 18.2339055], [42.5117101, 18.2339297], [42.5121237, 18.2338768], [42.5123841, 18.2337835], [42.5125759, 18.2336859], [42.5128295, 18.2335254], [42.5130327, 18.2333432], [42.5133323, 18.2330346], [42.5134726, 18.2328906]], "type": "LineString"}, "id": "1198", "properties": {"display_name": "King Abdulaziz Road", "highway": "trunk", "junction": null, "key": 0, "lanes": null, "length": 347.8782196457913, "maxspeed": null, "name": "\u0637\u0631\u064a\u0642 \u0627\u0644\u0645\u0644\u0643 \u0639\u0628\u062f\u0627\u0644\u0639\u0632\u064a\u0632", "oneway": true, "osmid": 290631447, "road_segment_id": 1198, "u": 1618340816, "v": 1618334776}, "type": "Feature"}, {"bbox": [42.4998229, 18.2218428, 42.4999656, 18.2224448], "geometry": {"coordinates": [[42.4998229, 18.2224448], [42.499882, 18.2221706], [42.4999656, 18.2218428]], "type": "LineString"}, "id": "1200", "properties": {"display_name": "King Faisal Road", "highway": "tertiary", "junction": null, "key": 0, "lanes": null, "length": 68.62607213326056, "maxspeed": null, "name": "\u0637\u0631\u064a\u0642 \u0627\u0644\u0645\u0644\u0643 \u0641\u064a\u0635\u0644", "oneway": true, "osmid": 158458178, "road_segment_id": 1200, "u": 1619384376, "v": 1706503675}, "type": "Feature"}, {"bbox": [42.5001324, 18.2261316, 42.5001454, 18.2265881], "geometry": {"coordinates": [[42.5001454, 18.2261316], [42.5001324, 18.2265881]], "type": "LineString"}, "id": "1250", "properties": {"display_name": "King Faisal Road", "highway": "tertiary", "junction": null, "key": 0, "lanes": null, "length": 50.77912146048183, "maxspeed": null, "name": "\u0637\u0631\u064a\u0642 \u0627\u0644\u0645\u0644\u0643 \u0641\u064a\u0635\u0644", "oneway": true, "osmid": 95507291, "road_segment_id": 1250, "u": 1619384429, "v": 1619384435}, "type": "Feature"}, {"bbox": [42.5001324, 18.2265881, 42.5001624, 18.2271182], "geometry": {"coordinates": [[42.5001324, 18.2265881], [42.5001624, 18.2271182]], "type": "LineString"}, "id": "1264", "properties": {"display_name": "King Faisal Road", "highway": "tertiary", "junction": null, "key": 0, "lanes": null, "length": 59.029610955825305, "maxspeed": null, "name": "\u0637\u0631\u064a\u0642 \u0627\u0644\u0645\u0644\u0643 \u0641\u064a\u0635\u0644", "oneway": true, "osmid": 95507291, "road_segment_id": 1264, "u": 1619384435, "v": 9096629034}, "type": "Feature"}, {"bbox": [42.4915762, 18.2134206, 42.492072, 18.2137512], "geometry": {"coordinates": [[42.4915762, 18.2134206], [42.492072, 18.2137512]], "type": "LineString"}, "id": "1379", "properties": {"display_name": "King Khalid Road", "highway": "tertiary", "junction": null, "key": 0, "lanes": null, "length": 63.983000668600674, "maxspeed": null, "name": "\u0637\u0631\u064a\u0642 \u0627\u0644\u0645\u0644\u0643 \u062e\u0627\u0644\u062f", "oneway": true, "osmid": 340239607, "road_segment_id": 1379, "u": 1634197443, "v": 3469943343}, "type": "Feature"}, {"bbox": [42.5081442, 18.2153078, 42.5098269, 18.2157141], "geometry": {"coordinates": [[42.5098269, 18.2157141], [42.5095434, 18.2156369], [42.5086775, 18.2154369], [42.5083603, 18.2153753], [42.5081442, 18.2153078]], "type": "LineString"}, "id": "1387", "properties": {"display_name": "King Faisal Road", "highway": "primary", "junction": null, "key": 0, "lanes": "3", "length": 183.4980588913353, "maxspeed": null, "name": "\u0637\u0631\u064a\u0642 \u0627\u0644\u0645\u0644\u0643 \u0641\u064a\u0635\u0644", "oneway": true, "osmid": 158458200, "road_segment_id": 1387, "u": 1706502999, "v": 2918389292}, "type": "Feature"}, {"bbox": [42.513334, 18.2177904, 42.5142924, 18.218427], "geometry": {"coordinates": [[42.5142924, 18.218427], [42.5135172, 18.2179022], [42.513334, 18.2177904]], "type": "LineString"}, "id": "1388", "properties": {"display_name": "King Faisal Road", "highway": "primary", "junction": null, "key": 0, "lanes": "3", "length": 123.54398189835943, "maxspeed": null, "name": "\u0637\u0631\u064a\u0642 \u0627\u0644\u0645\u0644\u0643 \u0641\u064a\u0635\u0644", "oneway": true, "osmid": 158458200, "road_segment_id": 1388, "u": 1706503021, "v": 2918389271}, "type": "Feature"}, {"bbox": [42.5108875, 18.2162966, 42.511787, 18.2168192], "geometry": {"coordinates": [[42.511787, 18.2168192], [42.5108875, 18.2162966]], "type": "LineString"}, "id": "1389", "properties": {"display_name": "King Faisal Road", "highway": "primary", "junction": null, "key": 0, "lanes": "3", "length": 111.36963212691182, "maxspeed": null, "name": "\u0637\u0631\u064a\u0642 \u0627\u0644\u0645\u0644\u0643 \u0641\u064a\u0635\u0644", "oneway": true, "osmid": 158458200, "road_segment_id": 1389, "u": 1706503024, "v": 13614335135}, "type": "Feature"}, {"bbox": [42.5073302, 18.2146448, 42.5074834, 18.2147515], "geometry": {"coordinates": [[42.5073302, 18.2146448], [42.5074834, 18.2147515]], "type": "LineString"}, "id": "1395", "properties": {"display_name": "King Faisal Road", "highway": "primary", "junction": null, "key": 0, "lanes": "3", "length": 20.065078503239743, "maxspeed": null, "name": "\u0637\u0631\u064a\u0642 \u0627\u0644\u0645\u0644\u0643 \u0641\u064a\u0635\u0644", "oneway": true, "osmid": 787179214, "road_segment_id": 1395, "u": 1706503286, "v": 1105459728}, "type": "Feature"}, {"bbox": [42.5082227, 18.215217, 42.5085106, 18.2152949], "geometry": {"coordinates": [[42.5082227, 18.215217], [42.5085106, 18.2152949]], "type": "LineString"}, "id": "1398", "properties": {"display_name": "King Faisal Road", "highway": "primary", "junction": null, "key": 0, "lanes": "3", "length": 31.618511664087215, "maxspeed": null, "name": "\u0637\u0631\u064a\u0642 \u0627\u0644\u0645\u0644\u0643 \u0641\u064a\u0635\u0644", "oneway": true, "osmid": 787179214, "road_segment_id": 1398, "u": 1706503297, "v": 2919870049}, "type": "Feature"}, {"bbox": [42.5098295, 18.2156049, 42.5106149, 18.216018], "geometry": {"coordinates": [[42.5098295, 18.2156049], [42.5101314, 18.2157329], [42.5106149, 18.216018]], "type": "LineString"}, "id": "1400", "properties": {"display_name": "King Faisal Road", "highway": "primary", "junction": null, "key": 0, "lanes": "3", "length": 95.02794476116695, "maxspeed": null, "name": "\u0637\u0631\u064a\u0642 \u0627\u0644\u0645\u0644\u0643 \u0641\u064a\u0635\u0644", "oneway": true, "osmid": 787179214, "road_segment_id": 1400, "u": 1706503334, "v": 1107465647}, "type": "Feature"}, {"bbox": [42.4998057, 18.2245473, 42.4998414, 18.2247918], "geometry": {"coordinates": [[42.4998057, 18.2247918], [42.4998414, 18.2245473]], "type": "LineString"}, "id": "1414", "properties": {"display_name": "King Faisal Road", "highway": "tertiary", "junction": null, "key": 0, "lanes": null, "length": 27.447416566043866, "maxspeed": null, "name": "\u0637\u0631\u064a\u0642 \u0627\u0644\u0645\u0644\u0643 \u0641\u064a\u0635\u0644", "oneway": true, "osmid": 158458178, "road_segment_id": 1414, "u": 1706503608, "v": 2920048262}, "type": "Feature"}, {"bbox": [42.4997954, 18.2247918, 42.4998402, 18.2250099], "geometry": {"coordinates": [[42.4998402, 18.2250099], [42.4997954, 18.2249188], [42.4998057, 18.2247918]], "type": "LineString"}, "id": "1415", "properties": {"display_name": "King Faisal Road", "highway": "tertiary", "junction": null, "key": 0, "lanes": null, "length": 25.344078617286424, "maxspeed": null, "name": "\u0637\u0631\u064a\u0642 \u0627\u0644\u0645\u0644\u0643 \u0641\u064a\u0635\u0644", "oneway": true, "osmid": 158458178, "road_segment_id": 1415, "u": 1706503663, "v": 1706503608}, "type": "Feature"}, {"bbox": [42.4998229, 18.2224448, 42.499839, 18.2233559], "geometry": {"coordinates": [[42.499839, 18.2233559], [42.4998229, 18.2224448]], "type": "LineString"}, "id": "1417", "properties": {"display_name": "King Faisal Road", "highway": "tertiary", "junction": null, "key": 0, "lanes": null, "length": 101.32411058972043, "maxspeed": null, "name": "\u0637\u0631\u064a\u0642 \u0627\u0644\u0645\u0644\u0643 \u0641\u064a\u0635\u0644", "oneway": true, "osmid": 158458178, "road_segment_id": 1417, "u": 1706503668, "v": 1619384376}, "type": "Feature"}, {"bbox": [42.4999656, 18.2213121, 42.5001291, 18.2218428], "geometry": {"coordinates": [[42.4999656, 18.2218428], [42.5001291, 18.2213121]], "type": "LineString"}, "id": "1419", "properties": {"display_name": "King Faisal Road", "highway": "tertiary", "junction": null, "key": 0, "lanes": null, "length": 61.48605014878892, "maxspeed": null, "name": "\u0637\u0631\u064a\u0642 \u0627\u0644\u0645\u0644\u0643 \u0641\u064a\u0635\u0644", "oneway": true, "osmid": 158458178, "road_segment_id": 1419, "u": 1706503675, "v": 1706503677}, "type": "Feature"}, {"bbox": [42.5001291, 18.2193309, 42.5011318, 18.2213121], "geometry": {"coordinates": [[42.5001291, 18.2213121], [42.5001798, 18.2210421], [42.5002463, 18.2208253], [42.5003421, 18.2205439], [42.5006597, 18.2199499], [42.5010061, 18.2195021], [42.5010322, 18.2194666], [42.5011318, 18.2193309]], "type": "LineString"}, "id": "1421", "properties": {"display_name": "King Faisal Road", "highway": "tertiary", "junction": null, "key": 0, "lanes": null, "length": 247.57016570031251, "maxspeed": null, "name": "\u0637\u0631\u064a\u0642 \u0627\u0644\u0645\u0644\u0643 \u0641\u064a\u0635\u0644", "oneway": true, "osmid": "158458178;1484918435;1484918436;787786471;158458190", "road_segment_id": 1421, "u": 1706503677, "v": 2919830773}, "type": "Feature"}, {"bbox": [42.5016794, 18.2173506, 42.5027591, 18.2183695], "geometry": {"coordinates": [[42.5027591, 18.2173506], [42.5017746, 18.2183009], [42.5016794, 18.2183695]], "type": "LineString"}, "id": "1423", "properties": {"display_name": "King Faisal Road", "highway": "primary", "junction": null, "key": 0, "lanes": "3", "length": 160.87290283713241, "maxspeed": null, "name": "\u0637\u0631\u064a\u0642 \u0627\u0644\u0645\u0644\u0643 \u0641\u064a\u0635\u0644", "oneway": true, "osmid": 158458200, "road_segment_id": 1423, "u": 1706503840, "v": 7365223399}, "type": "Feature"}, {"bbox": [42.5009146, 18.218223, 42.5011862, 18.2184138], "geometry": {"coordinates": [[42.5011862, 18.2184138], [42.5009754, 18.2182763], [42.5009146, 18.218223]], "type": "LineString"}, "id": "1424", "properties": {"display_name": "King Khalid Road", "highway": "tertiary", "junction": null, "key": 0, "lanes": null, "length": 35.74777737175221, "maxspeed": null, "name": "\u0637\u0631\u064a\u0642 \u0627\u0644\u0645\u0644\u0643 \u062e\u0627\u0644\u062f", "oneway": true, "osmid": 158458203, "road_segment_id": 1424, "u": 1706503865, "v": 2919827564}, "type": "Feature"}, {"bbox": [42.5014953, 18.2311945, 42.501668, 18.2322508], "geometry": {"coordinates": [[42.5014953, 18.2311945], [42.5015649, 18.2313863], [42.501646, 18.2318185], [42.5016662, 18.2320052], [42.501668, 18.2322508]], "type": "LineString"}, "id": "1426", "properties": {"display_name": "King Faisal Road", "highway": "trunk", "junction": null, "key": 0, "lanes": null, "length": 119.55386933747496, "maxspeed": null, "name": "\u0637\u0631\u064a\u0642 \u0627\u0644\u0645\u0644\u0643 \u0641\u064a\u0635\u0644", "oneway": true, "osmid": 983819586, "road_segment_id": 1426, "u": 2116561230, "v": 2932562559}, "type": "Feature"}, {"bbox": [42.5036129, 18.2328043, 42.5041782, 18.2328995], "geometry": {"coordinates": [[42.5041782, 18.2328995], [42.5036129, 18.2328043]], "type": "LineString"}, "id": "1429", "properties": {"display_name": "King Abdulaziz Road", "highway": "trunk", "junction": null, "key": 0, "lanes": null, "length": 60.63383855364192, "maxspeed": null, "name": "\u0637\u0631\u064a\u0642 \u0627\u0644\u0645\u0644\u0643 \u0639\u0628\u062f\u0627\u0644\u0639\u0632\u064a\u0632", "oneway": true, "osmid": 290631446, "road_segment_id": 1429, "u": 2116561241, "v": 1105400597}, "type": "Feature"}, {"bbox": [42.4982206, 18.231975, 42.4988248, 18.2320768], "geometry": {"coordinates": [[42.4988248, 18.2320768], [42.4985853, 18.2320418], [42.4982206, 18.231975]], "type": "LineString"}, "id": "1434", "properties": {"display_name": "King Abdulaziz Road", "highway": "trunk", "junction": null, "key": 0, "lanes": null, "length": 64.81857387100881, "maxspeed": null, "name": "\u0637\u0631\u064a\u0642 \u0627\u0644\u0645\u0644\u0643 \u0639\u0628\u062f\u0627\u0644\u0639\u0632\u064a\u0632", "oneway": true, "osmid": 95512377, "road_segment_id": 1434, "u": 2116561255, "v": 1540085498}, "type": "Feature"}, {"bbox": [42.5005181, 18.2321963, 42.5022268, 18.2324739], "geometry": {"coordinates": [[42.5005181, 18.2321963], [42.5013591, 18.2323422], [42.5017865, 18.2323989], [42.5022268, 18.2324739]], "type": "LineString"}, "id": "1435", "properties": {"display_name": "King Abdulaziz Road", "highway": "trunk", "junction": null, "key": 0, "lanes": null, "length": 183.1098174233287, "maxspeed": null, "name": "\u0637\u0631\u064a\u0642 \u0627\u0644\u0645\u0644\u0643 \u0639\u0628\u062f\u0627\u0644\u0639\u0632\u064a\u0632", "oneway": true, "osmid": "95512376;340235246;290631447", "road_segment_id": 1435, "u": 2116561267, "v": 2932562549}, "type": "Feature"}, {"bbox": [42.511787, 18.2168192, 42.5123539, 18.217161], "geometry": {"coordinates": [[42.5123539, 18.217161], [42.511787, 18.2168192]], "type": "LineString"}, "id": "1821", "properties": {"display_name": "King Faisal Road", "highway": "primary", "junction": null, "key": 0, "lanes": "3", "length": 70.92076902835731, "maxspeed": null, "name": "\u0637\u0631\u064a\u0642 \u0627\u0644\u0645\u0644\u0643 \u0641\u064a\u0635\u0644", "oneway": true, "osmid": 158458200, "road_segment_id": 1821, "u": 2918389250, "v": 1706503024}, "type": "Feature"}, {"bbox": [42.5123539, 18.217161, 42.5125604, 18.2172855], "geometry": {"coordinates": [[42.5125604, 18.2172855], [42.5123539, 18.217161]], "type": "LineString"}, "id": "1842", "properties": {"display_name": "King Faisal Road", "highway": "primary", "junction": null, "key": 0, "lanes": "3", "length": 25.83342196792463, "maxspeed": null, "name": "\u0637\u0631\u064a\u0642 \u0627\u0644\u0645\u0644\u0643 \u0641\u064a\u0635\u0644", "oneway": true, "osmid": 158458200, "road_segment_id": 1842, "u": 2918389266, "v": 2918389250}, "type": "Feature"}, {"bbox": [42.5125604, 18.2172855, 42.5129694, 18.2175558], "geometry": {"coordinates": [[42.5129694, 18.2175558], [42.5125604, 18.2172855]], "type": "LineString"}, "id": "1844", "properties": {"display_name": "King Faisal Road", "highway": "primary", "junction": null, "key": 0, "lanes": "3", "length": 52.62642763240586, "maxspeed": null, "name": "\u0637\u0631\u064a\u0642 \u0627\u0644\u0645\u0644\u0643 \u0641\u064a\u0635\u0644", "oneway": true, "osmid": 158458200, "road_segment_id": 1844, "u": 2918389269, "v": 2918389266}, "type": "Feature"}, {"bbox": [42.5129694, 18.2175558, 42.513334, 18.2177904], "geometry": {"coordinates": [[42.513334, 18.2177904], [42.5129694, 18.2175558]], "type": "LineString"}, "id": "1849", "properties": {"display_name": "King Faisal Road", "highway": "primary", "junction": null, "key": 0, "lanes": "3", "length": 46.51330829352625, "maxspeed": null, "name": "\u0637\u0631\u064a\u0642 \u0627\u0644\u0645\u0644\u0643 \u0641\u064a\u0635\u0644", "oneway": true, "osmid": 158458200, "road_segment_id": 1849, "u": 2918389271, "v": 2918389269}, "type": "Feature"}, {"bbox": [42.5079263, 18.2152298, 42.5081442, 18.2153078], "geometry": {"coordinates": [[42.5081442, 18.2153078], [42.5079263, 18.2152298]], "type": "LineString"}, "id": "1874", "properties": {"display_name": "King Faisal Road", "highway": "primary", "junction": null, "key": 0, "lanes": "3", "length": 24.595245936391304, "maxspeed": null, "name": "\u0637\u0631\u064a\u0642 \u0627\u0644\u0645\u0644\u0643 \u0641\u064a\u0635\u0644", "oneway": true, "osmid": 158458200, "road_segment_id": 1874, "u": 2918389292, "v": 2918393034}, "type": "Feature"}, {"bbox": [42.5075259, 18.2151082, 42.5079263, 18.2152298], "geometry": {"coordinates": [[42.5079263, 18.2152298], [42.5075259, 18.2151082]], "type": "LineString"}, "id": "1919", "properties": {"display_name": "King Faisal Road", "highway": "primary", "junction": null, "key": 0, "lanes": "3", "length": 44.400378596332395, "maxspeed": null, "name": "\u0637\u0631\u064a\u0642 \u0627\u0644\u0645\u0644\u0643 \u0641\u064a\u0635\u0644", "oneway": true, "osmid": 158458200, "road_segment_id": 1919, "u": 2918393034, "v": 1485260728}, "type": "Feature"}, {"bbox": [42.5039023, 18.2163643, 42.5041863, 18.2165671], "geometry": {"coordinates": [[42.5041863, 18.2163643], [42.5039023, 18.2165671]], "type": "LineString"}, "id": "1931", "properties": {"display_name": "King Faisal Road", "highway": "primary", "junction": null, "key": 0, "lanes": "3", "length": 37.527613757960474, "maxspeed": null, "name": "\u0637\u0631\u064a\u0642 \u0627\u0644\u0645\u0644\u0643 \u0641\u064a\u0635\u0644", "oneway": true, "osmid": 158458200, "road_segment_id": 1931, "u": 2918393052, "v": 1485260721}, "type": "Feature"}, {"bbox": [42.5067273, 18.2233316, 42.5070818, 18.2233443], "geometry": {"coordinates": [[42.5070818, 18.2233316], [42.5067273, 18.2233443]], "type": "LineString"}, "id": "1943", "properties": {"display_name": "King Khalid Road", "highway": "tertiary", "junction": null, "key": 0, "lanes": null, "length": 37.46822656710567, "maxspeed": null, "name": "\u0637\u0631\u064a\u0642 \u0627\u0644\u0645\u0644\u0643 \u062e\u0627\u0644\u062f", "oneway": true, "osmid": 787792740, "road_segment_id": 1943, "u": 2918393074, "v": 1485286177}, "type": "Feature"}, {"bbox": [42.5075959, 18.2217994, 42.5094257, 18.2232295], "geometry": {"coordinates": [[42.5094257, 18.2217994], [42.5085999, 18.2225877], [42.5083661, 18.2227928], [42.5081429, 18.2229485], [42.5079476, 18.2230585], [42.5077758, 18.2231537], [42.5075959, 18.2232295]], "type": "LineString"}, "id": "2061", "properties": {"display_name": "King Khalid Road", "highway": "tertiary", "junction": null, "key": 0, "lanes": null, "length": 252.2927586069079, "maxspeed": null, "name": "\u0637\u0631\u064a\u0642 \u0627\u0644\u0645\u0644\u0643 \u062e\u0627\u0644\u062f", "oneway": true, "osmid": "135038976;787792740;135038972", "road_segment_id": 2061, "u": 2918393257, "v": 1483585554}, "type": "Feature"}, {"bbox": [42.5084228, 18.2335828, 42.5105904, 18.2339174], "geometry": {"coordinates": [[42.5105904, 18.2339174], [42.5097757, 18.2337844], [42.5096935, 18.2337713], [42.5084228, 18.2335828]], "type": "LineString"}, "id": "2409", "properties": {"display_name": "King Abdulaziz Road", "highway": "trunk", "junction": null, "key": 0, "lanes": null, "length": 231.9340883913676, "maxspeed": null, "name": "\u0637\u0631\u064a\u0642 \u0627\u0644\u0645\u0644\u0643 \u0639\u0628\u062f\u0627\u0644\u0639\u0632\u064a\u0632", "oneway": true, "osmid": 290631446, "road_segment_id": 2409, "u": 2918588432, "v": 9095952041}, "type": "Feature"}, {"bbox": [42.5001454, 18.2254393, 42.5001619, 18.2261316], "geometry": {"coordinates": [[42.5001619, 18.2254393], [42.5001454, 18.2261316]], "type": "LineString"}, "id": "2500", "properties": {"display_name": "King Faisal Road", "highway": "tertiary", "junction": null, "key": 0, "lanes": null, "length": 77.00007917043389, "maxspeed": null, "name": "\u0637\u0631\u064a\u0642 \u0627\u0644\u0645\u0644\u0643 \u0641\u064a\u0635\u0644", "oneway": true, "osmid": 95507291, "road_segment_id": 2500, "u": 2919142255, "v": 1619384429}, "type": "Feature"}, {"bbox": [42.494351, 18.2149822, 42.4955512, 18.2152157], "geometry": {"coordinates": [[42.494351, 18.2149822], [42.4947606, 18.2151126], [42.4951743, 18.2151715], [42.4955512, 18.2152157]], "type": "LineString"}, "id": "2505", "properties": {"display_name": "King Khalid Road", "highway": "tertiary", "junction": null, "key": 0, "lanes": null, "length": 129.92431344181279, "maxspeed": null, "name": "\u0637\u0631\u064a\u0642 \u0627\u0644\u0645\u0644\u0643 \u062e\u0627\u0644\u062f", "oneway": true, "osmid": 340239607, "road_segment_id": 2505, "u": 2919142278, "v": 2920010652}, "type": "Feature"}, {"bbox": [42.4980253, 18.2155649, 42.4985892, 18.2161703], "geometry": {"coordinates": [[42.4985892, 18.2161703], [42.498357, 18.2159203], [42.4980253, 18.2155649]], "type": "LineString"}, "id": "2507", "properties": {"display_name": "King Khalid Road", "highway": "tertiary", "junction": null, "key": 0, "lanes": null, "length": 89.88392966963079, "maxspeed": null, "name": "\u0637\u0631\u064a\u0642 \u0627\u0644\u0645\u0644\u0643 \u062e\u0627\u0644\u062f", "oneway": true, "osmid": 158458203, "road_segment_id": 2507, "u": 2919142284, "v": 1634197537}, "type": "Feature"}, {"bbox": [42.4918293, 18.2309575, 42.4939336, 18.2312771], "geometry": {"coordinates": [[42.4939336, 18.2312771], [42.4921324, 18.2310035], [42.4918293, 18.2309575]], "type": "LineString"}, "id": "2509", "properties": {"display_name": "King Abdulaziz Road", "highway": "trunk", "junction": null, "key": 0, "lanes": null, "length": 225.06559892636028, "maxspeed": null, "name": "\u0637\u0631\u064a\u0642 \u0627\u0644\u0645\u0644\u0643 \u0639\u0628\u062f\u0627\u0644\u0639\u0632\u064a\u0632", "oneway": true, "osmid": 95512377, "road_segment_id": 2509, "u": 2919142285, "v": 2918364137}, "type": "Feature"}, {"bbox": [42.5002057, 18.2278846, 42.5003946, 18.2288344], "geometry": {"coordinates": [[42.5002057, 18.2278846], [42.5002272, 18.228266], [42.5002854, 18.2285183], [42.5003727, 18.2287844], [42.5003946, 18.2288344]], "type": "LineString"}, "id": "2697", "properties": {"display_name": "King Faisal Road", "highway": "tertiary", "junction": null, "key": 0, "lanes": null, "length": 108.20452460700149, "maxspeed": null, "name": "\u0637\u0631\u064a\u0642 \u0627\u0644\u0645\u0644\u0643 \u0641\u064a\u0635\u0644", "oneway": true, "osmid": 95507291, "road_segment_id": 2697, "u": 2919767325, "v": 2919767340}, "type": "Feature"}, {"bbox": [42.5003946, 18.2288344, 42.5005499, 18.2291897], "geometry": {"coordinates": [[42.5003946, 18.2288344], [42.5005499, 18.2291897]], "type": "LineString"}, "id": "2708", "properties": {"display_name": "King Faisal Road", "highway": "tertiary", "junction": null, "key": 0, "lanes": null, "length": 42.77704404022667, "maxspeed": null, "name": "\u0637\u0631\u064a\u0642 \u0627\u0644\u0645\u0644\u0643 \u0641\u064a\u0635\u0644", "oneway": true, "osmid": 95507291, "road_segment_id": 2708, "u": 2919767340, "v": 2919767344}, "type": "Feature"}, {"bbox": [42.5005499, 18.2291897, 42.5007529, 18.2296619], "geometry": {"coordinates": [[42.5005499, 18.2291897], [42.5007529, 18.2296619]], "type": "LineString"}, "id": "2710", "properties": {"display_name": "King Faisal Road", "highway": "tertiary", "junction": null, "key": 0, "lanes": null, "length": 56.714856669411354, "maxspeed": null, "name": "\u0637\u0631\u064a\u0642 \u0627\u0644\u0645\u0644\u0643 \u0641\u064a\u0635\u0644", "oneway": true, "osmid": 95507291, "road_segment_id": 2710, "u": 2919767344, "v": 1107476614}, "type": "Feature"}, {"bbox": [42.4985892, 18.2161703, 42.5000736, 18.2174881], "geometry": {"coordinates": [[42.5000736, 18.2174881], [42.4995123, 18.2170179], [42.4989229, 18.2164911], [42.4985892, 18.2161703]], "type": "LineString"}, "id": "2923", "properties": {"display_name": "King Khalid Road", "highway": "tertiary", "junction": null, "key": 0, "lanes": null, "length": 214.673972043453, "maxspeed": null, "name": "\u0637\u0631\u064a\u0642 \u0627\u0644\u0645\u0644\u0643 \u062e\u0627\u0644\u062f", "oneway": true, "osmid": 158458203, "road_segment_id": 2923, "u": 2919827561, "v": 2919142284}, "type": "Feature"}, {"bbox": [42.5000736, 18.2174881, 42.5009146, 18.218223], "geometry": {"coordinates": [[42.5009146, 18.218223], [42.5001889, 18.2175889], [42.5000736, 18.2174881]], "type": "LineString"}, "id": "2926", "properties": {"display_name": "King Khalid Road", "highway": "tertiary", "junction": null, "key": 0, "lanes": null, "length": 120.69818942048624, "maxspeed": null, "name": "\u0637\u0631\u064a\u0642 \u0627\u0644\u0645\u0644\u0643 \u062e\u0627\u0644\u062f", "oneway": true, "osmid": 158458203, "road_segment_id": 2926, "u": 2919827564, "v": 2919827561}, "type": "Feature"}, {"bbox": [42.5089989, 18.2153877, 42.5098295, 18.2156049], "geometry": {"coordinates": [[42.5089989, 18.2153877], [42.5098295, 18.2156049]], "type": "LineString"}, "id": "3175", "properties": {"display_name": "King Faisal Road", "highway": "primary", "junction": null, "key": 0, "lanes": "3", "length": 90.99399530873261, "maxspeed": null, "name": "\u0637\u0631\u064a\u0642 \u0627\u0644\u0645\u0644\u0643 \u0641\u064a\u0635\u0644", "oneway": true, "osmid": 787179214, "road_segment_id": 3175, "u": 2919870042, "v": 1706503334}, "type": "Feature"}, {"bbox": [42.5085106, 18.2152949, 42.5089989, 18.2153877], "geometry": {"coordinates": [[42.5085106, 18.2152949], [42.5089989, 18.2153877]], "type": "LineString"}, "id": "3180", "properties": {"display_name": "King Faisal Road", "highway": "primary", "junction": null, "key": 0, "lanes": "3", "length": 52.59781022794435, "maxspeed": null, "name": "\u0637\u0631\u064a\u0642 \u0627\u0644\u0645\u0644\u0643 \u0641\u064a\u0635\u0644", "oneway": true, "osmid": 787179214, "road_segment_id": 3180, "u": 2919870049, "v": 2919870042}, "type": "Feature"}, {"bbox": [42.5130485, 18.2174869, 42.5136806, 18.2178686], "geometry": {"coordinates": [[42.5130485, 18.2174869], [42.5136806, 18.2178686]], "type": "LineString"}, "id": "3232", "properties": {"display_name": "King Faisal Road", "highway": "primary", "junction": null, "key": 0, "lanes": "3", "length": 79.11237045771632, "maxspeed": null, "name": "\u0637\u0631\u064a\u0642 \u0627\u0644\u0645\u0644\u0643 \u0641\u064a\u0635\u0644", "oneway": true, "osmid": 787179214, "road_segment_id": 3232, "u": 2919870100, "v": 11836472323}, "type": "Feature"}, {"bbox": [42.4955512, 18.2152157, 42.4963084, 18.215221], "geometry": {"coordinates": [[42.4955512, 18.2152157], [42.4963084, 18.215221]], "type": "LineString"}, "id": "3287", "properties": {"display_name": "King Khalid Road", "highway": "tertiary", "junction": null, "key": 0, "lanes": null, "length": 79.979901895381, "maxspeed": null, "name": "\u0637\u0631\u064a\u0642 \u0627\u0644\u0645\u0644\u0643 \u062e\u0627\u0644\u062f", "oneway": true, "osmid": 340239607, "road_segment_id": 3287, "u": 2920010652, "v": 2921558448}, "type": "Feature"}, {"bbox": [42.499839, 18.2233559, 42.4998414, 18.2245473], "geometry": {"coordinates": [[42.4998414, 18.2245473], [42.499839, 18.2233559]], "type": "LineString"}, "id": "3415", "properties": {"display_name": "King Faisal Road", "highway": "tertiary", "junction": null, "key": 0, "lanes": null, "length": 132.47806525485439, "maxspeed": null, "name": "\u0637\u0631\u064a\u0642 \u0627\u0644\u0645\u0644\u0643 \u0641\u064a\u0635\u0644", "oneway": true, "osmid": 158458178, "road_segment_id": 3415, "u": 2920048262, "v": 1706503668}, "type": "Feature"}, {"bbox": [42.500031, 18.2253447, 42.5000579, 18.2257624], "geometry": {"coordinates": [[42.500054, 18.2257624], [42.5000579, 18.22541], [42.500031, 18.2253447]], "type": "LineString"}, "id": "3496", "properties": {"display_name": "King Faisal Road", "highway": "tertiary", "junction": null, "key": 0, "lanes": null, "length": 46.98439481104979, "maxspeed": null, "name": "\u0637\u0631\u064a\u0642 \u0627\u0644\u0645\u0644\u0643 \u0641\u064a\u0635\u0644;king fisal road", "oneway": true, "osmid": "158458178;288356494", "road_segment_id": 3496, "u": 2920048612, "v": 3469104120}, "type": "Feature"}, {"bbox": [42.4936274, 18.231128, 42.4939852, 18.2311842], "geometry": {"coordinates": [[42.4936274, 18.231128], [42.4939852, 18.2311842]], "type": "LineString"}, "id": "3629", "properties": {"display_name": "King Abdulaziz Road", "highway": "trunk", "junction": null, "key": 0, "lanes": null, "length": 38.301680264293054, "maxspeed": null, "name": "\u0637\u0631\u064a\u0642 \u0627\u0644\u0645\u0644\u0643 \u0639\u0628\u062f\u0627\u0644\u0639\u0632\u064a\u0632", "oneway": true, "osmid": 340235246, "road_segment_id": 3629, "u": 2920084120, "v": 1107416138}, "type": "Feature"}, {"bbox": [42.5058012, 18.2330253, 42.5067349, 18.2331775], "geometry": {"coordinates": [[42.5058012, 18.2330253], [42.5064967, 18.2331313], [42.5067349, 18.2331775]], "type": "LineString"}, "id": "3682", "properties": {"display_name": "King Abdulaziz Road", "highway": "trunk", "junction": null, "key": 0, "lanes": null, "length": 100.06889334977342, "maxspeed": null, "name": "\u0637\u0631\u064a\u0642 \u0627\u0644\u0645\u0644\u0643 \u0639\u0628\u062f\u0627\u0644\u0639\u0632\u064a\u0632", "oneway": true, "osmid": 290631447, "road_segment_id": 3682, "u": 2920087206, "v": 9095952039}, "type": "Feature"}, {"bbox": [42.4963084, 18.2149122, 42.4975976, 18.2152251], "geometry": {"coordinates": [[42.4963084, 18.215221], [42.4966621, 18.2152251], [42.4969867, 18.2151835], [42.4972427, 18.2151362], [42.4973621, 18.2151042], [42.4974529, 18.2150536], [42.4975116, 18.2149932], [42.4975976, 18.2149122]], "type": "LineString"}, "id": "3805", "properties": {"display_name": "King Khalid Road", "highway": "tertiary", "junction": null, "key": 0, "lanes": null, "length": 145.6591258538426, "maxspeed": null, "name": "\u0637\u0631\u064a\u0642 \u0627\u0644\u0645\u0644\u0643 \u062e\u0627\u0644\u062f", "oneway": true, "osmid": 340239607, "road_segment_id": 3805, "u": 2921558448, "v": 7365211543}, "type": "Feature"}, {"bbox": [42.5138134, 18.2276536, 42.5184795, 18.2327186], "geometry": {"coordinates": [[42.5184795, 18.2276536], [42.5178881, 18.2282206], [42.5175627, 18.2286395], [42.5160593, 18.2303246], [42.5150528, 18.2313704], [42.5138134, 18.2327186]], "type": "LineString"}, "id": "3895", "properties": {"display_name": "King Abdulaziz Road", "highway": "trunk;motorway", "junction": null, "key": 0, "lanes": null, "length": 748.8061134058696, "maxspeed": null, "name": "\u0637\u0631\u064a\u0642 \u0627\u0644\u0645\u0644\u0643 \u0639\u0628\u062f\u0627\u0644\u0639\u0632\u064a\u0632", "oneway": true, "osmid": "321635970;1321645843;290631446", "road_segment_id": 3895, "u": 2930606746, "v": 3283857210}, "type": "Feature"}, {"bbox": [42.4988248, 18.2320768, 42.500824, 18.2323751], "geometry": {"coordinates": [[42.500824, 18.2323751], [42.4999555, 18.2322423], [42.4988248, 18.2320768]], "type": "LineString"}, "id": "3896", "properties": {"display_name": "King Abdulaziz Road", "highway": "trunk", "junction": null, "key": 0, "lanes": null, "length": 213.73156536858662, "maxspeed": null, "name": "\u0637\u0631\u064a\u0642 \u0627\u0644\u0645\u0644\u0643 \u0639\u0628\u062f\u0627\u0644\u0639\u0632\u064a\u0632", "oneway": true, "osmid": 95512377, "road_segment_id": 3896, "u": 2932562524, "v": 2116561255}, "type": "Feature"}, {"bbox": [42.500824, 18.2323751, 42.502028, 18.2325568], "geometry": {"coordinates": [[42.502028, 18.2325568], [42.5017749, 18.2325165], [42.5013343, 18.2324473], [42.500824, 18.2323751]], "type": "LineString"}, "id": "3899", "properties": {"display_name": "King Abdulaziz Road", "highway": "trunk", "junction": null, "key": 0, "lanes": null, "length": 128.75708703488135, "maxspeed": null, "name": "\u0637\u0631\u064a\u0642 \u0627\u0644\u0645\u0644\u0643 \u0639\u0628\u062f\u0627\u0644\u0639\u0632\u064a\u0632", "oneway": true, "osmid": "95512377;290631446;95512375", "road_segment_id": 3899, "u": 2932562548, "v": 2932562524}, "type": "Feature"}, {"bbox": [42.5022268, 18.2324739, 42.5038212, 18.232709], "geometry": {"coordinates": [[42.5022268, 18.2324739], [42.5025618, 18.2325334], [42.5038212, 18.232709]], "type": "LineString"}, "id": "3901", "properties": {"display_name": "King Abdulaziz Road", "highway": "trunk", "junction": null, "key": 0, "lanes": null, "length": 170.42735169081772, "maxspeed": null, "name": "\u0637\u0631\u064a\u0642 \u0627\u0644\u0645\u0644\u0643 \u0639\u0628\u062f\u0627\u0644\u0639\u0632\u064a\u0632", "oneway": true, "osmid": 290631447, "road_segment_id": 3901, "u": 2932562549, "v": 9095952051}, "type": "Feature"}, {"bbox": [42.5016086, 18.2322508, 42.501668, 18.2326439], "geometry": {"coordinates": [[42.501668, 18.2322508], [42.5016549, 18.2323146], [42.5016538, 18.2323243], [42.5016086, 18.2326439]], "type": "LineString"}, "id": "3902", "properties": {"display_name": "King Faisal Road", "highway": "trunk", "junction": null, "key": 0, "lanes": null, "length": 44.169857756349046, "maxspeed": null, "name": "\u0637\u0631\u064a\u0642 \u0627\u0644\u0645\u0644\u0643 \u0641\u064a\u0635\u0644", "oneway": true, "osmid": "983819586;54934546", "road_segment_id": 3902, "u": 2932562559, "v": 691230379}, "type": "Feature"}, {"bbox": [42.5105904, 18.2327186, 42.5138134, 18.2340484], "geometry": {"coordinates": [[42.5138134, 18.2327186], [42.5135099, 18.2330471], [42.513154, 18.233417], [42.512927, 18.2336295], [42.5126546, 18.2338052], [42.5124336, 18.2339017], [42.5121325, 18.2339932], [42.5118005, 18.2340484], [42.5114751, 18.2340369], [42.5105904, 18.2339174]], "type": "LineString"}, "id": "3903", "properties": {"display_name": "King Abdulaziz Road", "highway": "trunk", "junction": null, "key": 0, "lanes": null, "length": 396.1893859782166, "maxspeed": null, "name": "\u0637\u0631\u064a\u0642 \u0627\u0644\u0645\u0644\u0643 \u0639\u0628\u062f\u0627\u0644\u0639\u0632\u064a\u0632", "oneway": true, "osmid": 290631446, "road_segment_id": 3903, "u": 3283857210, "v": 2918588432}, "type": "Feature"}, {"bbox": [42.5137051, 18.2277068, 42.5182402, 18.232643], "geometry": {"coordinates": [[42.5137051, 18.232643], [42.514975, 18.2313116], [42.5160094, 18.230232], [42.5174917, 18.2285718], [42.5178118, 18.2281402], [42.5182402, 18.2277068]], "type": "LineString"}, "id": "3905", "properties": {"display_name": "King Abdulaziz Road", "highway": "trunk;motorway", "junction": null, "key": 0, "lanes": null, "length": 728.9331087208409, "maxspeed": null, "name": "\u0637\u0631\u064a\u0642 \u0627\u0644\u0645\u0644\u0643 \u0639\u0628\u062f\u0627\u0644\u0639\u0632\u064a\u0632", "oneway": true, "osmid": "321635968;290631450;290631447", "road_segment_id": 3905, "u": 3283857213, "v": 2930606747}, "type": "Feature"}, {"bbox": [42.4998402, 18.2250099, 42.500031, 18.2253447], "geometry": {"coordinates": [[42.500031, 18.2253447], [42.4999022, 18.2250981], [42.4998402, 18.2250099]], "type": "LineString"}, "id": "3906", "properties": {"display_name": "King Faisal Road", "highway": "tertiary", "junction": null, "key": 0, "lanes": null, "length": 42.40220491479592, "maxspeed": null, "name": "\u0637\u0631\u064a\u0642 \u0627\u0644\u0645\u0644\u0643 \u0641\u064a\u0635\u0644", "oneway": true, "osmid": 158458178, "road_segment_id": 3906, "u": 3469104120, "v": 1706503663}, "type": "Feature"}, {"bbox": [42.492072, 18.2137512, 42.4926001, 18.2140756], "geometry": {"coordinates": [[42.492072, 18.2137512], [42.4926001, 18.2140756]], "type": "LineString"}, "id": "3914", "properties": {"display_name": "King Khalid Road", "highway": "tertiary", "junction": null, "key": 0, "lanes": null, "length": 66.42714838226478, "maxspeed": null, "name": "\u0637\u0631\u064a\u0642 \u0627\u0644\u0645\u0644\u0643 \u062e\u0627\u0644\u062f", "oneway": true, "osmid": 340239607, "road_segment_id": 3914, "u": 3469943343, "v": 1105400427}, "type": "Feature"}, {"bbox": [42.5142924, 18.2182276, 42.5145558, 18.2184908], "geometry": {"coordinates": [[42.5143492, 18.2182276], [42.5144622, 18.2182878], [42.5145195, 18.2183236], [42.5145532, 18.218364], [42.5145558, 18.2184084], [42.5145436, 18.2184484], [42.5145169, 18.2184723], [42.5144746, 18.2184904], [42.5144443, 18.2184908], [42.5143957, 18.2184703], [42.5142924, 18.218427]], "type": "LineString"}, "id": "4037", "properties": {"display_name": "King Faisal Road", "highway": "primary", "junction": null, "key": 0, "lanes": "3", "length": 65.75313912442374, "maxspeed": null, "name": "\u0637\u0631\u064a\u0642 \u0627\u0644\u0645\u0644\u0643 \u0641\u064a\u0635\u0644", "oneway": true, "osmid": 787179214, "road_segment_id": 4037, "u": 7359264672, "v": 1706503021}, "type": "Feature"}, {"bbox": [42.5075968, 18.2333178, 42.5105756, 18.2337738], "geometry": {"coordinates": [[42.5075968, 18.2333178], [42.5100112, 18.2336938], [42.5105756, 18.2337738]], "type": "LineString"}, "id": "4044", "properties": {"display_name": "King Abdulaziz Road", "highway": "trunk", "junction": null, "key": 0, "lanes": null, "length": 318.66165697409974, "maxspeed": null, "name": "\u0637\u0631\u064a\u0642 \u0627\u0644\u0645\u0644\u0643 \u0639\u0628\u062f\u0627\u0644\u0639\u0632\u064a\u0632", "oneway": true, "osmid": 290631447, "road_segment_id": 4044, "u": 7359264718, "v": 1618340816}, "type": "Feature"}, {"bbox": [42.5011862, 18.2183695, 42.5016794, 18.2184851], "geometry": {"coordinates": [[42.5016794, 18.2183695], [42.501601, 18.2184198], [42.5015345, 18.2184468], [42.5014517, 18.2184812], [42.5013747, 18.2184851], [42.5011862, 18.2184138]], "type": "LineString"}, "id": "4051", "properties": {"display_name": "King Faisal Road", "highway": "primary", "junction": null, "key": 0, "lanes": "3", "length": 56.750965210059455, "maxspeed": null, "name": "\u0637\u0631\u064a\u0642 \u0627\u0644\u0645\u0644\u0643 \u0641\u064a\u0635\u0644", "oneway": true, "osmid": 158458200, "road_segment_id": 4051, "u": 7365223399, "v": 1706503865}, "type": "Feature"}, {"bbox": [42.5027591, 18.2168701, 42.5035969, 18.2173506], "geometry": {"coordinates": [[42.5035969, 18.2168701], [42.503573, 18.2169374], [42.5035434, 18.2170012], [42.5034773, 18.2170711], [42.5033666, 18.2171305], [42.5031826, 18.2171504], [42.5029971, 18.217204], [42.5027591, 18.2173506]], "type": "LineString"}, "id": "4053", "properties": {"display_name": "King Faisal Road", "highway": "primary", "junction": null, "key": 0, "lanes": "3", "length": 109.52705152494343, "maxspeed": null, "name": "\u0637\u0631\u064a\u0642 \u0627\u0644\u0645\u0644\u0643 \u0641\u064a\u0635\u0644", "oneway": true, "osmid": 158458200, "road_segment_id": 4053, "u": 7365223406, "v": 1706503840}, "type": "Feature"}, {"bbox": [42.5067349, 18.2331775, 42.5075968, 18.2333178], "geometry": {"coordinates": [[42.5067349, 18.2331775], [42.5075968, 18.2333178]], "type": "LineString"}, "id": "4242", "properties": {"display_name": "King Abdulaziz Road", "highway": "trunk", "junction": null, "key": 0, "lanes": null, "length": 92.35421203808251, "maxspeed": null, "name": "\u0637\u0631\u064a\u0642 \u0627\u0644\u0645\u0644\u0643 \u0639\u0628\u062f\u0627\u0644\u0639\u0632\u064a\u0632", "oneway": true, "osmid": 290631447, "road_segment_id": 4242, "u": 9095952039, "v": 7359264718}, "type": "Feature"}, {"bbox": [42.5068584, 18.2333331, 42.5084228, 18.2335828], "geometry": {"coordinates": [[42.5084228, 18.2335828], [42.5068584, 18.2333331]], "type": "LineString"}, "id": "4244", "properties": {"display_name": "King Abdulaziz Road", "highway": "trunk", "junction": null, "key": 0, "lanes": null, "length": 167.53606399798744, "maxspeed": null, "name": "\u0637\u0631\u064a\u0642 \u0627\u0644\u0645\u0644\u0643 \u0639\u0628\u062f\u0627\u0644\u0639\u0632\u064a\u0632", "oneway": true, "osmid": 290631446, "road_segment_id": 4244, "u": 9095952041, "v": 10128898469}, "type": "Feature"}, {"bbox": [42.5038212, 18.232709, 42.5044254, 18.2328052], "geometry": {"coordinates": [[42.5038212, 18.232709], [42.5044254, 18.2328052]], "type": "LineString"}, "id": "4246", "properties": {"display_name": "King Abdulaziz Road", "highway": "trunk", "junction": null, "key": 0, "lanes": null, "length": 64.7013632699688, "maxspeed": null, "name": "\u0637\u0631\u064a\u0642 \u0627\u0644\u0645\u0644\u0643 \u0639\u0628\u062f\u0627\u0644\u0639\u0632\u064a\u0632", "oneway": true, "osmid": 290631447, "road_segment_id": 4246, "u": 9095952051, "v": 1107416177}, "type": "Feature"}, {"bbox": [42.5001624, 18.2271182, 42.5001929, 18.2276586], "geometry": {"coordinates": [[42.5001624, 18.2271182], [42.5001929, 18.2276586]], "type": "LineString"}, "id": "4303", "properties": {"display_name": "King Faisal Road", "highway": "tertiary", "junction": null, "key": 0, "lanes": null, "length": 60.17610386996482, "maxspeed": null, "name": "\u0637\u0631\u064a\u0642 \u0627\u0644\u0645\u0644\u0643 \u0641\u064a\u0635\u0644", "oneway": true, "osmid": 95507291, "road_segment_id": 4303, "u": 9096629034, "v": 1144553648}, "type": "Feature"}, {"bbox": [42.5006493, 18.2344336, 42.5007677, 18.2346831], "geometry": {"coordinates": [[42.5007677, 18.2344336], [42.5006493, 18.2346831]], "type": "LineString"}, "id": "4387", "properties": {"display_name": "King Faisal Road", "highway": "trunk", "junction": null, "key": 0, "lanes": null, "length": 30.430954689315044, "maxspeed": null, "name": "\u0637\u0631\u064a\u0642 \u0627\u0644\u0645\u0644\u0643 \u0641\u064a\u0635\u0644", "oneway": true, "osmid": 54934546, "road_segment_id": 4387, "u": 9102539549, "v": 9102539552}, "type": "Feature"}, {"bbox": [42.5001995, 18.2346831, 42.5006493, 18.236566], "geometry": {"coordinates": [[42.5006493, 18.2346831], [42.5005746, 18.2348406], [42.5003886, 18.2354017], [42.5003336, 18.2356111], [42.5002654, 18.2358706], [42.5002199, 18.2362832], [42.5001995, 18.236566]], "type": "LineString"}, "id": "4390", "properties": {"display_name": "King Faisal Road", "highway": "trunk", "junction": null, "key": 0, "lanes": null, "length": 216.00701898669124, "maxspeed": null, "name": "\u0637\u0631\u064a\u0642 \u0627\u0644\u0645\u0644\u0643 \u0641\u064a\u0635\u0644", "oneway": true, "osmid": 54934546, "road_segment_id": 4390, "u": 9102539552, "v": 9102539558}, "type": "Feature"}, {"bbox": [42.5001967, 18.236566, 42.5004558, 18.2391151], "geometry": {"coordinates": [[42.5001995, 18.236566], [42.5001967, 18.2369019], [42.5002309, 18.23733], [42.500359, 18.2381102], [42.5004499, 18.2387234], [42.5004558, 18.2391151]], "type": "LineString"}, "id": "4403", "properties": {"display_name": "King Faisal Road", "highway": "trunk", "junction": null, "key": 0, "lanes": null, "length": 285.3108075777498, "maxspeed": null, "name": "\u0637\u0631\u064a\u0642 \u0627\u0644\u0645\u0644\u0643 \u0641\u064a\u0635\u0644", "oneway": true, "osmid": 54934546, "road_segment_id": 4403, "u": 9102539558, "v": 1457222211}, "type": "Feature"}, {"bbox": [42.5139611, 18.2180212, 42.5143492, 18.2182276], "geometry": {"coordinates": [[42.5139611, 18.2180212], [42.5143492, 18.2182276]], "type": "LineString"}, "id": "4450", "properties": {"display_name": "King Faisal Road", "highway": "primary", "junction": null, "key": 0, "lanes": "3", "length": 46.97918970741971, "maxspeed": null, "name": "\u0637\u0631\u064a\u0642 \u0627\u0644\u0645\u0644\u0643 \u0641\u064a\u0635\u0644", "oneway": true, "osmid": 787179214, "road_segment_id": 4450, "u": 9980876269, "v": 7359264672}, "type": "Feature"}, {"bbox": [42.5053471, 18.2330904, 42.5068584, 18.2333331], "geometry": {"coordinates": [[42.5068584, 18.2333331], [42.5060816, 18.2332074], [42.5053471, 18.2330904]], "type": "LineString"}, "id": "4478", "properties": {"display_name": "King Abdulaziz Road", "highway": "trunk", "junction": null, "key": 0, "lanes": null, "length": 161.8770632494036, "maxspeed": null, "name": "\u0637\u0631\u064a\u0642 \u0627\u0644\u0645\u0644\u0643 \u0639\u0628\u062f\u0627\u0644\u0639\u0632\u064a\u0632", "oneway": true, "osmid": 290631446, "road_segment_id": 4478, "u": 10128898469, "v": 1105401078}, "type": "Feature"}, {"bbox": [42.5136806, 18.2178686, 42.5139611, 18.2180212], "geometry": {"coordinates": [[42.5136806, 18.2178686], [42.5137843, 18.2179248], [42.5139611, 18.2180212]], "type": "LineString"}, "id": "4505", "properties": {"display_name": "King Faisal Road", "highway": "primary", "junction": null, "key": 0, "lanes": "3", "length": 34.141966306537725, "maxspeed": null, "name": "\u0637\u0631\u064a\u0642 \u0627\u0644\u0645\u0644\u0643 \u0641\u064a\u0635\u0644", "oneway": true, "osmid": 787179214, "road_segment_id": 4505, "u": 11836472323, "v": 9980876269}, "type": "Feature"}, {"bbox": [42.5100023, 18.2157879, 42.5108875, 18.2162966], "geometry": {"coordinates": [[42.5108875, 18.2162966], [42.5100023, 18.2157879]], "type": "LineString"}, "id": "4574", "properties": {"display_name": "King Faisal Road", "highway": "primary", "junction": null, "key": 0, "lanes": "3", "length": 109.27619685599714, "maxspeed": null, "name": "\u0637\u0631\u064a\u0642 \u0627\u0644\u0645\u0644\u0643 \u0641\u064a\u0635\u0644", "oneway": true, "osmid": 158458200, "road_segment_id": 4574, "u": 13614335135, "v": 13614335136}, "type": "Feature"}, {"bbox": [42.5098269, 18.2157141, 42.5100023, 18.2157879], "geometry": {"coordinates": [[42.5100023, 18.2157879], [42.509893, 18.2157379], [42.5098269, 18.2157141]], "type": "LineString"}, "id": "4576", "properties": {"display_name": "King Faisal Road", "highway": "primary", "junction": null, "key": 0, "lanes": "3", "length": 20.279980216510435, "maxspeed": null, "name": "\u0637\u0631\u064a\u0642 \u0627\u0644\u0645\u0644\u0643 \u0641\u064a\u0635\u0644", "oneway": true, "osmid": 158458200, "road_segment_id": 4576, "u": 13614335136, "v": 1706502999}, "type": "Feature"}], "type": "FeatureCollection"}