{"bbox": [42.4916962, 18.230157100000003, 42.5157183, 18.2362709], "features": [{"bbox": [42.4988664, 18.231947, 42.5005181, 18.232196300000002], "geometry": {"coordinates": [[42.4988664, 18.231947], [42.5005181, 18.232196300000002]], "type": "LineString"}, "id": "3", "properties": {"display_name": "King Abdulaziz Road", "distance_from_center_m": 867.3078246784396, "distance_to_king_abdulaziz_m": 0.0, "highway": "trunk", "junction": null, "key": 0, "lanes": null, "length": 176.62948348740372, "maxspeed": null, "name": "\u0637\u0631\u064a\u0642 \u0627\u0644\u0645\u0644\u0643 \u0639\u0628\u062f\u0627\u0644\u0639\u0632\u064a\u0632", "oneway": true, "osmid": 340235246, "road_segment_id": 3, "u": 688950923, "v": 2116561267}, "type": "Feature"}, {"bbox": [42.5041782, 18.2328995, 42.5042143, 18.2329049], "geometry": {"coordinates": [[42.5042143, 18.2329049], [42.5041782, 18.2328995]], "type": "LineString"}, "id": "21", "properties": {"display_name": "King Abdulaziz Road", "distance_from_center_m": 726.3912337850614, "distance_to_king_abdulaziz_m": 0.0, "highway": "trunk", "junction": null, "key": 0, "lanes": null, "length": 3.8595962201914316, "maxspeed": null, "name": "\u0637\u0631\u064a\u0642 \u0627\u0644\u0645\u0644\u0643 \u0639\u0628\u062f\u0627\u0644\u0639\u0632\u064a\u0632", "oneway": true, "osmid": 290631446, "road_segment_id": 21, "u": 1105400282, "v": 2116561241}, "type": "Feature"}, {"bbox": [42.50202800000001, 18.2325568, 42.5036129, 18.232804299999994], "geometry": {"coordinates": [[42.5036129, 18.232804299999994], [42.50202800000001, 18.2325568]], "type": "LineString"}, "id": "59", "properties": {"display_name": "King Abdulaziz Road", "distance_from_center_m": 742.3952843166222, "distance_to_king_abdulaziz_m": 0.0, "highway": "trunk", "junction": null, "key": 0, "lanes": null, "length": 169.63242678059157, "maxspeed": null, "name": "\u0637\u0631\u064a\u0642 \u0627\u0644\u0645\u0644\u0643 \u0639\u0628\u062f\u0627\u0644\u0639\u0632\u064a\u0632", "oneway": true, "osmid": 290631446, "road_segment_id": 59, "u": 1105400597, "v": 2932562548}, "type": "Feature"}, {"bbox": [42.5042143, 18.2329049, 42.5053471, 18.2330904], "geometry": {"coordinates": [[42.5053471, 18.2330904], [42.5042143, 18.2329049]], "type": "LineString"}, "id": "88", "properties": {"display_name": "King Abdulaziz Road", "distance_from_center_m": 728.737958559673, "distance_to_king_abdulaziz_m": 0.0, "highway": "trunk", "junction": null, "key": 0, "lanes": null, "length": 121.40260462698846, "maxspeed": null, "name": "\u0637\u0631\u064a\u0642 \u0627\u0644\u0645\u0644\u0643 \u0639\u0628\u062f\u0627\u0644\u0639\u0632\u064a\u0632", "oneway": true, "osmid": 290631446, "road_segment_id": 88, "u": 1105401078, "v": 1105400282}, "type": "Feature"}, {"bbox": [42.4939852, 18.2311842, 42.4988664, 18.231947], "geometry": {"coordinates": [[42.4939852, 18.2311842], [42.4940656, 18.231197100000003], [42.4962855, 18.2315551], [42.4964368, 18.231578700000004], [42.4975877, 18.2317585], [42.4981649, 18.231843599999998], [42.4984956, 18.2318924], [42.4988664, 18.231947]], "type": "LineString"}, "id": "209", "properties": {"display_name": "King Abdulaziz Road", "distance_from_center_m": 1105.8883999551467, "distance_to_king_abdulaziz_m": 0.0, "highway": "trunk", "junction": null, "key": 0, "lanes": null, "length": 522.4585504306726, "maxspeed": null, "name": "\u0637\u0631\u064a\u0642 \u0627\u0644\u0645\u0644\u0643 \u0639\u0628\u062f\u0627\u0644\u0639\u0632\u064a\u0632", "oneway": true, "osmid": 340235246, "road_segment_id": 209, "u": 1107416138, "v": 688950923}, "type": "Feature"}, {"bbox": [42.5044254, 18.2328052, 42.5058012, 18.233025299999994], "geometry": {"coordinates": [[42.5044254, 18.2328052], [42.5058012, 18.233025299999994]], "type": "LineString"}, "id": "210", "properties": {"display_name": "King Abdulaziz Road", "distance_from_center_m": 717.3464232078929, "distance_to_king_abdulaziz_m": 0.0, "highway": "trunk", "junction": null, "key": 0, "lanes": null, "length": 147.34808149298755, "maxspeed": null, "name": "\u0637\u0631\u064a\u0642 \u0627\u0644\u0645\u0644\u0643 \u0639\u0628\u062f\u0627\u0644\u0639\u0632\u064a\u0632", "oneway": true, "osmid": 290631447, "road_segment_id": 210, "u": 1107416177, "v": 2920087206}, "type": "Feature"}, {"bbox": [42.4926033, 18.230972299999998, 42.4936274, 18.231128], "geometry": {"coordinates": [[42.4926033, 18.230972299999998], [42.4936274, 18.231128]], "type": "LineString"}, "id": "1009", "properties": {"display_name": "King Abdulaziz Road", "distance_from_center_m": 1395.6183035362649, "distance_to_king_abdulaziz_m": 0.0, "highway": "trunk", "junction": null, "key": 0, "lanes": null, "length": 109.53556474673125, "maxspeed": null, "name": "\u0637\u0631\u064a\u0642 \u0627\u0644\u0645\u0644\u0643 \u0639\u0628\u062f\u0627\u0644\u0639\u0632\u064a\u0632", "oneway": true, "osmid": 340235246, "road_segment_id": 1009, "u": 1540085491, "v": 2920084120}, "type": "Feature"}, {"bbox": [42.4939336, 18.2312771, 42.494894, 18.231437900000003], "geometry": {"coordinates": [[42.494894, 18.231437900000003], [42.4939336, 18.2312771]], "type": "LineString"}, "id": "1010", "properties": {"display_name": "King Abdulaziz Road", "distance_from_center_m": 1282.7899224847, "distance_to_king_abdulaziz_m": 0.0, "highway": "trunk", "junction": null, "key": 0, "lanes": null, "length": 102.99481125741008, "maxspeed": null, "name": "\u0637\u0631\u064a\u0642 \u0627\u0644\u0645\u0644\u0643 \u0639\u0628\u062f\u0627\u0644\u0639\u0632\u064a\u0632", "oneway": true, "osmid": 95512377, "road_segment_id": 1010, "u": 1540085493, "v": 2919142285}, "type": "Feature"}, {"bbox": [42.494894, 18.231437900000003, 42.4982206, 18.231975], "geometry": {"coordinates": [[42.4982206, 18.231975], [42.4962576, 18.231670699999995], [42.494894, 18.231437900000003]], "type": "LineString"}, "id": "1013", "properties": {"display_name": "King Abdulaziz Road", "distance_from_center_m": 1102.0926764837207, "distance_to_king_abdulaziz_m": 0.0, "highway": "trunk", "junction": null, "key": 0, "lanes": null, "length": 356.38326604679685, "maxspeed": null, "name": "\u0637\u0631\u064a\u0642 \u0627\u0644\u0645\u0644\u0643 \u0639\u0628\u062f\u0627\u0644\u0639\u0632\u064a\u0632", "oneway": true, "osmid": 95512377, "road_segment_id": 1013, "u": 1540085498, "v": 1540085493}, "type": "Feature"}, {"bbox": [42.5134726, 18.232643, 42.5137051, 18.2328906], "geometry": {"coordinates": [[42.5134726, 18.2328906], [42.5137051, 18.232643]], "type": "LineString"}, "id": "1141", "properties": {"display_name": "King Abdulaziz Road", "distance_from_center_m": 1114.825224914062, "distance_to_king_abdulaziz_m": 0.0, "highway": "trunk", "junction": null, "key": 0, "lanes": null, "length": 36.891019148007665, "maxspeed": null, "name": "\u0637\u0631\u064a\u0642 \u0627\u0644\u0645\u0644\u0643 \u0639\u0628\u062f\u0627\u0644\u0639\u0632\u064a\u0632", "oneway": true, "osmid": 290631447, "road_segment_id": 1141, "u": 1618334776, "v": 3283857213}, "type": "Feature"}, {"bbox": [42.5105756, 18.2328906, 42.5134726, 18.2339297], "geometry": {"coordinates": [[42.5105756, 18.233773800000005], [42.511331, 18.233905499999995], [42.51171010000001, 18.2339297], [42.5121237, 18.2338768], [42.5123841, 18.2337835], [42.51257590000001, 18.2336859], [42.5128295, 18.2335254], [42.5130327, 18.2333432], [42.5133323, 18.233034599999993], [42.5134726, 18.2328906]], "type": "LineString"}, "id": "1198", "properties": {"display_name": "King Abdulaziz Road", "distance_from_center_m": 1070.5210449436158, "distance_to_king_abdulaziz_m": 0.0, "highway": "trunk", "junction": null, "key": 0, "lanes": null, "length": 347.8782196457913, "maxspeed": null, "name": "\u0637\u0631\u064a\u0642 \u0627\u0644\u0645\u0644\u0643 \u0639\u0628\u062f\u0627\u0644\u0639\u0632\u064a\u0632", "oneway": true, "osmid": 290631447, "road_segment_id": 1198, "u": 1618340816, "v": 1618334776}, "type": "Feature"}, {"bbox": [42.5036129, 18.232804299999994, 42.5041782, 18.2328995], "geometry": {"coordinates": [[42.5041782, 18.2328995], [42.5036129, 18.232804299999994]], "type": "LineString"}, "id": "1429", "properties": {"display_name": "King Abdulaziz Road", "distance_from_center_m": 727.1640171904863, "distance_to_king_abdulaziz_m": 0.0, "highway": "trunk", "junction": null, "key": 0, "lanes": null, "length": 60.63383855364192, "maxspeed": null, "name": "\u0637\u0631\u064a\u0642 \u0627\u0644\u0645\u0644\u0643 \u0639\u0628\u062f\u0627\u0644\u0639\u0632\u064a\u0632", "oneway": true, "osmid": 290631446, "road_segment_id": 1429, "u": 2116561241, "v": 1105400597}, "type": "Feature"}, {"bbox": [42.4982206, 18.231975, 42.4988248, 18.232076799999998], "geometry": {"coordinates": [[42.4988248, 18.232076799999998], [42.4985853, 18.232041799999998], [42.4982206, 18.231975]], "type": "LineString"}, "id": "1434", "properties": {"display_name": "King Abdulaziz Road", "distance_from_center_m": 954.4337795905768, "distance_to_king_abdulaziz_m": 0.0, "highway": "trunk", "junction": null, "key": 0, "lanes": null, "length": 64.81857387100881, "maxspeed": null, "name": "\u0637\u0631\u064a\u0642 \u0627\u0644\u0645\u0644\u0643 \u0639\u0628\u062f\u0627\u0644\u0639\u0632\u064a\u0632", "oneway": true, "osmid": 95512377, "road_segment_id": 1434, "u": 2116561255, "v": 1540085498}, "type": "Feature"}, {"bbox": [42.5005181, 18.232196300000002, 42.5022268, 18.232473899999995], "geometry": {"coordinates": [[42.5005181, 18.232196300000002], [42.5013591, 18.232342199999998], [42.5017865, 18.232398899999996], [42.5022268, 18.232473899999995]], "type": "LineString"}, "id": "1435", "properties": {"display_name": "King Abdulaziz Road", "distance_from_center_m": 779.1085843607697, "distance_to_king_abdulaziz_m": 0.0, "highway": "trunk", "junction": null, "key": 0, "lanes": null, "length": 183.1098174233287, "maxspeed": null, "name": "\u0637\u0631\u064a\u0642 \u0627\u0644\u0645\u0644\u0643 \u0639\u0628\u062f\u0627\u0644\u0639\u0632\u064a\u0632", "oneway": true, "osmid": "95512376;340235246;290631447", "road_segment_id": 1435, "u": 2116561267, "v": 2932562549}, "type": "Feature"}, {"bbox": [42.4916962, 18.230957499999995, 42.4918293, 18.231939799999996], "geometry": {"coordinates": [[42.4918293, 18.230957499999995], [42.4917804, 18.2313181], [42.4916962, 18.231939799999996]], "type": "LineString"}, "id": "1657", "properties": {"display_name": "Unnamed Major Road", "distance_from_center_m": 1545.012793369638, "distance_to_king_abdulaziz_m": 0.0, "highway": "tertiary", "junction": null, "key": 0, "lanes": null, "length": 110.12776578289218, "maxspeed": null, "name": null, "oneway": false, "osmid": 288279963, "road_segment_id": 1657, "u": 2918364137, "v": 3734283017}, "type": "Feature"}, {"bbox": [42.5058623, 18.2307792, 42.5086902, 18.2362709], "geometry": {"coordinates": [[42.5058623, 18.2362709], [42.5061228, 18.235713400000005], [42.5067676, 18.234423900000003], [42.5070671, 18.233835299999996], [42.5076032, 18.232789], [42.5083561, 18.2313297], [42.5086902, 18.2307792]], "type": "LineString"}, "id": "2330", "properties": {"display_name": "Unnamed Major Road", "distance_from_center_m": 806.6854206730325, "distance_to_king_abdulaziz_m": 0.0, "highway": "primary", "junction": null, "key": 0, "lanes": null, "length": 679.9948969075813, "maxspeed": null, "name": null, "oneway": true, "osmid": "962643137;554330140;148769149", "road_segment_id": 2330, "u": 2918471647, "v": 13608404462}, "type": "Feature"}, {"bbox": [42.5058623, 18.233885299999997, 42.5069003, 18.2362709], "geometry": {"coordinates": [[42.5058623, 18.2362709], [42.5059499, 18.2357819], [42.5069003, 18.233885299999997]], "type": "LineString"}, "id": "2331", "properties": {"display_name": "Unnamed Major Road", "distance_from_center_m": 959.4928563926677, "distance_to_king_abdulaziz_m": 59.581166602486356, "highway": "primary", "junction": null, "key": 0, "lanes": null, "length": 288.7160519497419, "maxspeed": null, "name": null, "oneway": true, "osmid": 1106930462, "road_segment_id": 2331, "u": 2918471647, "v": 10128898464}, "type": "Feature"}, {"bbox": [42.5084228, 18.2335828, 42.5105904, 18.2339174], "geometry": {"coordinates": [[42.5105904, 18.2339174], [42.5097757, 18.2337844], [42.5096935, 18.233771299999997], [42.5084228, 18.2335828]], "type": "LineString"}, "id": "2409", "properties": {"display_name": "King Abdulaziz Road", "distance_from_center_m": 918.5769811951104, "distance_to_king_abdulaziz_m": 0.0, "highway": "trunk", "junction": null, "key": 0, "lanes": null, "length": 231.9340883913676, "maxspeed": null, "name": "\u0637\u0631\u064a\u0642 \u0627\u0644\u0645\u0644\u0643 \u0639\u0628\u062f\u0627\u0644\u0639\u0632\u064a\u0632", "oneway": true, "osmid": 290631446, "road_segment_id": 2409, "u": 2918588432, "v": 9095952041}, "type": "Feature"}, {"bbox": [42.5095687, 18.2338673, 42.5105904, 18.2339174], "geometry": {"coordinates": [[42.5105904, 18.2339174], [42.5098901, 18.233909899999997], [42.5095687, 18.2338673]], "type": "LineString"}, "id": "2410", "properties": {"display_name": "Unnamed Major Road", "distance_from_center_m": 963.8220995603248, "distance_to_king_abdulaziz_m": 0.0, "highway": "primary", "junction": null, "key": 0, "lanes": null, "length": 108.23705565743708, "maxspeed": null, "name": null, "oneway": true, "osmid": 1106930463, "road_segment_id": 2410, "u": 2918588432, "v": 10128898472}, "type": "Feature"}, {"bbox": [42.4918293, 18.230957499999995, 42.4939336, 18.2312771], "geometry": {"coordinates": [[42.4939336, 18.2312771], [42.4921324, 18.2310035], [42.4918293, 18.230957499999995]], "type": "LineString"}, "id": "2509", "properties": {"display_name": "King Abdulaziz Road", "distance_from_center_m": 1421.3746434065877, "distance_to_king_abdulaziz_m": 0.0, "highway": "trunk", "junction": null, "key": 0, "lanes": null, "length": 225.06559892636028, "maxspeed": null, "name": "\u0637\u0631\u064a\u0642 \u0627\u0644\u0645\u0644\u0643 \u0639\u0628\u062f\u0627\u0644\u0639\u0632\u064a\u0632", "oneway": true, "osmid": 95512377, "road_segment_id": 2509, "u": 2919142285, "v": 2918364137}, "type": "Feature"}, {"bbox": [42.4936274, 18.231128, 42.4939852, 18.2311842], "geometry": {"coordinates": [[42.4936274, 18.231128], [42.4939852, 18.2311842]], "type": "LineString"}, "id": "3629", "properties": {"display_name": "King Abdulaziz Road", "distance_from_center_m": 1332.3857401042073, "distance_to_king_abdulaziz_m": 0.0, "highway": "trunk", "junction": null, "key": 0, "lanes": null, "length": 38.301680264293054, "maxspeed": null, "name": "\u0637\u0631\u064a\u0642 \u0627\u0644\u0645\u0644\u0643 \u0639\u0628\u062f\u0627\u0644\u0639\u0632\u064a\u0632", "oneway": true, "osmid": 340235246, "road_segment_id": 3629, "u": 2920084120, "v": 1107416138}, "type": "Feature"}, {"bbox": [42.5058012, 18.233025299999994, 42.5067349, 18.233177499999996], "geometry": {"coordinates": [[42.5058012, 18.233025299999994], [42.5064967, 18.2331313], [42.5067349, 18.233177499999996]], "type": "LineString"}, "id": "3682", "properties": {"display_name": "King Abdulaziz Road", "distance_from_center_m": 742.7836256319861, "distance_to_king_abdulaziz_m": 0.0, "highway": "trunk", "junction": null, "key": 0, "lanes": null, "length": 100.06889334977342, "maxspeed": null, "name": "\u0637\u0631\u064a\u0642 \u0627\u0644\u0645\u0644\u0643 \u0639\u0628\u062f\u0627\u0644\u0639\u0632\u064a\u0632", "oneway": true, "osmid": 290631447, "road_segment_id": 3682, "u": 2920087206, "v": 9095952039}, "type": "Feature"}, {"bbox": [42.4988248, 18.232076799999998, 42.500824, 18.232375099999995], "geometry": {"coordinates": [[42.500824, 18.232375099999995], [42.4999555, 18.2322423], [42.4988248, 18.232076799999998]], "type": "LineString"}, "id": "3896", "properties": {"display_name": "King Abdulaziz Road", "distance_from_center_m": 869.994480714117, "distance_to_king_abdulaziz_m": 0.0, "highway": "trunk", "junction": null, "key": 0, "lanes": null, "length": 213.73156536858662, "maxspeed": null, "name": "\u0637\u0631\u064a\u0642 \u0627\u0644\u0645\u0644\u0643 \u0639\u0628\u062f\u0627\u0644\u0639\u0632\u064a\u0632", "oneway": true, "osmid": 95512377, "road_segment_id": 3896, "u": 2932562524, "v": 2116561255}, "type": "Feature"}, {"bbox": [42.500824, 18.232375099999995, 42.50202800000001, 18.2325568], "geometry": {"coordinates": [[42.50202800000001, 18.2325568], [42.5017749, 18.2325165], [42.5013343, 18.232447299999997], [42.500824, 18.232375099999995]], "type": "LineString"}, "id": "3899", "properties": {"display_name": "King Abdulaziz Road", "distance_from_center_m": 787.7474964800402, "distance_to_king_abdulaziz_m": 0.0, "highway": "trunk", "junction": null, "key": 0, "lanes": null, "length": 128.75708703488135, "maxspeed": null, "name": "\u0637\u0631\u064a\u0642 \u0627\u0644\u0645\u0644\u0643 \u0639\u0628\u062f\u0627\u0644\u0639\u0632\u064a\u0632", "oneway": true, "osmid": "95512377;290631446;95512375", "road_segment_id": 3899, "u": 2932562548, "v": 2932562524}, "type": "Feature"}, {"bbox": [42.5022268, 18.232473899999995, 42.5038212, 18.232709], "geometry": {"coordinates": [[42.5022268, 18.232473899999995], [42.5025618, 18.232533399999998], [42.5038212, 18.232709]], "type": "LineString"}, "id": "3901", "properties": {"display_name": "King Abdulaziz Road", "distance_from_center_m": 726.0513522190055, "distance_to_king_abdulaziz_m": 0.0, "highway": "trunk", "junction": null, "key": 0, "lanes": null, "length": 170.42735169081772, "maxspeed": null, "name": "\u0637\u0631\u064a\u0642 \u0627\u0644\u0645\u0644\u0643 \u0639\u0628\u062f\u0627\u0644\u0639\u0632\u064a\u0632", "oneway": true, "osmid": 290631447, "road_segment_id": 3901, "u": 2932562549, "v": 9095952051}, "type": "Feature"}, {"bbox": [42.5105904, 18.232718599999995, 42.5138134, 18.2340484], "geometry": {"coordinates": [[42.5138134, 18.232718599999995], [42.5135099, 18.233047099999997], [42.513154, 18.233417], [42.512927, 18.233629500000003], [42.5126546, 18.2338052], [42.5124336, 18.2339017], [42.5121325, 18.2339932], [42.5118005, 18.2340484], [42.5114751, 18.234036899999996], [42.5105904, 18.2339174]], "type": "LineString"}, "id": "3903", "properties": {"display_name": "King Abdulaziz Road", "distance_from_center_m": 1087.4603912782645, "distance_to_king_abdulaziz_m": 0.0, "highway": "trunk", "junction": null, "key": 0, "lanes": null, "length": 396.1893859782166, "maxspeed": null, "name": "\u0637\u0631\u064a\u0642 \u0627\u0644\u0645\u0644\u0643 \u0639\u0628\u062f\u0627\u0644\u0639\u0632\u064a\u0632", "oneway": true, "osmid": 290631446, "road_segment_id": 3903, "u": 3283857210, "v": 2918588432}, "type": "Feature"}, {"bbox": [42.5137051, 18.230220599999992, 42.5157183, 18.232643], "geometry": {"coordinates": [[42.5137051, 18.232643], [42.5141739, 18.231999200000004], [42.5148943, 18.231247], [42.5155976, 18.230475999999996], [42.5157183, 18.230220599999992]], "type": "LineString"}, "id": "3904", "properties": {"display_name": "Unnamed Major Road", "distance_from_center_m": 1131.2730016578732, "distance_to_king_abdulaziz_m": 0.0, "highway": "motorway", "junction": null, "key": 0, "lanes": null, "length": 344.67179289277203, "maxspeed": null, "name": null, "oneway": true, "osmid": 289500254, "road_segment_id": 3904, "u": 3283857213, "v": 2930606709}, "type": "Feature"}, {"bbox": [42.4916962, 18.230957499999995, 42.4918293, 18.231939799999996], "geometry": {"coordinates": [[42.4916962, 18.231939799999996], [42.4917804, 18.2313181], [42.4918293, 18.230957499999995]], "type": "LineString"}, "id": "3923", "properties": {"display_name": "Unnamed Major Road", "distance_from_center_m": 1545.012793369638, "distance_to_king_abdulaziz_m": 0.0, "highway": "tertiary", "junction": null, "key": 0, "lanes": null, "length": 110.12776578289218, "maxspeed": null, "name": null, "oneway": false, "osmid": 288279963, "road_segment_id": 3923, "u": 3734283017, "v": 2918364137}, "type": "Feature"}, {"bbox": [42.507988, 18.23127119999999, 42.5086712, 18.2326614], "geometry": {"coordinates": [[42.5086712, 18.23127119999999], [42.508391, 18.231856199999996], [42.507988, 18.2326614]], "type": "LineString"}, "id": "4043", "properties": {"display_name": "Unnamed Major Road", "distance_from_center_m": 686.4187970918836, "distance_to_king_abdulaziz_m": 78.39772377490623, "highway": "primary", "junction": null, "key": 0, "lanes": null, "length": 170.59990562850373, "maxspeed": null, "name": null, "oneway": true, "osmid": 983758250, "road_segment_id": 4043, "u": 7359264708, "v": 9095968196}, "type": "Feature"}, {"bbox": [42.5075968, 18.233317799999995, 42.5105756, 18.233773800000005], "geometry": {"coordinates": [[42.5075968, 18.233317799999995], [42.5100112, 18.233693800000005], [42.5105756, 18.233773800000005]], "type": "LineString"}, "id": "4044", "properties": {"display_name": "King Abdulaziz Road", "distance_from_center_m": 878.6588623005799, "distance_to_king_abdulaziz_m": 0.0, "highway": "trunk", "junction": null, "key": 0, "lanes": null, "length": 318.66165697409974, "maxspeed": null, "name": "\u0637\u0631\u064a\u0642 \u0627\u0644\u0645\u0644\u0643 \u0639\u0628\u062f\u0627\u0644\u0639\u0632\u064a\u0632", "oneway": true, "osmid": 290631447, "road_segment_id": 4044, "u": 7359264718, "v": 1618340816}, "type": "Feature"}, {"bbox": [42.5067349, 18.233177499999996, 42.5075968, 18.233317799999995], "geometry": {"coordinates": [[42.5067349, 18.233177499999996], [42.5075968, 18.233317799999995]], "type": "LineString"}, "id": "4242", "properties": {"display_name": "King Abdulaziz Road", "distance_from_center_m": 776.5906324991907, "distance_to_king_abdulaziz_m": 0.0, "highway": "trunk", "junction": null, "key": 0, "lanes": null, "length": 92.35421203808251, "maxspeed": null, "name": "\u0637\u0631\u064a\u0642 \u0627\u0644\u0645\u0644\u0643 \u0639\u0628\u062f\u0627\u0644\u0639\u0632\u064a\u0632", "oneway": true, "osmid": 290631447, "road_segment_id": 4242, "u": 9095952039, "v": 7359264718}, "type": "Feature"}, {"bbox": [42.5067349, 18.2327378, 42.5075041, 18.233177499999996], "geometry": {"coordinates": [[42.5067349, 18.233177499999996], [42.50711710000001, 18.233083199999996], [42.5073531, 18.2329187], [42.5075041, 18.2327378]], "type": "LineString"}, "id": "4243", "properties": {"display_name": "Unnamed Major Road", "distance_from_center_m": 750.8734707994414, "distance_to_king_abdulaziz_m": 0.0, "highway": "primary", "junction": null, "key": 0, "lanes": null, "length": 98.2907479483035, "maxspeed": null, "name": null, "oneway": true, "osmid": 983758251, "road_segment_id": 4243, "u": 9095952039, "v": 9095968203}, "type": "Feature"}, {"bbox": [42.5068584, 18.2333331, 42.5084228, 18.2335828], "geometry": {"coordinates": [[42.5084228, 18.2335828], [42.5068584, 18.2333331]], "type": "LineString"}, "id": "4244", "properties": {"display_name": "King Abdulaziz Road", "distance_from_center_m": 812.4778428394083, "distance_to_king_abdulaziz_m": 0.0, "highway": "trunk", "junction": null, "key": 0, "lanes": null, "length": 167.53606399798744, "maxspeed": null, "name": "\u0637\u0631\u064a\u0642 \u0627\u0644\u0645\u0644\u0643 \u0639\u0628\u062f\u0627\u0644\u0639\u0632\u064a\u0632", "oneway": true, "osmid": 290631446, "road_segment_id": 4244, "u": 9095952041, "v": 10128898469}, "type": "Feature"}, {"bbox": [42.5038212, 18.232709, 42.5044254, 18.2328052], "geometry": {"coordinates": [[42.5038212, 18.232709], [42.5044254, 18.2328052]], "type": "LineString"}, "id": "4246", "properties": {"display_name": "King Abdulaziz Road", "distance_from_center_m": 711.9890392454334, "distance_to_king_abdulaziz_m": 0.0, "highway": "trunk", "junction": null, "key": 0, "lanes": null, "length": 64.7013632699688, "maxspeed": null, "name": "\u0637\u0631\u064a\u0642 \u0627\u0644\u0645\u0644\u0643 \u0639\u0628\u062f\u0627\u0644\u0639\u0632\u064a\u0632", "oneway": true, "osmid": 290631447, "road_segment_id": 4246, "u": 9095952051, "v": 1107416177}, "type": "Feature"}, {"bbox": [42.5079563, 18.2326614, 42.5089615, 18.2333936], "geometry": {"coordinates": [[42.507988, 18.2326614], [42.5079563, 18.2328464], [42.5079991, 18.233021099999995], [42.5081312, 18.233175399999997], [42.5083238, 18.233270699999995], [42.5089615, 18.2333936]], "type": "LineString"}, "id": "4247", "properties": {"display_name": "Unnamed Major Road", "distance_from_center_m": 805.2740613552904, "distance_to_king_abdulaziz_m": 14.943661406528912, "highway": "primary", "junction": null, "key": 0, "lanes": null, "length": 154.55718361609462, "maxspeed": null, "name": null, "oneway": true, "osmid": 983758250, "road_segment_id": 4247, "u": 9095968196, "v": 10128898451}, "type": "Feature"}, {"bbox": [42.5075041, 18.231283799999996, 42.5082519, 18.2327378], "geometry": {"coordinates": [[42.5075041, 18.2327378], [42.5082519, 18.231283799999996]], "type": "LineString"}, "id": "4249", "properties": {"display_name": "Unnamed Major Road", "distance_from_center_m": 670.3839337864474, "distance_to_king_abdulaziz_m": 61.666397412943034, "highway": "primary", "junction": null, "key": 0, "lanes": null, "length": 179.93629315275072, "maxspeed": null, "name": null, "oneway": true, "osmid": 983758251, "road_segment_id": 4249, "u": 9095968203, "v": 9095968205}, "type": "Feature"}, {"bbox": [42.5082519, 18.230157100000003, 42.5089461, 18.231283799999996], "geometry": {"coordinates": [[42.5082519, 18.231283799999996], [42.5089461, 18.230157100000003]], "type": "LineString"}, "id": "4251", "properties": {"display_name": "Unnamed Major Road", "distance_from_center_m": 582.7503268980666, "distance_to_king_abdulaziz_m": 233.4499300401936, "highway": "primary", "junction": null, "key": 0, "lanes": null, "length": 145.15967370337668, "maxspeed": null, "name": null, "oneway": true, "osmid": 983758251, "road_segment_id": 4251, "u": 9095968205, "v": 10128898458}, "type": "Feature"}, {"bbox": [42.5138134, 18.231217299999997, 42.5153072, 18.232718599999995], "geometry": {"coordinates": [[42.5153072, 18.231217299999997], [42.5148936, 18.231645399999998], [42.514623, 18.231942899999996], [42.5139862, 18.232627299999997], [42.5138134, 18.232718599999995]], "type": "LineString"}, "id": "4411", "properties": {"display_name": "Unnamed Major Road", "distance_from_center_m": 1149.6851968924998, "distance_to_king_abdulaziz_m": 0.0, "highway": "motorway", "junction": null, "key": 0, "lanes": null, "length": 230.76746228295576, "maxspeed": null, "name": null, "oneway": true, "osmid": 289500255, "road_segment_id": 4411, "u": 9102539578, "v": 3283857210}, "type": "Feature"}, {"bbox": [42.5089615, 18.2333936, 42.5100223, 18.233582799999997], "geometry": {"coordinates": [[42.5089615, 18.2333936], [42.5100223, 18.233582799999997]], "type": "LineString"}, "id": "4470", "properties": {"display_name": "Unnamed Major Road", "distance_from_center_m": 892.7242725188057, "distance_to_king_abdulaziz_m": 12.320315883321484, "highway": "primary", "junction": null, "key": 0, "lanes": null, "length": 113.99131315595876, "maxspeed": null, "name": null, "oneway": true, "osmid": 983758250, "road_segment_id": 4470, "u": 10128898451, "v": 10128898452}, "type": "Feature"}, {"bbox": [42.5100223, 18.233582799999997, 42.5105756, 18.233773800000005], "geometry": {"coordinates": [[42.5100223, 18.233582799999997], [42.5105756, 18.233773800000005]], "type": "LineString"}, "id": "4471", "properties": {"display_name": "Unnamed Major Road", "distance_from_center_m": 954.801757462708, "distance_to_king_abdulaziz_m": 0.0, "highway": "primary", "junction": null, "key": 0, "lanes": null, "length": 62.174860736828975, "maxspeed": null, "name": null, "oneway": true, "osmid": 983758250, "road_segment_id": 4471, "u": 10128898452, "v": 1618340816}, "type": "Feature"}, {"bbox": [42.5068584, 18.2333331, 42.5070082, 18.233885299999997], "geometry": {"coordinates": [[42.5069003, 18.233885299999997], [42.5069743, 18.23371849999999], [42.5070082, 18.2336248], [42.5069979, 18.2335139], [42.506962, 18.233442000000004], [42.5068584, 18.2333331]], "type": "LineString"}, "id": "4476", "properties": {"display_name": "Unnamed Major Road", "distance_from_center_m": 809.565868471801, "distance_to_king_abdulaziz_m": 0.0, "highway": "primary", "junction": null, "key": 0, "lanes": null, "length": 68.6915204266727, "maxspeed": null, "name": null, "oneway": true, "osmid": 1106930462, "road_segment_id": 4476, "u": 10128898464, "v": 10128898469}, "type": "Feature"}, {"bbox": [42.5053471, 18.2330904, 42.5068584, 18.2333331], "geometry": {"coordinates": [[42.5068584, 18.2333331], [42.5060816, 18.233207400000005], [42.5053471, 18.2330904]], "type": "LineString"}, "id": "4478", "properties": {"display_name": "King Abdulaziz Road", "distance_from_center_m": 753.2945793628459, "distance_to_king_abdulaziz_m": 0.0, "highway": "trunk", "junction": null, "key": 0, "lanes": null, "length": 161.8770632494036, "maxspeed": null, "name": "\u0637\u0631\u064a\u0642 \u0627\u0644\u0645\u0644\u0643 \u0639\u0628\u062f\u0627\u0644\u0639\u0632\u064a\u0632", "oneway": true, "osmid": 290631446, "road_segment_id": 4478, "u": 10128898469, "v": 1105401078}, "type": "Feature"}, {"bbox": [42.5085767, 18.233711299999996, 42.5095687, 18.2338673], "geometry": {"coordinates": [[42.5095687, 18.2338673], [42.5085767, 18.233711299999996]], "type": "LineString"}, "id": "4479", "properties": {"display_name": "Unnamed Major Road", "distance_from_center_m": 901.9802832302184, "distance_to_king_abdulaziz_m": 11.562676560961284, "highway": "primary", "junction": null, "key": 0, "lanes": null, "length": 106.19315897919363, "maxspeed": null, "name": null, "oneway": true, "osmid": 1106930463, "road_segment_id": 4479, "u": 10128898472, "v": 10128905937}, "type": "Feature"}, {"bbox": [42.5074109, 18.2336338, 42.5085767, 18.2338474], "geometry": {"coordinates": [[42.5085767, 18.233711299999996], [42.5080888, 18.2336338], [42.5078528, 18.233666999999993], [42.5076234, 18.2337458], [42.5074109, 18.2338474]], "type": "LineString"}, "id": "4490", "properties": {"display_name": "Unnamed Major Road", "distance_from_center_m": 849.0547986422517, "distance_to_king_abdulaziz_m": 11.366329766833347, "highway": "primary", "junction": null, "key": 0, "lanes": null, "length": 128.32870721192108, "maxspeed": null, "name": null, "oneway": true, "osmid": 1106930463, "road_segment_id": 4490, "u": 10128905937, "v": 10128898476}, "type": "Feature"}], "type": "FeatureCollection"}