{"bbox": [42.4926033, 18.2276536, 42.5184795, 18.2339297], "features": [{"bbox": [42.4988664, 18.231947, 42.5005181, 18.2321963], "geometry": {"coordinates": [[42.4988664, 18.231947], [42.5005181, 18.2321963]], "type": "LineString"}, "id": "3", "properties": {"bearing_difference": 35.9701833773089, "capacity": null, "congestion_level": null, "direction_modified": true, "highway": "trunk", "intervention": "King Abdulaziz one-way candidate", "is_study_corridor": true, "junction": null, "key": 0, "lane_modified": false, "lanes": null, "length": 176.62948348740372, "maxspeed": null, "name": "\u0637\u0631\u064a\u0642 \u0627\u0644\u0645\u0644\u0643 \u0639\u0628\u062f\u0627\u0644\u0639\u0632\u064a\u0632", "needs_lane_data": true, "needs_speed_data": true, "observed_speed": null, "oneway": true, "osmid": 340235246, "road_open": true, "road_segment_id": 3, "scenario": "King Abdulaziz One-Way \u2014 NE", "scenario_id": "S1A", "segment_bearing": 80.9701833773089, "signal_modified": false, "speed_modified": false, "target_direction": true, "target_road": true, "traffic_volume": null, "travel_time": null, "u": 688950923, "v": 2116561267, "vkt": null}, "type": "Feature"}, {"bbox": [42.4939852, 18.2311842, 42.4988664, 18.231947], "geometry": {"coordinates": [[42.4939852, 18.2311842], [42.4940656, 18.2311971], [42.4962855, 18.2315551], [42.4964368, 18.2315787], [42.4975877, 18.2317585], [42.4981649, 18.2318436], [42.4984956, 18.2318924], [42.4988664, 18.231947]], "type": "LineString"}, "id": "209", "properties": {"bearing_difference": 35.65592292118396, "capacity": null, "congestion_level": null, "direction_modified": true, "highway": "trunk", "intervention": "King Abdulaziz one-way candidate", "is_study_corridor": true, "junction": null, "key": 0, "lane_modified": false, "lanes": null, "length": 522.4585504306726, "maxspeed": null, "name": "\u0637\u0631\u064a\u0642 \u0627\u0644\u0645\u0644\u0643 \u0639\u0628\u062f\u0627\u0644\u0639\u0632\u064a\u0632", "needs_lane_data": true, "needs_speed_data": true, "observed_speed": null, "oneway": true, "osmid": 340235246, "road_open": true, "road_segment_id": 209, "scenario": "King Abdulaziz One-Way \u2014 NE", "scenario_id": "S1A", "segment_bearing": 80.65592292118396, "signal_modified": false, "speed_modified": false, "target_direction": true, "target_road": true, "traffic_volume": null, "travel_time": null, "u": 1107416138, "v": 688950923, "vkt": null}, "type": "Feature"}, {"bbox": [42.5044254, 18.2328052, 42.5058012, 18.2330253], "geometry": {"coordinates": [[42.5044254, 18.2328052], [42.5058012, 18.2330253]], "type": "LineString"}, "id": "210", "properties": {"bearing_difference": 35.43883175848384, "capacity": null, "congestion_level": null, "direction_modified": true, "highway": "trunk", "intervention": "King Abdulaziz one-way candidate", "is_study_corridor": true, "junction": null, "key": 0, "lane_modified": false, "lanes": null, "length": 147.34808149298755, "maxspeed": null, "name": "\u0637\u0631\u064a\u0642 \u0627\u0644\u0645\u0644\u0643 \u0639\u0628\u062f\u0627\u0644\u0639\u0632\u064a\u0632", "needs_lane_data": true, "needs_speed_data": true, "observed_speed": null, "oneway": true, "osmid": 290631447, "road_open": true, "road_segment_id": 210, "scenario": "King Abdulaziz One-Way \u2014 NE", "scenario_id": "S1A", "segment_bearing": 80.43883175848384, "signal_modified": false, "speed_modified": false, "target_direction": true, "target_road": true, "traffic_volume": null, "travel_time": null, "u": 1107416177, "v": 2920087206, "vkt": null}, "type": "Feature"}, {"bbox": [42.4926033, 18.2309723, 42.4936274, 18.231128], "geometry": {"coordinates": [[42.4926033, 18.2309723], [42.4936274, 18.231128]], "type": "LineString"}, "id": "1009", "properties": {"bearing_difference": 35.90559211003949, "capacity": null, "congestion_level": null, "direction_modified": true, "highway": "trunk", "intervention": "King Abdulaziz one-way candidate", "is_study_corridor": true, "junction": null, "key": 0, "lane_modified": false, "lanes": null, "length": 109.53556474673125, "maxspeed": null, "name": "\u0637\u0631\u064a\u0642 \u0627\u0644\u0645\u0644\u0643 \u0639\u0628\u062f\u0627\u0644\u0639\u0632\u064a\u0632", "needs_lane_data": true, "needs_speed_data": true, "observed_speed": null, "oneway": true, "osmid": 340235246, "road_open": true, "road_segment_id": 1009, "scenario": "King Abdulaziz One-Way \u2014 NE", "scenario_id": "S1A", "segment_bearing": 80.90559211003949, "signal_modified": false, "speed_modified": false, "target_direction": true, "target_road": true, "traffic_volume": null, "travel_time": null, "u": 1540085491, "v": 2920084120, "vkt": null}, "type": "Feature"}, {"bbox": [42.5105756, 18.2328906, 42.5134726, 18.2339297], "geometry": {"coordinates": [[42.5105756, 18.2337738], [42.511331, 18.2339055], [42.5117101, 18.2339297], [42.5121237, 18.2338768], [42.5123841, 18.2337835], [42.5125759, 18.2336859], [42.5128295, 18.2335254], [42.5130327, 18.2333432], [42.5133323, 18.2330346], [42.5134726, 18.2328906]], "type": "LineString"}, "id": "1198", "properties": {"bearing_difference": 62.795326754452276, "capacity": null, "congestion_level": null, "direction_modified": true, "highway": "trunk", "intervention": "King Abdulaziz one-way candidate", "is_study_corridor": true, "junction": null, "key": 0, "lane_modified": false, "lanes": null, "length": 347.8782196457913, "maxspeed": null, "name": "\u0637\u0631\u064a\u0642 \u0627\u0644\u0645\u0644\u0643 \u0639\u0628\u062f\u0627\u0644\u0639\u0632\u064a\u0632", "needs_lane_data": true, "needs_speed_data": true, "observed_speed": null, "oneway": true, "osmid": 290631447, "road_open": true, "road_segment_id": 1198, "scenario": "King Abdulaziz One-Way \u2014 NE", "scenario_id": "S1A", "segment_bearing": 107.79532675445228, "signal_modified": false, "speed_modified": false, "target_direction": true, "target_road": true, "traffic_volume": null, "travel_time": null, "u": 1618340816, "v": 1618334776, "vkt": null}, "type": "Feature"}, {"bbox": [42.5005181, 18.2321963, 42.5022268, 18.2324739], "geometry": {"coordinates": [[42.5005181, 18.2321963], [42.5013591, 18.2323422], [42.5017865, 18.2323989], [42.5022268, 18.2324739]], "type": "LineString"}, "id": "1435", "properties": {"bearing_difference": 35.29321811146525, "capacity": null, "congestion_level": null, "direction_modified": true, "highway": "trunk", "intervention": "King Abdulaziz one-way candidate", "is_study_corridor": true, "junction": null, "key": 0, "lane_modified": false, "lanes": null, "length": 183.1098174233287, "maxspeed": null, "name": "\u0637\u0631\u064a\u0642 \u0627\u0644\u0645\u0644\u0643 \u0639\u0628\u062f\u0627\u0644\u0639\u0632\u064a\u0632", "needs_lane_data": true, "needs_speed_data": true, "observed_speed": null, "oneway": true, "osmid": "95512376;340235246;290631447", "road_open": true, "road_segment_id": 1435, "scenario": "King Abdulaziz One-Way \u2014 NE", "scenario_id": "S1A", "segment_bearing": 80.29321811146525, "signal_modified": false, "speed_modified": false, "target_direction": true, "target_road": true, "traffic_volume": null, "travel_time": null, "u": 2116561267, "v": 2932562549, "vkt": null}, "type": "Feature"}, {"bbox": [42.4936274, 18.231128, 42.4939852, 18.2311842], "geometry": {"coordinates": [[42.4936274, 18.231128], [42.4939852, 18.2311842]], "type": "LineString"}, "id": "3629", "properties": {"bearing_difference": 35.60979217113152, "capacity": null, "congestion_level": null, "direction_modified": true, "highway": "trunk", "intervention": "King Abdulaziz one-way candidate", "is_study_corridor": true, "junction": null, "key": 0, "lane_modified": false, "lanes": null, "length": 38.301680264293054, "maxspeed": null, "name": "\u0637\u0631\u064a\u0642 \u0627\u0644\u0645\u0644\u0643 \u0639\u0628\u062f\u0627\u0644\u0639\u0632\u064a\u0632", "needs_lane_data": true, "needs_speed_data": true, "observed_speed": null, "oneway": true, "osmid": 340235246, "road_open": true, "road_segment_id": 3629, "scenario": "King Abdulaziz One-Way \u2014 NE", "scenario_id": "S1A", "segment_bearing": 80.60979217113152, "signal_modified": false, "speed_modified": false, "target_direction": true, "target_road": true, "traffic_volume": null, "travel_time": null, "u": 2920084120, "v": 1107416138, "vkt": null}, "type": "Feature"}, {"bbox": [42.5058012, 18.2330253, 42.5067349, 18.2331775], "geometry": {"coordinates": [[42.5058012, 18.2330253], [42.5064967, 18.2331313], [42.5067349, 18.2331775]], "type": "LineString"}, "id": "3682", "properties": {"bearing_difference": 35.261375757301494, "capacity": null, "congestion_level": null, "direction_modified": true, "highway": "trunk", "intervention": "King Abdulaziz one-way candidate", "is_study_corridor": true, "junction": null, "key": 0, "lane_modified": false, "lanes": null, "length": 100.06889334977342, "maxspeed": null, "name": "\u0637\u0631\u064a\u0642 \u0627\u0644\u0645\u0644\u0643 \u0639\u0628\u062f\u0627\u0644\u0639\u0632\u064a\u0632", "needs_lane_data": true, "needs_speed_data": true, "observed_speed": null, "oneway": true, "osmid": 290631447, "road_open": true, "road_segment_id": 3682, "scenario": "King Abdulaziz One-Way \u2014 NE", "scenario_id": "S1A", "segment_bearing": 80.2613757573015, "signal_modified": false, "speed_modified": false, "target_direction": true, "target_road": true, "traffic_volume": null, "travel_time": null, "u": 2920087206, "v": 9095952039, "vkt": null}, "type": "Feature"}, {"bbox": [42.5138134, 18.2276536, 42.5184795, 18.2327186], "geometry": {"coordinates": [[42.5184795, 18.2276536], [42.5178881, 18.2282206], [42.5175627, 18.2286395], [42.5160593, 18.2303246], [42.5150528, 18.2313704], [42.5138134, 18.2327186]], "type": "LineString"}, "id": "3895", "properties": {"bearing_difference": 86.18533086866387, "capacity": null, "congestion_level": null, "direction_modified": true, "highway": "motorway;trunk", "intervention": "King Abdulaziz one-way candidate", "is_study_corridor": false, "junction": null, "key": 0, "lane_modified": false, "lanes": null, "length": 748.8061134058696, "maxspeed": null, "name": "\u0637\u0631\u064a\u0642 \u0627\u0644\u0645\u0644\u0643 \u0639\u0628\u062f\u0627\u0644\u0639\u0632\u064a\u0632", "needs_lane_data": true, "needs_speed_data": true, "observed_speed": null, "oneway": true, "osmid": "321635970;1321645843;290631446", "road_open": true, "road_segment_id": 3895, "scenario": "King Abdulaziz One-Way \u2014 NE", "scenario_id": "S1A", "segment_bearing": 318.81466913133613, "signal_modified": false, "speed_modified": false, "target_direction": true, "target_road": true, "traffic_volume": null, "travel_time": null, "u": 2930606746, "v": 3283857210, "vkt": null}, "type": "Feature"}, {"bbox": [42.5022268, 18.2324739, 42.5038212, 18.232709], "geometry": {"coordinates": [[42.5022268, 18.2324739], [42.5025618, 18.2325334], [42.5038212, 18.232709]], "type": "LineString"}, "id": "3901", "properties": {"bearing_difference": 36.17514610611602, "capacity": null, "congestion_level": null, "direction_modified": true, "highway": "trunk", "intervention": "King Abdulaziz one-way candidate", "is_study_corridor": true, "junction": null, "key": 0, "lane_modified": false, "lanes": null, "length": 170.42735169081772, "maxspeed": null, "name": "\u0637\u0631\u064a\u0642 \u0627\u0644\u0645\u0644\u0643 \u0639\u0628\u062f\u0627\u0644\u0639\u0632\u064a\u0632", "needs_lane_data": true, "needs_speed_data": true, "observed_speed": null, "oneway": true, "osmid": 290631447, "road_open": true, "road_segment_id": 3901, "scenario": "King Abdulaziz One-Way \u2014 NE", "scenario_id": "S1A", "segment_bearing": 81.17514610611602, "signal_modified": false, "speed_modified": false, "target_direction": true, "target_road": true, "traffic_volume": null, "travel_time": null, "u": 2932562549, "v": 9095952051, "vkt": null}, "type": "Feature"}, {"bbox": [42.5075968, 18.2333178, 42.5105756, 18.2337738], "geometry": {"coordinates": [[42.5075968, 18.2333178], [42.5100112, 18.2336938], [42.5105756, 18.2337738]], "type": "LineString"}, "id": "4044", "properties": {"bearing_difference": 35.84365451269639, "capacity": null, "congestion_level": null, "direction_modified": true, "highway": "trunk", "intervention": "King Abdulaziz one-way candidate", "is_study_corridor": true, "junction": null, "key": 0, "lane_modified": false, "lanes": null, "length": 318.66165697409974, "maxspeed": null, "name": "\u0637\u0631\u064a\u0642 \u0627\u0644\u0645\u0644\u0643 \u0639\u0628\u062f\u0627\u0644\u0639\u0632\u064a\u0632", "needs_lane_data": true, "needs_speed_data": true, "observed_speed": null, "oneway": true, "osmid": 290631447, "road_open": true, "road_segment_id": 4044, "scenario": "King Abdulaziz One-Way \u2014 NE", "scenario_id": "S1A", "segment_bearing": 80.84365451269639, "signal_modified": false, "speed_modified": false, "target_direction": true, "target_road": true, "traffic_volume": null, "travel_time": null, "u": 7359264718, "v": 1618340816, "vkt": null}, "type": "Feature"}, {"bbox": [42.5067349, 18.2331775, 42.5075968, 18.2333178], "geometry": {"coordinates": [[42.5067349, 18.2331775], [42.5075968, 18.2333178]], "type": "LineString"}, "id": "4242", "properties": {"bearing_difference": 35.274709801436586, "capacity": null, "congestion_level": null, "direction_modified": true, "highway": "trunk", "intervention": "King Abdulaziz one-way candidate", "is_study_corridor": true, "junction": null, "key": 0, "lane_modified": false, "lanes": null, "length": 92.35421203808251, "maxspeed": null, "name": "\u0637\u0631\u064a\u0642 \u0627\u0644\u0645\u0644\u0643 \u0639\u0628\u062f\u0627\u0644\u0639\u0632\u064a\u0632", "needs_lane_data": true, "needs_speed_data": true, "observed_speed": null, "oneway": true, "osmid": 290631447, "road_open": true, "road_segment_id": 4242, "scenario": "King Abdulaziz One-Way \u2014 NE", "scenario_id": "S1A", "segment_bearing": 80.27470980143659, "signal_modified": false, "speed_modified": false, "target_direction": true, "target_road": true, "traffic_volume": null, "travel_time": null, "u": 9095952039, "v": 7359264718, "vkt": null}, "type": "Feature"}, {"bbox": [42.5038212, 18.232709, 42.5044254, 18.2328052], "geometry": {"coordinates": [[42.5038212, 18.232709], [42.5044254, 18.2328052]], "type": "LineString"}, "id": "4246", "properties": {"bearing_difference": 35.483598281556965, "capacity": null, "congestion_level": null, "direction_modified": true, "highway": "trunk", "intervention": "King Abdulaziz one-way candidate", "is_study_corridor": true, "junction": null, "key": 0, "lane_modified": false, "lanes": null, "length": 64.7013632699688, "maxspeed": null, "name": "\u0637\u0631\u064a\u0642 \u0627\u0644\u0645\u0644\u0643 \u0639\u0628\u062f\u0627\u0644\u0639\u0632\u064a\u0632", "needs_lane_data": true, "needs_speed_data": true, "observed_speed": null, "oneway": true, "osmid": 290631447, "road_open": true, "road_segment_id": 4246, "scenario": "King Abdulaziz One-Way \u2014 NE", "scenario_id": "S1A", "segment_bearing": 80.48359828155697, "signal_modified": false, "speed_modified": false, "target_direction": true, "target_road": true, "traffic_volume": null, "travel_time": null, "u": 9095952051, "v": 1107416177, "vkt": null}, "type": "Feature"}], "type": "FeatureCollection"}