{"bbox": [42.4918293, 18.2277068, 42.5182402, 18.2340484], "features": [{"bbox": [42.5041782, 18.2328995, 42.5042143, 18.2329049], "geometry": {"coordinates": [[42.5042143, 18.2329049], [42.5041782, 18.2328995]], "type": "LineString"}, "id": "21", "properties": {"bearing_difference": 36.04990830519722, "capacity": null, "congestion_level": null, "direction_modified": true, "highway": "trunk", "intervention": "King Abdulaziz one-way candidate", "is_study_corridor": true, "junction": null, "key": 0, "lane_modified": false, "lanes": null, "length": 3.8595962201914316, "maxspeed": null, "name": "\u0637\u0631\u064a\u0642 \u0627\u0644\u0645\u0644\u0643 \u0639\u0628\u062f\u0627\u0644\u0639\u0632\u064a\u0632", "needs_lane_data": true, "needs_speed_data": true, "observed_speed": null, "oneway": true, "osmid": 290631446, "road_open": true, "road_segment_id": 21, "scenario": "King Abdulaziz One-Way \u2014 SW", "scenario_id": "S1B", "segment_bearing": 261.0499083051972, "signal_modified": false, "speed_modified": false, "target_direction": true, "target_road": true, "traffic_volume": null, "travel_time": null, "u": 1105400282, "v": 2116561241, "vkt": null}, "type": "Feature"}, {"bbox": [42.502028, 18.2325568, 42.5036129, 18.2328043], "geometry": {"coordinates": [[42.5036129, 18.2328043], [42.502028, 18.2325568]], "type": "LineString"}, "id": "59", "properties": {"bearing_difference": 35.66344078141918, "capacity": null, "congestion_level": null, "direction_modified": true, "highway": "trunk", "intervention": "King Abdulaziz one-way candidate", "is_study_corridor": true, "junction": null, "key": 0, "lane_modified": false, "lanes": null, "length": 169.63242678059157, "maxspeed": null, "name": "\u0637\u0631\u064a\u0642 \u0627\u0644\u0645\u0644\u0643 \u0639\u0628\u062f\u0627\u0644\u0639\u0632\u064a\u0632", "needs_lane_data": true, "needs_speed_data": true, "observed_speed": null, "oneway": true, "osmid": 290631446, "road_open": true, "road_segment_id": 59, "scenario": "King Abdulaziz One-Way \u2014 SW", "scenario_id": "S1B", "segment_bearing": 260.6634407814192, "signal_modified": false, "speed_modified": false, "target_direction": true, "target_road": true, "traffic_volume": null, "travel_time": null, "u": 1105400597, "v": 2932562548, "vkt": null}, "type": "Feature"}, {"bbox": [42.5042143, 18.2329049, 42.5053471, 18.2330904], "geometry": {"coordinates": [[42.5053471, 18.2330904], [42.5042143, 18.2329049]], "type": "LineString"}, "id": "88", "properties": {"bearing_difference": 35.217987696066075, "capacity": null, "congestion_level": null, "direction_modified": true, "highway": "trunk", "intervention": "King Abdulaziz one-way candidate", "is_study_corridor": true, "junction": null, "key": 0, "lane_modified": false, "lanes": null, "length": 121.40260462698846, "maxspeed": null, "name": "\u0637\u0631\u064a\u0642 \u0627\u0644\u0645\u0644\u0643 \u0639\u0628\u062f\u0627\u0644\u0639\u0632\u064a\u0632", "needs_lane_data": true, "needs_speed_data": true, "observed_speed": null, "oneway": true, "osmid": 290631446, "road_open": true, "road_segment_id": 88, "scenario": "King Abdulaziz One-Way \u2014 SW", "scenario_id": "S1B", "segment_bearing": 260.2179876960661, "signal_modified": false, "speed_modified": false, "target_direction": true, "target_road": true, "traffic_volume": null, "travel_time": null, "u": 1105401078, "v": 1105400282, "vkt": null}, "type": "Feature"}, {"bbox": [42.4939336, 18.2312771, 42.494894, 18.2314379], "geometry": {"coordinates": [[42.494894, 18.2314379], [42.4939336, 18.2312771]], "type": "LineString"}, "id": "1010", "properties": {"bearing_difference": 35.00280053595998, "capacity": null, "congestion_level": null, "direction_modified": true, "highway": "trunk", "intervention": "King Abdulaziz one-way candidate", "is_study_corridor": true, "junction": null, "key": 0, "lane_modified": false, "lanes": null, "length": 102.99481125741008, "maxspeed": null, "name": "\u0637\u0631\u064a\u0642 \u0627\u0644\u0645\u0644\u0643 \u0639\u0628\u062f\u0627\u0644\u0639\u0632\u064a\u0632", "needs_lane_data": true, "needs_speed_data": true, "observed_speed": null, "oneway": true, "osmid": 95512377, "road_open": true, "road_segment_id": 1010, "scenario": "King Abdulaziz One-Way \u2014 SW", "scenario_id": "S1B", "segment_bearing": 260.00280053596, "signal_modified": false, "speed_modified": false, "target_direction": true, "target_road": true, "traffic_volume": null, "travel_time": null, "u": 1540085493, "v": 2919142285, "vkt": null}, "type": "Feature"}, {"bbox": [42.494894, 18.2314379, 42.4982206, 18.231975], "geometry": {"coordinates": [[42.4982206, 18.231975], [42.4962576, 18.2316707], [42.494894, 18.2314379]], "type": "LineString"}, "id": "1013", "properties": {"bearing_difference": 35.353043761687786, "capacity": null, "congestion_level": null, "direction_modified": true, "highway": "trunk", "intervention": "King Abdulaziz one-way candidate", "is_study_corridor": true, "junction": null, "key": 0, "lane_modified": false, "lanes": null, "length": 356.38326604679685, "maxspeed": null, "name": "\u0637\u0631\u064a\u0642 \u0627\u0644\u0645\u0644\u0643 \u0639\u0628\u062f\u0627\u0644\u0639\u0632\u064a\u0632", "needs_lane_data": true, "needs_speed_data": true, "observed_speed": null, "oneway": true, "osmid": 95512377, "road_open": true, "road_segment_id": 1013, "scenario": "King Abdulaziz One-Way \u2014 SW", "scenario_id": "S1B", "segment_bearing": 260.3530437616878, "signal_modified": false, "speed_modified": false, "target_direction": true, "target_road": true, "traffic_volume": null, "travel_time": null, "u": 1540085498, "v": 1540085493, "vkt": null}, "type": "Feature"}, {"bbox": [42.5134726, 18.232643, 42.5137051, 18.2328906], "geometry": {"coordinates": [[42.5134726, 18.2328906], [42.5137051, 18.232643]], "type": "LineString"}, "id": "1141", "properties": {"bearing_difference": 86.72884011662461, "capacity": null, "congestion_level": null, "direction_modified": true, "highway": "trunk", "intervention": "King Abdulaziz one-way candidate", "is_study_corridor": true, "junction": null, "key": 0, "lane_modified": false, "lanes": null, "length": 36.891019148007665, "maxspeed": null, "name": "\u0637\u0631\u064a\u0642 \u0627\u0644\u0645\u0644\u0643 \u0639\u0628\u062f\u0627\u0644\u0639\u0632\u064a\u0632", "needs_lane_data": true, "needs_speed_data": true, "observed_speed": null, "oneway": true, "osmid": 290631447, "road_open": true, "road_segment_id": 1141, "scenario": "King Abdulaziz One-Way \u2014 SW", "scenario_id": "S1B", "segment_bearing": 138.2711598833754, "signal_modified": false, "speed_modified": false, "target_direction": true, "target_road": true, "traffic_volume": null, "travel_time": null, "u": 1618334776, "v": 3283857213, "vkt": null}, "type": "Feature"}, {"bbox": [42.5036129, 18.2328043, 42.5041782, 18.2328995], "geometry": {"coordinates": [[42.5041782, 18.2328995], [42.5036129, 18.2328043]], "type": "LineString"}, "id": "1429", "properties": {"bearing_difference": 34.94556711982278, "capacity": null, "congestion_level": null, "direction_modified": true, "highway": "trunk", "intervention": "King Abdulaziz one-way candidate", "is_study_corridor": true, "junction": null, "key": 0, "lane_modified": false, "lanes": null, "length": 60.63383855364192, "maxspeed": null, "name": "\u0637\u0631\u064a\u0642 \u0627\u0644\u0645\u0644\u0643 \u0639\u0628\u062f\u0627\u0644\u0639\u0632\u064a\u0632", "needs_lane_data": true, "needs_speed_data": true, "observed_speed": null, "oneway": true, "osmid": 290631446, "road_open": true, "road_segment_id": 1429, "scenario": "King Abdulaziz One-Way \u2014 SW", "scenario_id": "S1B", "segment_bearing": 259.9455671198228, "signal_modified": false, "speed_modified": false, "target_direction": true, "target_road": true, "traffic_volume": null, "travel_time": null, "u": 2116561241, "v": 1105400597, "vkt": null}, "type": "Feature"}, {"bbox": [42.4982206, 18.231975, 42.4988248, 18.2320768], "geometry": {"coordinates": [[42.4988248, 18.2320768], [42.4985853, 18.2320418], [42.4982206, 18.231975]], "type": "LineString"}, "id": "1434", "properties": {"bearing_difference": 34.940876874199716, "capacity": null, "congestion_level": null, "direction_modified": true, "highway": "trunk", "intervention": "King Abdulaziz one-way candidate", "is_study_corridor": true, "junction": null, "key": 0, "lane_modified": false, "lanes": null, "length": 64.81857387100881, "maxspeed": null, "name": "\u0637\u0631\u064a\u0642 \u0627\u0644\u0645\u0644\u0643 \u0639\u0628\u062f\u0627\u0644\u0639\u0632\u064a\u0632", "needs_lane_data": true, "needs_speed_data": true, "observed_speed": null, "oneway": true, "osmid": 95512377, "road_open": true, "road_segment_id": 1434, "scenario": "King Abdulaziz One-Way \u2014 SW", "scenario_id": "S1B", "segment_bearing": 259.9408768741997, "signal_modified": false, "speed_modified": false, "target_direction": true, "target_road": true, "traffic_volume": null, "travel_time": null, "u": 2116561255, "v": 1540085498, "vkt": null}, "type": "Feature"}, {"bbox": [42.5084228, 18.2335828, 42.5105904, 18.2339174], "geometry": {"coordinates": [[42.5105904, 18.2339174], [42.5097757, 18.2337844], [42.5096935, 18.2337713], [42.5084228, 18.2335828]], "type": "LineString"}, "id": "2409", "properties": {"bearing_difference": 35.7690576593094, "capacity": null, "congestion_level": null, "direction_modified": true, "highway": "trunk", "intervention": "King Abdulaziz one-way candidate", "is_study_corridor": true, "junction": null, "key": 0, "lane_modified": false, "lanes": null, "length": 231.9340883913676, "maxspeed": null, "name": "\u0637\u0631\u064a\u0642 \u0627\u0644\u0645\u0644\u0643 \u0639\u0628\u062f\u0627\u0644\u0639\u0632\u064a\u0632", "needs_lane_data": true, "needs_speed_data": true, "observed_speed": null, "oneway": true, "osmid": 290631446, "road_open": true, "road_segment_id": 2409, "scenario": "King Abdulaziz One-Way \u2014 SW", "scenario_id": "S1B", "segment_bearing": 260.7690576593094, "signal_modified": false, "speed_modified": false, "target_direction": true, "target_road": true, "traffic_volume": null, "travel_time": null, "u": 2918588432, "v": 9095952041, "vkt": null}, "type": "Feature"}, {"bbox": [42.4918293, 18.2309575, 42.4939336, 18.2312771], "geometry": {"coordinates": [[42.4939336, 18.2312771], [42.4921324, 18.2310035], [42.4918293, 18.2309575]], "type": "LineString"}, "id": "2509", "properties": {"bearing_difference": 35.915280100421796, "capacity": null, "congestion_level": null, "direction_modified": true, "highway": "trunk", "intervention": "King Abdulaziz one-way candidate", "is_study_corridor": true, "junction": null, "key": 0, "lane_modified": false, "lanes": null, "length": 225.06559892636028, "maxspeed": null, "name": "\u0637\u0631\u064a\u0642 \u0627\u0644\u0645\u0644\u0643 \u0639\u0628\u062f\u0627\u0644\u0639\u0632\u064a\u0632", "needs_lane_data": true, "needs_speed_data": true, "observed_speed": null, "oneway": true, "osmid": 95512377, "road_open": true, "road_segment_id": 2509, "scenario": "King Abdulaziz One-Way \u2014 SW", "scenario_id": "S1B", "segment_bearing": 260.9152801004218, "signal_modified": false, "speed_modified": false, "target_direction": true, "target_road": true, "traffic_volume": null, "travel_time": null, "u": 2919142285, "v": 2918364137, "vkt": null}, "type": "Feature"}, {"bbox": [42.4988248, 18.2320768, 42.500824, 18.2323751], "geometry": {"coordinates": [[42.500824, 18.2323751], [42.4999555, 18.2322423], [42.4988248, 18.2320768]], "type": "LineString"}, "id": "3896", "properties": {"bearing_difference": 36.0723135101357, "capacity": null, "congestion_level": null, "direction_modified": true, "highway": "trunk", "intervention": "King Abdulaziz one-way candidate", "is_study_corridor": true, "junction": null, "key": 0, "lane_modified": false, "lanes": null, "length": 213.73156536858662, "maxspeed": null, "name": "\u0637\u0631\u064a\u0642 \u0627\u0644\u0645\u0644\u0643 \u0639\u0628\u062f\u0627\u0644\u0639\u0632\u064a\u0632", "needs_lane_data": true, "needs_speed_data": true, "observed_speed": null, "oneway": true, "osmid": 95512377, "road_open": true, "road_segment_id": 3896, "scenario": "King Abdulaziz One-Way \u2014 SW", "scenario_id": "S1B", "segment_bearing": 261.0723135101357, "signal_modified": false, "speed_modified": false, "target_direction": true, "target_road": true, "traffic_volume": null, "travel_time": null, "u": 2932562524, "v": 2116561255, "vkt": null}, "type": "Feature"}, {"bbox": [42.500824, 18.2323751, 42.502028, 18.2325568], "geometry": {"coordinates": [[42.502028, 18.2325568], [42.5017749, 18.2325165], [42.5013343, 18.2324473], [42.500824, 18.2323751]], "type": "LineString"}, "id": "3899", "properties": {"bearing_difference": 35.97189140151289, "capacity": null, "congestion_level": null, "direction_modified": true, "highway": "trunk", "intervention": "King Abdulaziz one-way candidate", "is_study_corridor": true, "junction": null, "key": 0, "lane_modified": false, "lanes": null, "length": 128.75708703488135, "maxspeed": null, "name": "\u0637\u0631\u064a\u0642 \u0627\u0644\u0645\u0644\u0643 \u0639\u0628\u062f\u0627\u0644\u0639\u0632\u064a\u0632", "needs_lane_data": true, "needs_speed_data": true, "observed_speed": null, "oneway": true, "osmid": "95512377;290631446;95512375", "road_open": true, "road_segment_id": 3899, "scenario": "King Abdulaziz One-Way \u2014 SW", "scenario_id": "S1B", "segment_bearing": 260.9718914015129, "signal_modified": false, "speed_modified": false, "target_direction": true, "target_road": true, "traffic_volume": null, "travel_time": null, "u": 2932562548, "v": 2932562524, "vkt": null}, "type": "Feature"}, {"bbox": [42.5105904, 18.2327186, 42.5138134, 18.2340484], "geometry": {"coordinates": [[42.5138134, 18.2327186], [42.5135099, 18.2330471], [42.513154, 18.233417], [42.512927, 18.2336295], [42.5126546, 18.2338052], [42.5124336, 18.2339017], [42.5121325, 18.2339932], [42.5118005, 18.2340484], [42.5114751, 18.2340369], [42.5105904, 18.2339174]], "type": "LineString"}, "id": "3903", "properties": {"bearing_difference": 66.38653339572392, "capacity": null, "congestion_level": null, "direction_modified": true, "highway": "trunk", "intervention": "King Abdulaziz one-way candidate", "is_study_corridor": true, "junction": null, "key": 0, "lane_modified": false, "lanes": null, "length": 396.1893859782166, "maxspeed": null, "name": "\u0637\u0631\u064a\u0642 \u0627\u0644\u0645\u0644\u0643 \u0639\u0628\u062f\u0627\u0644\u0639\u0632\u064a\u0632", "needs_lane_data": true, "needs_speed_data": true, "observed_speed": null, "oneway": true, "osmid": 290631446, "road_open": true, "road_segment_id": 3903, "scenario": "King Abdulaziz One-Way \u2014 SW", "scenario_id": "S1B", "segment_bearing": 291.3865333957239, "signal_modified": false, "speed_modified": false, "target_direction": true, "target_road": true, "traffic_volume": null, "travel_time": null, "u": 3283857210, "v": 2918588432, "vkt": null}, "type": "Feature"}, {"bbox": [42.5137051, 18.2277068, 42.5182402, 18.232643], "geometry": {"coordinates": [[42.5137051, 18.232643], [42.514975, 18.2313116], [42.5160094, 18.230232], [42.5174917, 18.2285718], [42.5178118, 18.2281402], [42.5182402, 18.2277068]], "type": "LineString"}, "id": "3905", "properties": {"bearing_difference": 86.10960608751941, "capacity": null, "congestion_level": null, "direction_modified": true, "highway": "motorway;trunk", "intervention": "King Abdulaziz one-way candidate", "is_study_corridor": false, "junction": null, "key": 0, "lane_modified": false, "lanes": null, "length": 728.9331087208409, "maxspeed": null, "name": "\u0637\u0631\u064a\u0642 \u0627\u0644\u0645\u0644\u0643 \u0639\u0628\u062f\u0627\u0644\u0639\u0632\u064a\u0632", "needs_lane_data": true, "needs_speed_data": true, "observed_speed": null, "oneway": true, "osmid": "321635968;290631450;290631447", "road_open": true, "road_segment_id": 3905, "scenario": "King Abdulaziz One-Way \u2014 SW", "scenario_id": "S1B", "segment_bearing": 138.8903939124806, "signal_modified": false, "speed_modified": false, "target_direction": true, "target_road": true, "traffic_volume": null, "travel_time": null, "u": 3283857213, "v": 2930606747, "vkt": null}, "type": "Feature"}, {"bbox": [42.5068584, 18.2333331, 42.5084228, 18.2335828], "geometry": {"coordinates": [[42.5084228, 18.2335828], [42.5068584, 18.2333331]], "type": "LineString"}, "id": "4244", "properties": {"bearing_difference": 35.4607182017636, "capacity": null, "congestion_level": null, "direction_modified": true, "highway": "trunk", "intervention": "King Abdulaziz one-way candidate", "is_study_corridor": true, "junction": null, "key": 0, "lane_modified": false, "lanes": null, "length": 167.53606399798744, "maxspeed": null, "name": "\u0637\u0631\u064a\u0642 \u0627\u0644\u0645\u0644\u0643 \u0639\u0628\u062f\u0627\u0644\u0639\u0632\u064a\u0632", "needs_lane_data": true, "needs_speed_data": true, "observed_speed": null, "oneway": true, "osmid": 290631446, "road_open": true, "road_segment_id": 4244, "scenario": "King Abdulaziz One-Way \u2014 SW", "scenario_id": "S1B", "segment_bearing": 260.4607182017636, "signal_modified": false, "speed_modified": false, "target_direction": true, "target_road": true, "traffic_volume": null, "travel_time": null, "u": 9095952041, "v": 10128898469, "vkt": null}, "type": "Feature"}, {"bbox": [42.5053471, 18.2330904, 42.5068584, 18.2333331], "geometry": {"coordinates": [[42.5068584, 18.2333331], [42.5060816, 18.2332074], [42.5053471, 18.2330904]], "type": "LineString"}, "id": "4478", "properties": {"bearing_difference": 35.403454805534466, "capacity": null, "congestion_level": null, "direction_modified": true, "highway": "trunk", "intervention": "King Abdulaziz one-way candidate", "is_study_corridor": true, "junction": null, "key": 0, "lane_modified": false, "lanes": null, "length": 161.8770632494036, "maxspeed": null, "name": "\u0637\u0631\u064a\u0642 \u0627\u0644\u0645\u0644\u0643 \u0639\u0628\u062f\u0627\u0644\u0639\u0632\u064a\u0632", "needs_lane_data": true, "needs_speed_data": true, "observed_speed": null, "oneway": true, "osmid": 290631446, "road_open": true, "road_segment_id": 4478, "scenario": "King Abdulaziz One-Way \u2014 SW", "scenario_id": "S1B", "segment_bearing": 260.40345480553447, "signal_modified": false, "speed_modified": false, "target_direction": true, "target_road": true, "traffic_volume": null, "travel_time": null, "u": 10128898469, "v": 1105401078, "vkt": null}, "type": "Feature"}], "type": "FeatureCollection"}