{"type": "FeatureCollection", "features": [{"type": "Feature", "properties": {"osmid": 288435358, "name": null, "highway": "unclassified", "lanes": null, "maxspeed": null, "oneway": false, "junction": null, "u": 2919972401, "v": 2919972412, "key": 621, "length": 284.26030247247576, "road_segment_id": 616, "segment_id": 20, "distance_to_poi_m": 35.60444888176989}, "geometry": {"type": "LineString", "coordinates": [[42.5016462, 18.200176099999993], [42.50131350000001, 18.2000854], [42.5010552, 18.200061799999997], [42.5008499, 18.2001123], [42.5006871, 18.20017609999999], [42.5005809, 18.200290500000005], [42.5004606, 18.2005124], [42.50040390000001, 18.200670399999993], [42.5003615, 18.200885600000003], [42.500227, 18.2011814], [42.4999722, 18.2016252]]}}, {"type": "Feature", "properties": {"osmid": 288435358, "name": null, "highway": "unclassified", "lanes": null, "maxspeed": null, "oneway": false, "junction": null, "u": 2919972412, "v": 2919972423, "key": 622, "length": 305.97894542867454, "road_segment_id": 617, "segment_id": 21, "distance_to_poi_m": 72.35337101773864}, "geometry": {"type": "LineString", "coordinates": [[42.4999722, 18.2016252], [42.4998306, 18.20179], [42.4997386, 18.201843800000002], [42.4995545, 18.2017631], [42.4992926, 18.201584899999997], [42.49916880000001, 18.201490699999997], [42.4990166, 18.201322600000005], [42.4989175, 18.2011411], [42.498921, 18.200902400000004], [42.4989423, 18.2004888], [42.4989989, 18.200166100000004], [42.4990284, 18.199779400000004]]}}, {"type": "Feature", "properties": {"osmid": 1072564095, "name": null, "highway": "residential", "lanes": null, "maxspeed": null, "oneway": false, "junction": null, "u": 2919972412, "v": 9840732581, "key": 914, "length": 162.73856066644373, "road_segment_id": 895, "segment_id": 33, "distance_to_poi_m": 72.35337101773864}, "geometry": {"type": "LineString", "coordinates": [[42.4999722, 18.2016252], [42.5002174, 18.201918], [42.5002684, 18.201961299999994], [42.5003502, 18.202011], [42.5004427, 18.2020989], [42.5005131, 18.2021798], [42.5005795, 18.202232], [42.5006754, 18.202259399999996], [42.5007954, 18.202283599999994], [42.5008819, 18.202303300000008], [42.5009222, 18.202331399999995], [42.5009416, 18.202372100000005], [42.5009429, 18.2024244], [42.5008976, 18.2026013]]}}, {"type": "Feature", "properties": {"osmid": 288435359, "name": null, "highway": "unclassified", "lanes": null, "maxspeed": null, "oneway": false, "junction": null, "u": 2919972424, "v": 2919972431, "key": 623, "length": 256.0603183268032, "road_segment_id": 618, "segment_id": 22, "distance_to_poi_m": 97.86421445131094}, "geometry": {"type": "LineString", "coordinates": [[42.50148570000001, 18.2022056], [42.501293200000006, 18.2020316], [42.5009982, 18.201761499999996], [42.5009016, 18.2016086], [42.5008801, 18.201302899999995], [42.5008801, 18.2008136], [42.5009284, 18.200467100000004], [42.5012878, 18.2004365]]}}]}