{"type": "FeatureCollection", "features": [{"type": "Feature", "properties": {"osm_type": "way", "osm_id": 1267184814, "building": "yes", "origin_weight": 1.0}, "geometry": {"type": "Point", "coordinates": [42.4978709, 18.203632]}}, {"type": "Feature", "properties": {"osm_type": "way", "osm_id": 1267184815, "building": "yes", "origin_weight": 1.0}, "geometry": {"type": "Point", "coordinates": [42.4984634, 18.203435899999995]}}, {"type": "Feature", "properties": {"osm_type": "way", "osm_id": 1267184816, "building": "yes", "origin_weight": 1.0}, "geometry": {"type": "Point", "coordinates": [42.49712980000001, 18.202942599999997]}}]}