{"type": "FeatureCollection", "features": [{"type": "Feature", "properties": {"osmid": 135230760, "name": "\u0637\u0631\u064a\u0642 \u0627\u0644\u0627\u0645\u0627\u0645 \u0639\u0628\u062f \u0627\u0644\u0631\u062d\u0645\u0646 \u0628\u0646 \u0641\u064a\u0635\u0644 \u0628\u0646 \u062a\u0631\u0643\u064a", "highway": "tertiary", "lanes": null, "maxspeed": null, "oneway": true, "junction": null, "u": 5345843135, "v": 2919928710, "key": 467, "length": 173.3700409248711, "road_segment_id": 462, "segment_id": 0}, "geometry": {"type": "LineString", "coordinates": [[42.5047741, 18.200593399999995], [42.504059, 18.200673499999997], [42.503379, 18.2007927], [42.5031594, 18.20084689999999]]}}, {"type": "Feature", "properties": {"osmid": 288432019, "name": null, "highway": "unclassified", "lanes": null, "maxspeed": null, "oneway": false, "junction": null, "u": 2919928710, "v": 2919928717, "key": 556, "length": 50.00305943647511, "road_segment_id": 551, "segment_id": 1}, "geometry": {"type": "LineString", "coordinates": [[42.5031594, 18.20084689999999], [42.50328240000001, 18.2010912], [42.5033736, 18.201249199999996]]}}, {"type": "Feature", "properties": {"osmid": 288432019, "name": null, "highway": "unclassified", "lanes": null, "maxspeed": null, "oneway": false, "junction": null, "u": 2919928717, "v": 2919928709, "key": 557, "length": 69.09415563966624, "road_segment_id": 552, "segment_id": 2}, "geometry": {"type": "LineString", "coordinates": [[42.5033736, 18.201249199999996], [42.5034943, 18.2013893], [42.50388860000001, 18.201621199999998]]}}, {"type": "Feature", "properties": {"osmid": 288432032, "name": null, "highway": "unclassified", "lanes": null, "maxspeed": null, "oneway": false, "junction": null, "u": 2919928717, "v": 2919928783, "key": 590, "length": 146.744358914627, "road_segment_id": 585, "segment_id": 3}, "geometry": {"type": "LineString", "coordinates": [[42.5033736, 18.201249199999996], [42.5031316, 18.2015304], [42.5030042, 18.2018968], [42.5028379, 18.202276800000003], [42.502669, 18.2022535]]}}, {"type": "Feature", "properties": {"osmid": 288432034, "name": null, "highway": "unclassified", "lanes": null, "maxspeed": null, "oneway": false, "junction": null, "u": 2919928786, "v": 2919928761, "key": 592, "length": 75.87883503207833, "road_segment_id": 587, "segment_id": 4}, "geometry": {"type": "LineString", "coordinates": [[42.5026744, 18.202443700000007], [42.5028186, 18.202464000000003], [42.503027800000005, 18.202525199999997], [42.5033468, 18.202668399999997]]}}, {"type": "Feature", "properties": {"osmid": 288435350, "name": null, "highway": "unclassified", "lanes": null, "maxspeed": null, "oneway": false, "junction": null, "u": 9840721377, "v": 2919972380, "key": 606, "length": 172.288731885003, "road_segment_id": 601, "segment_id": 5}, "geometry": {"type": "LineString", "coordinates": [[42.5002674, 18.204689100000003], [42.5002907, 18.204523299999998], [42.5002872, 18.204318199999996], [42.50023050000001, 18.204176999999998], [42.50005710000001, 18.2039652], [42.4998129, 18.2037669], [42.499866, 18.203716399999998], [42.49994740000001, 18.203632400000004], [42.5001067, 18.203518099999997], [42.5001552, 18.2034522]]}}, {"type": "Feature", "properties": {"osmid": 288435350, "name": null, "highway": "unclassified", "lanes": null, "maxspeed": null, "oneway": false, "junction": null, "u": 2919972380, "v": 9840732581, "key": 607, "length": 147.45087321060734, "road_segment_id": 602, "segment_id": 6}, "geometry": {"type": "LineString", "coordinates": [[42.5001552, 18.2034522], [42.50020580000001, 18.2033836], [42.500297800000006, 18.203171799999996], [42.5004004, 18.202926299999994], [42.5004712, 18.202670799999996], [42.5005526, 18.2025498], [42.50068, 18.2025363], [42.5008463, 18.2025632], [42.5008976, 18.2026013]]}}, {"type": "Feature", "properties": {"osmid": 288435350, "name": null, "highway": "unclassified", "lanes": null, "maxspeed": null, "oneway": false, "junction": null, "u": 9840732581, "v": 2919972373, "key": 608, "length": 24.532523662514542, "road_segment_id": 603, "segment_id": 7}, "geometry": {"type": "LineString", "coordinates": [[42.5008976, 18.2026013], [42.5009596, 18.2026473], [42.5009844, 18.202791899999998]]}}, {"type": "Feature", "properties": {"osmid": 288435351, "name": null, "highway": "unclassified", "lanes": null, "maxspeed": null, "oneway": false, "junction": null, "u": 2919972374, "v": 2919972394, "key": 609, "length": 76.75759796244289, "road_segment_id": 604, "segment_id": 8}, "geometry": {"type": "LineString", "coordinates": [[42.5026681, 18.2022133], [42.5020426, 18.2019883], [42.5019899, 18.2020089]]}}, {"type": "Feature", "properties": {"osmid": 288435351, "name": null, "highway": "unclassified", "lanes": null, "maxspeed": null, "oneway": false, "junction": null, "u": 2919972394, "v": 2919972424, "key": 610, "length": 57.6351260739356, "road_segment_id": 605, "segment_id": 9}, "geometry": {"type": "LineString", "coordinates": [[42.5019899, 18.2020089], [42.50148570000001, 18.2022056]]}}, {"type": "Feature", "properties": {"osmid": 288435351, "name": null, "highway": "unclassified", "lanes": null, "maxspeed": null, "oneway": false, "junction": null, "u": 2919972424, "v": 2919972373, "key": 611, "length": 85.24739335017789, "road_segment_id": 606, "segment_id": 10}, "geometry": {"type": "LineString", "coordinates": [[42.50148570000001, 18.2022056], [42.501448, 18.2022203], [42.50131, 18.202448899999997], [42.5011543, 18.202657400000003], [42.5009844, 18.202791899999998]]}}, {"type": "Feature", "properties": {"osmid": 288435351, "name": null, "highway": "unclassified", "lanes": null, "maxspeed": null, "oneway": false, "junction": null, "u": 2919972373, "v": 2919972379, "key": 612, "length": 87.7332927180907, "road_segment_id": 607, "segment_id": 11}, "geometry": {"type": "LineString", "coordinates": [[42.5009844, 18.202791899999998], [42.5010135, 18.203583699999992]]}}, {"type": "Feature", "properties": {"osmid": 288435352, "name": null, "highway": "unclassified", "lanes": null, "maxspeed": null, "oneway": false, "junction": null, "u": 2919972380, "v": 2919972379, "key": 613, "length": 94.1391434367244, "road_segment_id": 608, "segment_id": 12}, "geometry": {"type": "LineString", "coordinates": [[42.5001552, 18.2034522], [42.5003367, 18.203521399999996], [42.5005597, 18.203605499999995], [42.5010135, 18.203583699999992]]}}, {"type": "Feature", "properties": {"osmid": 288435352, "name": null, "highway": "unclassified", "lanes": null, "maxspeed": null, "oneway": false, "junction": null, "u": 2919972379, "v": 2919972383, "key": 614, "length": 11.168963612449955, "road_segment_id": 609, "segment_id": 13}, "geometry": {"type": "LineString", "coordinates": [[42.5010135, 18.203583699999992], [42.5011189, 18.203578600000004]]}}, {"type": "Feature", "properties": {"osmid": 288435353, "name": null, "highway": "unclassified", "lanes": null, "maxspeed": null, "oneway": false, "junction": null, "u": 1485286457, "v": 2919972386, "key": 615, "length": 145.22568786023294, "road_segment_id": 610, "segment_id": 14}, "geometry": {"type": "LineString", "coordinates": [[42.5028773, 18.2009637], [42.5027716, 18.2008994], [42.5025416, 18.2009259], [42.5018479, 18.2007612], [42.5015542, 18.200700599999998]]}}, {"type": "Feature", "properties": {"osmid": 288435353, "name": null, "highway": "unclassified", "lanes": null, "maxspeed": null, "oneway": false, "junction": null, "u": 2919972386, "v": 2919972394, "key": 616, "length": 212.46213243859492, "road_segment_id": 611, "segment_id": 15}, "geometry": {"type": "LineString", "coordinates": [[42.5015542, 18.200700599999998], [42.501402, 18.2007511], [42.5012781, 18.2008217], [42.5011967, 18.2009393], [42.5011826, 18.201251999999997], [42.5012321, 18.201541199999998], [42.5013914, 18.2017227], [42.5016604, 18.201887499999998], [42.5019899, 18.2020089]]}}, {"type": "Feature", "properties": {"osmid": 288435354, "name": null, "highway": "unclassified", "lanes": null, "maxspeed": null, "oneway": false, "junction": null, "u": 1485286460, "v": 2919972399, "key": 617, "length": 122.92380588717488, "road_segment_id": 612, "segment_id": 16}, "geometry": {"type": "LineString", "coordinates": [[42.5025176, 18.201579299999995], [42.5023045, 18.201527699999996], [42.5018373, 18.201393200000002], [42.5017772, 18.201228500000003], [42.5018621, 18.2010436], [42.5019046, 18.2010032]]}}, {"type": "Feature", "properties": {"osmid": 288435355, "name": null, "highway": "unclassified", "lanes": null, "maxspeed": null, "oneway": false, "junction": null, "u": 2919928717, "v": 2919972400, "key": 618, "length": 41.60680398545569, "road_segment_id": 613, "segment_id": 17}, "geometry": {"type": "LineString", "coordinates": [[42.5033736, 18.201249199999996], [42.5036282, 18.200962899999993]]}}, {"type": "Feature", "properties": {"osmid": 288435357, "name": null, "highway": "unclassified", "lanes": null, "maxspeed": null, "oneway": false, "junction": null, "u": 2919972386, "v": 2919972401, "key": 619, "length": 58.89046089723717, "road_segment_id": 614, "segment_id": 18}, "geometry": {"type": "LineString", "coordinates": [[42.5015542, 18.200700599999998], [42.5016462, 18.200176099999997]]}}, {"type": "Feature", "properties": {"osmid": 288435358, "name": null, "highway": "unclassified", "lanes": null, "maxspeed": null, "oneway": false, "junction": null, "u": 2919972402, "v": 2919972401, "key": 620, "length": 83.46306448633328, "road_segment_id": 615, "segment_id": 19}, "geometry": {"type": "LineString", "coordinates": [[42.5024107, 18.200361099999995], [42.5016462, 18.200176099999997]]}}, {"type": "Feature", "properties": {"osmid": 288435358, "name": null, "highway": "unclassified", "lanes": null, "maxspeed": null, "oneway": false, "junction": null, "u": 2919972401, "v": 2919972412, "key": 621, "length": 284.26030247247576, "road_segment_id": 616, "segment_id": 20}, "geometry": {"type": "LineString", "coordinates": [[42.5016462, 18.200176099999997], [42.50131350000001, 18.200085399999995], [42.5010552, 18.200061799999997], [42.5008499, 18.2001123], [42.5006871, 18.200176099999997], [42.5005809, 18.200290500000005], [42.5004606, 18.2005124], [42.50040390000001, 18.200670399999993], [42.5003615, 18.200885600000003], [42.500227, 18.2011814], [42.4999722, 18.2016252]]}}, {"type": "Feature", "properties": {"osmid": 288435358, "name": null, "highway": "unclassified", "lanes": null, "maxspeed": null, "oneway": false, "junction": null, "u": 2919972412, "v": 2919972423, "key": 622, "length": 305.97894542867454, "road_segment_id": 617, "segment_id": 21}, "geometry": {"type": "LineString", "coordinates": [[42.4999722, 18.2016252], [42.4998306, 18.20179], [42.4997386, 18.201843800000002], [42.4995545, 18.2017631], [42.4992926, 18.201584899999997], [42.49916880000001, 18.201490699999997], [42.4990166, 18.201322600000005], [42.4989175, 18.2011411], [42.498921, 18.200902400000004], [42.4989423, 18.2004888], [42.4989989, 18.200166100000004], [42.4990284, 18.199779400000004]]}}, {"type": "Feature", "properties": {"osmid": 288435359, "name": null, "highway": "unclassified", "lanes": null, "maxspeed": null, "oneway": false, "junction": null, "u": 2919972424, "v": 2919972431, "key": 623, "length": 256.0603183268032, "road_segment_id": 618, "segment_id": 22}, "geometry": {"type": "LineString", "coordinates": [[42.50148570000001, 18.2022056], [42.501293200000006, 18.2020316], [42.5009982, 18.201761499999996], [42.5009016, 18.2016086], [42.5008801, 18.201302899999998], [42.5008801, 18.2008136], [42.5009284, 18.200467100000004], [42.5012878, 18.2004365]]}}, {"type": "Feature", "properties": {"osmid": 553861879, "name": "\u0637\u0631\u064a\u0642 \u0627\u0644\u0645\u0644\u0643 \u0639\u0628\u062f\u0627\u0644\u0639\u0632\u064a\u0632", "highway": "trunk", "lanes": null, "maxspeed": null, "oneway": true, "junction": null, "u": 5345828704, "v": 5345843138, "key": 729, "length": 475.8030326074065, "road_segment_id": 724, "segment_id": 23}, "geometry": {"type": "LineString", "coordinates": [[42.5074394, 18.2010691], [42.5052212, 18.200582999999998], [42.5040518, 18.200348], [42.5030454, 18.200162]]}}, {"type": "Feature", "properties": {"osmid": 553861879, "name": "\u0637\u0631\u064a\u0642 \u0627\u0644\u0645\u0644\u0643 \u0639\u0628\u062f\u0627\u0644\u0639\u0632\u064a\u0632", "highway": "trunk", "lanes": null, "maxspeed": null, "oneway": true, "junction": null, "u": 5345843138, "v": 2919972423, "key": 730, "length": 431.87173850166346, "road_segment_id": 725, "segment_id": 24}, "geometry": {"type": "LineString", "coordinates": [[42.5030454, 18.200162], [42.5029231, 18.200137299999998], [42.5027278, 18.200094599999993], [42.5023958, 18.200022], [42.5015442, 18.199822000000005], [42.5008462, 18.1997002], [42.500371, 18.1996643], [42.4995445, 18.1996892], [42.4990284, 18.199779400000004]]}}, {"type": "Feature", "properties": {"osmid": 553861879, "name": "\u0637\u0631\u064a\u0642 \u0627\u0644\u0645\u0644\u0643 \u0639\u0628\u062f\u0627\u0644\u0639\u0632\u064a\u0632", "highway": "trunk", "lanes": null, "maxspeed": null, "oneway": true, "junction": null, "u": 2919972423, "v": 2920084145, "key": 731, "length": 346.18754900316173, "road_segment_id": 726, "segment_id": 25}, "geometry": {"type": "LineString", "coordinates": [[42.4990284, 18.199779400000004], [42.4984725, 18.199900900000003], [42.498048, 18.200047299999998], [42.4975201, 18.200299400000002], [42.4960706, 18.2010714]]}}, {"type": "Feature", "properties": {"osmid": 553861885, "name": null, "highway": "trunk_link", "lanes": null, "maxspeed": null, "oneway": true, "junction": null, "u": 5345843135, "v": 5345843138, "key": 775, "length": 189.14253280549917, "road_segment_id": 770, "segment_id": 26}, "geometry": {"type": "LineString", "coordinates": [[42.5047741, 18.200593399999995], [42.503995, 18.200419999999998], [42.5030454, 18.200162]]}}, {"type": "Feature", "properties": {"osmid": 553861886, "name": "\u0637\u0631\u064a\u0642 \u0627\u0644\u0627\u0645\u0627\u0645 \u0639\u0628\u062f \u0627\u0644\u0631\u062d\u0645\u0646 \u0628\u0646 \u0641\u064a\u0635\u0644 \u0628\u0646 \u062a\u0631\u0643\u064a", "highway": "tertiary", "lanes": null, "maxspeed": null, "oneway": false, "junction": null, "u": 2919928710, "v": 1485286457, "key": 776, "length": 32.70859130262613, "road_segment_id": 771, "segment_id": 27}, "geometry": {"type": "LineString", "coordinates": [[42.5031594, 18.20084689999999], [42.503016, 18.2008898], [42.5028773, 18.2009637]]}}, {"type": "Feature", "properties": {"osmid": 553861886, "name": "\u0637\u0631\u064a\u0642 \u0627\u0644\u0627\u0645\u0627\u0645 \u0639\u0628\u062f \u0627\u0644\u0631\u062d\u0645\u0646 \u0628\u0646 \u0641\u064a\u0635\u0644 \u0628\u0646 \u062a\u0631\u0643\u064a", "highway": "tertiary", "lanes": null, "maxspeed": null, "oneway": false, "junction": null, "u": 1485286457, "v": 1485286460, "key": 777, "length": 79.27734019112981, "road_segment_id": 772, "segment_id": 28}, "geometry": {"type": "LineString", "coordinates": [[42.5028773, 18.2009637], [42.5026594, 18.201216], [42.5025949, 18.201342500000003], [42.5025176, 18.201579299999995]]}}, {"type": "Feature", "properties": {"osmid": 553861886, "name": "\u0637\u0631\u064a\u0642 \u0627\u0644\u0627\u0645\u0627\u0645 \u0639\u0628\u062f \u0627\u0644\u0631\u062d\u0645\u0646 \u0628\u0646 \u0641\u064a\u0635\u0644 \u0628\u0646 \u062a\u0631\u0643\u064a", "highway": "tertiary", "lanes": null, "maxspeed": null, "oneway": false, "junction": null, "u": 1485286460, "v": 2919972374, "key": 778, "length": 72.34300184971586, "road_segment_id": 773, "segment_id": 29}, "geometry": {"type": "LineString", "coordinates": [[42.5025176, 18.201579299999995], [42.5025433, 18.201795699999998], [42.5026388, 18.202058399999995], [42.5026681, 18.2022133]]}}, {"type": "Feature", "properties": {"osmid": 553861886, "name": "\u0637\u0631\u064a\u0642 \u0627\u0644\u0627\u0645\u0627\u0645 \u0639\u0628\u062f \u0627\u0644\u0631\u062d\u0645\u0646 \u0628\u0646 \u0641\u064a\u0635\u0644 \u0628\u0646 \u062a\u0631\u0643\u064a", "highway": "tertiary", "lanes": null, "maxspeed": null, "oneway": false, "junction": null, "u": 2919972374, "v": 2919928783, "key": 779, "length": 4.452522260232624, "road_segment_id": 774, "segment_id": 30}, "geometry": {"type": "LineString", "coordinates": [[42.5026681, 18.2022133], [42.502669, 18.2022535]]}}, {"type": "Feature", "properties": {"osmid": 553861886, "name": "\u0637\u0631\u064a\u0642 \u0627\u0644\u0627\u0645\u0627\u0645 \u0639\u0628\u062f \u0627\u0644\u0631\u062d\u0645\u0646 \u0628\u0646 \u0641\u064a\u0635\u0644 \u0628\u0646 \u062a\u0631\u0643\u064a", "highway": "tertiary", "lanes": null, "maxspeed": null, "oneway": false, "junction": null, "u": 2919928783, "v": 2919928786, "key": 780, "length": 21.07043252865784, "road_segment_id": 775, "segment_id": 31}, "geometry": {"type": "LineString", "coordinates": [[42.502669, 18.2022535], [42.5026723, 18.202399800000002], [42.5026744, 18.202443700000007]]}}, {"type": "Feature", "properties": {"osmid": 553861886, "name": "\u0637\u0631\u064a\u0642 \u0627\u0644\u0627\u0645\u0627\u0645 \u0639\u0628\u062f \u0627\u0644\u0631\u062d\u0645\u0646 \u0628\u0646 \u0641\u064a\u0635\u0644 \u0628\u0646 \u062a\u0631\u0643\u064a", "highway": "tertiary", "lanes": null, "maxspeed": null, "oneway": false, "junction": null, "u": 2919928786, "v": 2919928773, "key": 781, "length": 169.15713649829092, "road_segment_id": 776, "segment_id": 32}, "geometry": {"type": "LineString", "coordinates": [[42.5026744, 18.202443700000007], [42.5026809, 18.2025795], [42.5026494, 18.2027678], [42.50235430000001, 18.203713099999998], [42.5023034, 18.203921999999995]]}}, {"type": "Feature", "properties": {"osmid": 1072564095, "name": null, "highway": "residential", "lanes": null, "maxspeed": null, "oneway": false, "junction": null, "u": 2919972412, "v": 9840732581, "key": 914, "length": 162.73856066644373, "road_segment_id": 895, "segment_id": 33}, "geometry": {"type": "LineString", "coordinates": [[42.4999722, 18.2016252], [42.5002174, 18.201918], [42.5002684, 18.201961299999994], [42.5003502, 18.202011], [42.5004427, 18.2020989], [42.5005131, 18.2021798], [42.5005795, 18.202232], [42.5006754, 18.202259399999996], [42.5007954, 18.202283599999994], [42.5008819, 18.202303300000004], [42.5009222, 18.202331399999995], [42.5009416, 18.202372100000005], [42.5009429, 18.2024244], [42.5008976, 18.2026013]]}}]}