{"type": "FeatureCollection", "features": [{"type": "Feature", "properties": {"name": "King Abdulaziz Grand Mosque", "footprint_area_m2": 5315.041009534874}, "geometry": {"type": "Polygon", "coordinates": [[[42.4998804, 18.2171599], [42.5002671, 18.216732], [42.4996567, 18.2162344], [42.4992701, 18.2166623], [42.4998804, 18.2171599]]]}}, {"type": "Feature", "properties": {"name": null, "footprint_area_m2": 284.1284065784357}, "geometry": {"type": "Polygon", "coordinates": [[[42.5006761, 18.2249561], [42.5007823, 18.2249292], [42.5008389, 18.2249679], [42.5008655, 18.2250754], [42.5008478, 18.2251023], [42.5007876, 18.2251124], [42.5007575, 18.2250923], [42.5007398, 18.2250956], [42.5007168, 18.2250788], [42.5007009, 18.2250469], [42.5006761, 18.2249561]]]}}, {"type": "Feature", "properties": {"name": null, "footprint_area_m2": 843.6557332332318}, "geometry": {"type": "Polygon", "coordinates": [[[42.5502232, 18.2198745], [42.5503875, 18.2196711], [42.5506103, 18.2198334], [42.5504459, 18.2200369], [42.5502232, 18.2198745]]]}}, {"type": "Feature", "properties": {"name": "King Faisal Mosque", "footprint_area_m2": 3554.823028709884}, "geometry": {"type": "Polygon", "coordinates": [[[42.4885791, 18.2222581], [42.4884014, 18.2221486], [42.4883927, 18.22216], [42.4883256, 18.2221193], [42.4883337, 18.2221078], [42.4881499, 18.2219944], [42.4882626, 18.2218318], [42.4882478, 18.2218225], [42.4882814, 18.2217715], [42.4882954, 18.2217805], [42.4884875, 18.2215028], [42.488595, 18.2215672], [42.488591, 18.2215731], [42.4886699, 18.2216197], [42.4886797, 18.2216046], [42.4887428, 18.2216414], [42.4887336, 18.2216549], [42.4888614, 18.2217275], [42.4888562, 18.2217354], [42.4889103, 18.2217677], [42.4887259, 18.2220441], [42.4887407, 18.2220537], [42.4887072, 18.2221065], [42.4886904, 18.2220963], [42.4885791, 18.2222581]]]}}, {"type": "Feature", "properties": {"name": null, "footprint_area_m2": 1277.6595611737907}, "geometry": {"type": "Polygon", "coordinates": [[[42.5121622, 18.2438451], [42.5119004, 18.2436578], [42.5121376, 18.2434032], [42.5123902, 18.2435905], [42.5121622, 18.2438451]]]}}, {"type": "Feature", "properties": {"name": null, "footprint_area_m2": 973.8892562776291}, "geometry": {"type": "Polygon", "coordinates": [[[42.5104297, 18.2417168], [42.5101854, 18.2415365], [42.510359, 18.2413243], [42.5106032, 18.2415046], [42.5104297, 18.2417168]]]}}, {"type": "Feature", "properties": {"name": null, "footprint_area_m2": 382.03795163472086}, "geometry": {"type": "Polygon", "coordinates": [[[42.5164176, 18.2403398], [42.5162849, 18.2402465], [42.5164088, 18.2400878], [42.5165414, 18.2401811], [42.5164176, 18.2403398]]]}}, {"type": "Feature", "properties": {"name": null, "footprint_area_m2": 382.2361578772047}, "geometry": {"type": "Polygon", "coordinates": [[[42.5174135, 18.2356241], [42.5172808, 18.2355307], [42.5174046, 18.235372], [42.5175373, 18.2354653], [42.5174135, 18.2356241]]]}}, {"type": "Feature", "properties": {"name": null, "footprint_area_m2": 382.0468799833999}, "geometry": {"type": "Polygon", "coordinates": [[[42.5236137, 18.2380316], [42.5234811, 18.2379383], [42.5236049, 18.2377795], [42.5237375, 18.2378728], [42.5236137, 18.2380316]]]}}, {"type": "Feature", "properties": {"name": null, "footprint_area_m2": 382.03840471997376}, "geometry": {"type": "Polygon", "coordinates": [[[42.5340711, 18.2394325], [42.5339385, 18.2393392], [42.5340623, 18.2391804], [42.5341949, 18.2392737], [42.5340711, 18.2394325]]]}}, {"type": "Feature", "properties": {"name": null, "footprint_area_m2": 381.8853864864954}, "geometry": {"type": "Polygon", "coordinates": [[[42.5359435, 18.2402881], [42.5358109, 18.2401948], [42.5359347, 18.2400361], [42.5360673, 18.2401293], [42.5359435, 18.2402881]]]}}, {"type": "Feature", "properties": {"name": null, "footprint_area_m2": 607.2643355073025}, "geometry": {"type": "Polygon", "coordinates": [[[42.5119657, 18.2094852], [42.5121491, 18.2096107], [42.5122902, 18.2094247], [42.5121068, 18.2092992], [42.5119657, 18.2094852]]]}}, {"type": "Feature", "properties": {"name": null, "footprint_area_m2": 4591.30244230106}, "geometry": {"type": "Polygon", "coordinates": [[[42.5102461, 18.2140704], [42.5104092, 18.2141997], [42.5104566, 18.2141457], [42.510482, 18.2141658], [42.510509, 18.214135], [42.5105362, 18.2141566], [42.5105903, 18.214095], [42.5106371, 18.214132], [42.5107472, 18.2140066], [42.5107384, 18.2139996], [42.5108615, 18.213848], [42.5108674, 18.2138526], [42.510924, 18.2137768], [42.5108941, 18.2137531], [42.5109769, 18.2136588], [42.5110416, 18.2135852], [42.5108936, 18.213468], [42.5109181, 18.2134402], [42.5108389, 18.2133819], [42.5108064, 18.2134189], [42.5106776, 18.2133169], [42.5105253, 18.2134903], [42.5104771, 18.213452], [42.5104169, 18.2135205], [42.5104641, 18.2135579], [42.5103089, 18.2137347], [42.5103491, 18.2137666], [42.5102311, 18.2139009], [42.5102774, 18.2139375], [42.5102154, 18.2140081], [42.5102658, 18.214048], [42.5102461, 18.2140704]]]}}, {"type": "Feature", "properties": {"name": null, "footprint_area_m2": 541.6633119627656}, "geometry": {"type": "Polygon", "coordinates": [[[42.4824947, 18.2107504], [42.4826074, 18.2105997], [42.4824035, 18.2104621], [42.4822909, 18.2106128], [42.4824947, 18.2107504]]]}}, {"type": "Feature", "properties": {"name": null, "footprint_area_m2": 428.35167707177067}, "geometry": {"type": "Polygon", "coordinates": [[[42.5165471, 18.2252944], [42.5165417, 18.2251894], [42.5168029, 18.2251773], [42.516809, 18.2252957], [42.5167561, 18.2253336], [42.5166093, 18.2253282], [42.5165471, 18.2252944]]]}}, {"type": "Feature", "properties": {"name": null, "footprint_area_m2": 260.8989848363618}, "geometry": {"type": "Polygon", "coordinates": [[[42.5059987, 18.2284907], [42.5058948, 18.2286177], [42.5060041, 18.2286984], [42.506108, 18.2285714], [42.5059987, 18.2284907]]]}}, {"type": "Feature", "properties": {"name": null, "footprint_area_m2": 1448.9678393165711}, "geometry": {"type": "Polygon", "coordinates": [[[42.5190962, 18.2180697], [42.5188947, 18.2183885], [42.5186096, 18.2182259], [42.5188111, 18.2179071], [42.5190962, 18.2180697]]]}}, {"type": "Feature", "properties": {"name": null, "footprint_area_m2": 700.3714862330369}, "geometry": {"type": "Polygon", "coordinates": [[[42.4947878, 18.2204735], [42.4946387, 18.2206661], [42.4948401, 18.2208068], [42.4949892, 18.2206142], [42.4947878, 18.2204735]]]}}, {"type": "Feature", "properties": {"name": null, "footprint_area_m2": 365.7510249263771}, "geometry": {"type": "Polygon", "coordinates": [[[42.5002604, 18.2280028], [42.5002988, 18.2279412], [42.5002676, 18.2279236], [42.5002984, 18.2278742], [42.5003245, 18.2278889], [42.5003426, 18.2278598], [42.5004809, 18.2279376], [42.5004642, 18.2279644], [42.5004886, 18.2279781], [42.5004179, 18.2280914], [42.5002604, 18.2280028]]]}}, {"type": "Feature", "properties": {"name": null, "footprint_area_m2": 999.3330247388718}, "geometry": {"type": "Polygon", "coordinates": [[[42.5105238, 18.2222612], [42.5107625, 18.2224217], [42.5109399, 18.2221837], [42.5107012, 18.2220232], [42.5105238, 18.2222612]]]}}]}