{"type": "FeatureCollection", "features": [{"type": "Feature", "properties": {"name": "\u0627\u0628\u062a\u062f\u0627\u0626\u064a\u0629 \u0648\u0645\u062a\u0648\u0633\u0637\u0629 \u0627\u0644\u0634\u0631\u0641", "schools_within_300m": 1, "selected_cluster_center": false}, "geometry": {"type": "Point", "coordinates": [42.555004538827646, 18.186560870715443]}}, {"type": "Feature", "properties": {"name": null, "schools_within_300m": 1, "selected_cluster_center": false}, "geometry": {"type": "Point", "coordinates": [42.55624122795069, 18.239177872255585]}}, {"type": "Feature", "properties": {"name": null, "schools_within_300m": 1, "selected_cluster_center": false}, "geometry": {"type": "Point", "coordinates": [42.49559896553864, 18.244074829430012]}}, {"type": "Feature", "properties": {"name": null, "schools_within_300m": 4, "selected_cluster_center": true}, "geometry": {"type": "Point", "coordinates": [42.50706488543333, 18.19905841099252]}}, {"type": "Feature", "properties": {"name": null, "schools_within_300m": 4, "selected_cluster_center": false}, "geometry": {"type": "Point", "coordinates": [42.50776563164497, 18.199423852241978]}}, {"type": "Feature", "properties": {"name": null, "schools_within_300m": 4, "selected_cluster_center": false}, "geometry": {"type": "Point", "coordinates": [42.50742471774524, 18.199997157439267]}}, {"type": "Feature", "properties": {"name": null, "schools_within_300m": 4, "selected_cluster_center": false}, "geometry": {"type": "Point", "coordinates": [42.505709799812934, 18.198997250268754]}}, {"type": "Feature", "properties": {"name": null, "schools_within_300m": 1, "selected_cluster_center": false}, "geometry": {"type": "Point", "coordinates": [42.50245984520454, 18.223132130405507]}}, {"type": "Feature", "properties": {"name": null, "schools_within_300m": 2, "selected_cluster_center": false}, "geometry": {"type": "Point", "coordinates": [42.51771945943995, 18.223632608227074]}}, {"type": "Feature", "properties": {"name": null, "schools_within_300m": 1, "selected_cluster_center": false}, "geometry": {"type": "Point", "coordinates": [42.49526368561256, 18.21018397197763]}}, {"type": "Feature", "properties": {"name": null, "schools_within_300m": 1, "selected_cluster_center": false}, "geometry": {"type": "Point", "coordinates": [42.517986220569, 18.20973210278347]}}, {"type": "Feature", "properties": {"name": null, "schools_within_300m": 2, "selected_cluster_center": false}, "geometry": {"type": "Point", "coordinates": [42.50671155483415, 18.228730873248413]}}, {"type": "Feature", "properties": {"name": null, "schools_within_300m": 2, "selected_cluster_center": false}, "geometry": {"type": "Point", "coordinates": [42.50402270083319, 18.227990572109647]}}, {"type": "Feature", "properties": {"name": null, "schools_within_300m": 1, "selected_cluster_center": false}, "geometry": {"type": "Point", "coordinates": [42.500252274873986, 18.207048607068415]}}, {"type": "Feature", "properties": {"name": null, "schools_within_300m": 2, "selected_cluster_center": false}, "geometry": {"type": "Point", "coordinates": [42.51520010307669, 18.222570184424107]}}, {"type": "Feature", "properties": {"name": null, "schools_within_300m": 1, "selected_cluster_center": false}, "geometry": {"type": "Point", "coordinates": [42.493723728319694, 18.21805514335171]}}, {"type": "Feature", "properties": {"name": null, "schools_within_300m": 1, "selected_cluster_center": false}, "geometry": {"type": "Point", "coordinates": [42.50977647932558, 18.203178287610847]}}, {"type": "Feature", "properties": {"name": null, "schools_within_300m": 1, "selected_cluster_center": false}, "geometry": {"type": "Point", "coordinates": [42.519460750380546, 18.21377209996582]}}]}