{
"type": "FeatureCollection",
"name": "residential",
"crs": { "type": "name", "properties": { "name": "urn:ogc:def:crs:OGC:1.3:CRS84" } },
"features": [
{ "type": "Feature", "properties": { "residents": 7.6 }, "geometry": { "type": "Point", "coordinates": [ 46.639909599970814, 24.737235800033648 ] } },
{ "type": "Feature", "properties": { "residents": 11.0 }, "geometry": { "type": "Point", "coordinates": [ 46.639618641015069, 24.737107449461732 ] } },
{ "type": "Feature", "properties": { "residents": 19.7 }, "geometry": { "type": "Point", "coordinates": [ 46.639695917573505, 24.736970351399069 ] } },
{ "type": "Feature", "properties": { "residents": 14.7 }, "geometry": { "type": "Point", "coordinates": [ 46.639784202165352, 24.736819467420293 ] } },
{ "type": "Feature", "properties": { "residents": 13.5 }, "geometry": { "type": "Point", "coordinates": [ 46.639856733853001, 24.7366771659457 ] } },
{ "type": "Feature", "properties": { "residents": 14.1 }, "geometry": { "type": "Point", "coordinates": [ 46.639924684370371, 24.73654936642675 ] } },
{ "type": "Feature", "properties": { "residents": 16.1 }, "geometry": { "type": "Point", "coordinates": [ 46.639994187289766, 24.736412966812974 ] } },
{ "type": "Feature", "properties": { "residents": 13.8 }, "geometry": { "type": "Point", "coordinates": [ 46.640056251725682, 24.736257366820322 ] } },
{ "type": "Feature", "properties": { "residents": 8.4 }, "geometry": { "type": "Point", "coordinates": [ 46.640150031682865, 24.736135915009974 ] } },
{ "type": "Feature", "properties": { "residents": 7.7 }, "geometry": { "type": "Point", "coordinates": [ 46.639953675800115, 24.737150204197029 ] } },
{ "type": "Feature", "properties": { "residents": 7.9 }, "geometry": { "type": "Point", "coordinates": [ 46.640005964089362, 24.737061138102774 ] } },
{ "type": "Feature", "properties": { "residents": 26.0 }, "geometry": { "type": "Point", "coordinates": [ 46.640092299124042, 24.736872664907512 ] } },
{ "type": "Feature", "properties": { "residents": 112.5 }, "geometry": { "type": "Point", "coordinates": [ 46.636649575704268, 24.735753162346761 ] } },
{ "type": "Feature", "properties": { "residents": 21.4 }, "geometry": { "type": "Point", "coordinates": [ 46.632199901397634, 24.737017416704703 ] } },
{ "type": "Feature", "properties": { "residents": 9.6 }, "geometry": { "type": "Point", "coordinates": [ 46.632327340905427, 24.737138686085231 ] } },
{ "type": "Feature", "properties": { "residents": 12.1 }, "geometry": { "type": "Point", "coordinates": [ 46.632417191876925, 24.737232261228151 ] } },
{ "type": "Feature", "properties": { "residents": 12.1 }, "geometry": { "type": "Point", "coordinates": [ 46.632517491876918, 24.737333061228149 ] } },
{ "type": "Feature", "properties": { "residents": 12.1 }, "geometry": { "type": "Point", "coordinates": [ 46.632618991876917, 24.737432061228148 ] } },
{ "type": "Feature", "properties": { "residents": 12.2 }, "geometry": { "type": "Point", "coordinates": [ 46.632715871725331, 24.737531670146556 ] } },
{ "type": "Feature", "properties": { "residents": 10.4 }, "geometry": { "type": "Point", "coordinates": [ 46.632800264096133, 24.737619655227775 ] } },
{ "type": "Feature", "properties": { "residents": 12.1 }, "geometry": { "type": "Point", "coordinates": [ 46.632888991876925, 24.737712461228153 ] } },
{ "type": "Feature", "properties": { "residents": 12.1 }, "geometry": { "type": "Point", "coordinates": [ 46.63298399187692, 24.737809861228151 ] } },
{ "type": "Feature", "properties": { "residents": 12.1 }, "geometry": { "type": "Point", "coordinates": [ 46.633079691876915, 24.737906661228148 ] } },
{ "type": "Feature", "properties": { "residents": 12.1 }, "geometry": { "type": "Point", "coordinates": [ 46.633172991876926, 24.73800346122815 ] } },
{ "type": "Feature", "properties": { "residents": 12.1 }, "geometry": { "type": "Point", "coordinates": [ 46.633266891876922, 24.738101861228145 ] } },
{ "type": "Feature", "properties": { "residents": 12.1 }, "geometry": { "type": "Point", "coordinates": [ 46.633362491876923, 24.738196861228147 ] } },
{ "type": "Feature", "properties": { "residents": 15.6 }, "geometry": { "type": "Point", "coordinates": [ 46.633469754613039, 24.73831056619181 ] } },
{ "type": "Feature", "properties": { "residents": 19.9 }, "geometry": { "type": "Point", "coordinates": [ 46.633253750030491, 24.738474900034536 ] } },
{ "type": "Feature", "properties": { "residents": 13.3 }, "geometry": { "type": "Point", "coordinates": [ 46.633121408804286, 24.738357064451645 ] } },
{ "type": "Feature", "properties": { "residents": 13.3 }, "geometry": { "type": "Point", "coordinates": [ 46.633035308804288, 24.738257964451645 ] } },
{ "type": "Feature", "properties": { "residents": 13.3 }, "geometry": { "type": "Point", "coordinates": [ 46.632935408804293, 24.738162464451644 ] } },
{ "type": "Feature", "properties": { "residents": 13.3 }, "geometry": { "type": "Point", "coordinates": [ 46.632843308804283, 24.738067564451647 ] } },
{ "type": "Feature", "properties": { "residents": 13.3 }, "geometry": { "type": "Point", "coordinates": [ 46.632752008804282, 24.737971964451638 ] } },
{ "type": "Feature", "properties": { "residents": 11.2 }, "geometry": { "type": "Point", "coordinates": [ 46.632661538568478, 24.737888687006048 ] } },
{ "type": "Feature", "properties": { "residents": 11.2 }, "geometry": { "type": "Point", "coordinates": [ 46.632585038568479, 24.737804787006034 ] } },
{ "type": "Feature", "properties": { "residents": 12.8 }, "geometry": { "type": "Point", "coordinates": [ 46.632487809747872, 24.737715264102395 ] } },
{ "type": "Feature", "properties": { "residents": 13.7 }, "geometry": { "type": "Point", "coordinates": [ 46.632385664750963, 24.737606604254335 ] } },
{ "type": "Feature", "properties": { "residents": 13.7 }, "geometry": { "type": "Point", "coordinates": [ 46.632289164750972, 24.737505304254341 ] } },
{ "type": "Feature", "properties": { "residents": 13.7 }, "geometry": { "type": "Point", "coordinates": [ 46.632188073495612, 24.737409168940651 ] } },
{ "type": "Feature", "properties": { "residents": 9.0 }, "geometry": { "type": "Point", "coordinates": [ 46.632109646192873, 24.737326697679915 ] } },
{ "type": "Feature", "properties": { "residents": 12.4 }, "geometry": { "type": "Point", "coordinates": [ 46.632099727786596, 24.737925780694926 ] } },
{ "type": "Feature", "properties": { "residents": 12.4 }, "geometry": { "type": "Point", "coordinates": [ 46.632210327786588, 24.738031480694939 ] } },
{ "type": "Feature", "properties": { "residents": 12.4 }, "geometry": { "type": "Point", "coordinates": [ 46.632316927786597, 24.738129980694922 ] } },
{ "type": "Feature", "properties": { "residents": 12.4 }, "geometry": { "type": "Point", "coordinates": [ 46.632419027786597, 24.738234480694928 ] } },
{ "type": "Feature", "properties": { "residents": 11.6 }, "geometry": { "type": "Point", "coordinates": [ 46.632523942649691, 24.738334685020916 ] } },
{ "type": "Feature", "properties": { "residents": 57.6 }, "geometry": { "type": "Point", "coordinates": [ 46.631976399682323, 24.738184200128643 ] } },
{ "type": "Feature", "properties": { "residents": 23.8 }, "geometry": { "type": "Point", "coordinates": [ 46.632281250015261, 24.738482600040602 ] } },
{ "type": "Feature", "properties": { "residents": 23.8 }, "geometry": { "type": "Point", "coordinates": [ 46.632450550015257, 24.7386612000406 ] } },
{ "type": "Feature", "properties": { "residents": 14.6 }, "geometry": { "type": "Point", "coordinates": [ 46.632589770858665, 24.738804140382967 ] } },
{ "type": "Feature", "properties": { "residents": 22.0 }, "geometry": { "type": "Point", "coordinates": [ 46.632728558625288, 24.7389147440263 ] } },
{ "type": "Feature", "properties": { "residents": 44.2 }, "geometry": { "type": "Point", "coordinates": [ 46.632832287042653, 24.738628580589175 ] } },
{ "type": "Feature", "properties": { "residents": 9.0 }, "geometry": { "type": "Point", "coordinates": [ 46.632612200062901, 24.738422200024878 ] } },
{ "type": "Feature", "properties": { "residents": 36.1 }, "geometry": { "type": "Point", "coordinates": [ 46.631146176681533, 24.737935925483033 ] } },
{ "type": "Feature", "properties": { "residents": 24.3 }, "geometry": { "type": "Point", "coordinates": [ 46.631353696559458, 24.738144733606397 ] } },
{ "type": "Feature", "properties": { "residents": 24.3 }, "geometry": { "type": "Point", "coordinates": [ 46.631530296559461, 24.7383210336064 ] } },
{ "type": "Feature", "properties": { "residents": 24.3 }, "geometry": { "type": "Point", "coordinates": [ 46.631711796559458, 24.738500233606398 ] } },
{ "type": "Feature", "properties": { "residents": 24.3 }, "geometry": { "type": "Point", "coordinates": [ 46.63144869655946, 24.738681133606402 ] } },
{ "type": "Feature", "properties": { "residents": 24.3 }, "geometry": { "type": "Point", "coordinates": [ 46.631288996559462, 24.7385149336064 ] } },
{ "type": "Feature", "properties": { "residents": 25.2 }, "geometry": { "type": "Point", "coordinates": [ 46.631117400016649, 24.738340400043022 ] } },
{ "type": "Feature", "properties": { "residents": 30.6 }, "geometry": { "type": "Point", "coordinates": [ 46.630923549962233, 24.738119500052811 ] } },
{ "type": "Feature", "properties": { "residents": 28.3 }, "geometry": { "type": "Point", "coordinates": [ 46.631974651972691, 24.738778283012838 ] } },
{ "type": "Feature", "properties": { "residents": 24.5 }, "geometry": { "type": "Point", "coordinates": [ 46.632155150028709, 24.738961050041684 ] } },
{ "type": "Feature", "properties": { "residents": 30.2 }, "geometry": { "type": "Point", "coordinates": [ 46.632349117481766, 24.739161115584512 ] } },
{ "type": "Feature", "properties": { "residents": 30.2 }, "geometry": { "type": "Point", "coordinates": [ 46.632123017481767, 24.739338715584513 ] } },
{ "type": "Feature", "properties": { "residents": 24.5 }, "geometry": { "type": "Point", "coordinates": [ 46.631929350028699, 24.73914615004168 ] } },
{ "type": "Feature", "properties": { "residents": 27.3 }, "geometry": { "type": "Point", "coordinates": [ 46.63174675001499, 24.738971100046044 ] } },
{ "type": "Feature", "properties": { "residents": 12.9 }, "geometry": { "type": "Point", "coordinates": [ 46.633685974254121, 24.738985672227109 ] } },
{ "type": "Feature", "properties": { "residents": 12.9 }, "geometry": { "type": "Point", "coordinates": [ 46.633824991456592, 24.73890807819269 ] } },
{ "type": "Feature", "properties": { "residents": 12.9 }, "geometry": { "type": "Point", "coordinates": [ 46.633968453239156, 24.73883737400601 ] } },
{ "type": "Feature", "properties": { "residents": 15.3 }, "geometry": { "type": "Point", "coordinates": [ 46.634133066658329, 24.738786569931172 ] } },
{ "type": "Feature", "properties": { "residents": 14.8 }, "geometry": { "type": "Point", "coordinates": [ 46.634356476530527, 24.738711532296239 ] } },
{ "type": "Feature", "properties": { "residents": 14.1 }, "geometry": { "type": "Point", "coordinates": [ 46.634367116622556, 24.738862024073658 ] } },
{ "type": "Feature", "properties": { "residents": 14.1 }, "geometry": { "type": "Point", "coordinates": [ 46.634372316622553, 24.739007324073658 ] } },
{ "type": "Feature", "properties": { "residents": 14.1 }, "geometry": { "type": "Point", "coordinates": [ 46.634384616622555, 24.739153824073661 ] } },
{ "type": "Feature", "properties": { "residents": 14.0 }, "geometry": { "type": "Point", "coordinates": [ 46.634383951304606, 24.739293810327478 ] } },
{ "type": "Feature", "properties": { "residents": 16.8 }, "geometry": { "type": "Point", "coordinates": [ 46.634393148100685, 24.739443127818628 ] } },
{ "type": "Feature", "properties": { "residents": 14.0 }, "geometry": { "type": "Point", "coordinates": [ 46.634147039217424, 24.739390525374233 ] } },
{ "type": "Feature", "properties": { "residents": 14.0 }, "geometry": { "type": "Point", "coordinates": [ 46.633981138039189, 24.739407431175142 ] } },
{ "type": "Feature", "properties": { "residents": 14.0 }, "geometry": { "type": "Point", "coordinates": [ 46.633811040411956, 24.739439645511041 ] } },
{ "type": "Feature", "properties": { "residents": 25.7 }, "geometry": { "type": "Point", "coordinates": [ 46.638279644361617, 24.745218195350542 ] } },
{ "type": "Feature", "properties": { "residents": 28.3 }, "geometry": { "type": "Point", "coordinates": [ 46.638420194070449, 24.744958162534374 ] } },
{ "type": "Feature", "properties": { "residents": 19.8 }, "geometry": { "type": "Point", "coordinates": [ 46.638543686479672, 24.744714265790257 ] } },
{ "type": "Feature", "properties": { "residents": 17.0 }, "geometry": { "type": "Point", "coordinates": [ 46.638640750357354, 24.744517824012711 ] } },
{ "type": "Feature", "properties": { "residents": 14.4 }, "geometry": { "type": "Point", "coordinates": [ 46.638728376303121, 24.744361942063858 ] } },
{ "type": "Feature", "properties": { "residents": 111.4 }, "geometry": { "type": "Point", "coordinates": [ 46.638791674140464, 24.743936960253027 ] } },
{ "type": "Feature", "properties": { "residents": 15.5 }, "geometry": { "type": "Point", "coordinates": [ 46.638501371456648, 24.744254066009674 ] } },
{ "type": "Feature", "properties": { "residents": 15.7 }, "geometry": { "type": "Point", "coordinates": [ 46.638370865234158, 24.744532547510492 ] } },
{ "type": "Feature", "properties": { "residents": 88.3 }, "geometry": { "type": "Point", "coordinates": [ 46.638473500056342, 24.745946800116609 ] } },
{ "type": "Feature", "properties": { "residents": 62.8 }, "geometry": { "type": "Point", "coordinates": [ 46.638667109264247, 24.745580531901197 ] } },
{ "type": "Feature", "properties": { "residents": 64.8 }, "geometry": { "type": "Point", "coordinates": [ 46.638826008219873, 24.745249597996008 ] } },
{ "type": "Feature", "properties": { "residents": 132.2 }, "geometry": { "type": "Point", "coordinates": [ 46.639085578485144, 24.744764576022092 ] } },
{ "type": "Feature", "properties": { "residents": 16.6 }, "geometry": { "type": "Point", "coordinates": [ 46.638895194363734, 24.74626660500908 ] } },
{ "type": "Feature", "properties": { "residents": 16.1 }, "geometry": { "type": "Point", "coordinates": [ 46.638981259307137, 24.746104683789845 ] } },
{ "type": "Feature", "properties": { "residents": 14.6 }, "geometry": { "type": "Point", "coordinates": [ 46.63906491604012, 24.745943577424793 ] } },
{ "type": "Feature", "properties": { "residents": 47.0 }, "geometry": { "type": "Point", "coordinates": [ 46.639559294138941, 24.746301995425263 ] } },
{ "type": "Feature", "properties": { "residents": 5.8 }, "geometry": { "type": "Point", "coordinates": [ 46.639050359650348, 24.746379681692762 ] } },
{ "type": "Feature", "properties": { "residents": 113.6 }, "geometry": { "type": "Point", "coordinates": [ 46.640168803781911, 24.745309679765246 ] } },
{ "type": "Feature", "properties": { "residents": 73.9 }, "geometry": { "type": "Point", "coordinates": [ 46.639396737964589, 24.744095440445275 ] } },
{ "type": "Feature", "properties": { "residents": 9.1 }, "geometry": { "type": "Point", "coordinates": [ 46.639760050170992, 24.744122083219345 ] } },
{ "type": "Feature", "properties": { "residents": 9.1 }, "geometry": { "type": "Point", "coordinates": [ 46.639889150170987, 24.74417458321934 ] } },
{ "type": "Feature", "properties": { "residents": 9.1 }, "geometry": { "type": "Point", "coordinates": [ 46.64004145017099, 24.744240883219341 ] } },
{ "type": "Feature", "properties": { "residents": 8.3 }, "geometry": { "type": "Point", "coordinates": [ 46.639651100041064, 24.744330099994908 ] } },
{ "type": "Feature", "properties": { "residents": 8.3 }, "geometry": { "type": "Point", "coordinates": [ 46.639791000041058, 24.744387899994901 ] } },
{ "type": "Feature", "properties": { "residents": 8.3 }, "geometry": { "type": "Point", "coordinates": [ 46.639921600041063, 24.744446099994907 ] } },
{ "type": "Feature", "properties": { "residents": 17.5 }, "geometry": { "type": "Point", "coordinates": [ 46.64014244377573, 24.744353614342856 ] } },
{ "type": "Feature", "properties": { "residents": 16.9 }, "geometry": { "type": "Point", "coordinates": [ 46.639191784968922, 24.745628350009536 ] } },
{ "type": "Feature", "properties": { "residents": 15.5 }, "geometry": { "type": "Point", "coordinates": [ 46.639656049995395, 24.744726600029761 ] } },
{ "type": "Feature", "properties": { "residents": 15.5 }, "geometry": { "type": "Point", "coordinates": [ 46.63987514999539, 24.744820600029765 ] } },
{ "type": "Feature", "properties": { "residents": 17.4 }, "geometry": { "type": "Point", "coordinates": [ 46.639573968581871, 24.744901553836616 ] } },
{ "type": "Feature", "properties": { "residents": 14.1 }, "geometry": { "type": "Point", "coordinates": [ 46.639782900009124, 24.744988550017929 ] } },
{ "type": "Feature", "properties": { "residents": 8.0 }, "geometry": { "type": "Point", "coordinates": [ 46.639504249967523, 24.745035800041684 ] } },
{ "type": "Feature", "properties": { "residents": 8.0 }, "geometry": { "type": "Point", "coordinates": [ 46.639462649967527, 24.745128200041687 ] } },
{ "type": "Feature", "properties": { "residents": 6.6 }, "geometry": { "type": "Point", "coordinates": [ 46.639679799979824, 24.745216500028121 ] } },
{ "type": "Feature", "properties": { "residents": 6.6 }, "geometry": { "type": "Point", "coordinates": [ 46.639723099979811, 24.745122000028125 ] } },
{ "type": "Feature", "properties": { "residents": 21.0 }, "geometry": { "type": "Point", "coordinates": [ 46.639568904295345, 24.745382681627589 ] } },
{ "type": "Feature", "properties": { "residents": 13.3 }, "geometry": { "type": "Point", "coordinates": [ 46.639381250002671, 24.745261050021092 ] } },
{ "type": "Feature", "properties": { "residents": 15.3 }, "geometry": { "type": "Point", "coordinates": [ 46.639315842145663, 24.745447519857951 ] } },
{ "type": "Feature", "properties": { "residents": 26.3 }, "geometry": { "type": "Point", "coordinates": [ 46.63942440127007, 24.745677517893778 ] } },
{ "type": "Feature", "properties": { "residents": 32.7 }, "geometry": { "type": "Point", "coordinates": [ 46.638925229745219, 24.746973009570414 ] } },
{ "type": "Feature", "properties": { "residents": 25.2 }, "geometry": { "type": "Point", "coordinates": [ 46.639758981349651, 24.747275444403638 ] } },
{ "type": "Feature", "properties": { "residents": 32.2 }, "geometry": { "type": "Point", "coordinates": [ 46.639325700013316, 24.747082950046099 ] } },
{ "type": "Feature", "properties": { "residents": 20.0 }, "geometry": { "type": "Point", "coordinates": [ 46.639575700045278, 24.74718310000576 ] } },
{ "type": "Feature", "properties": { "residents": 21.0 }, "geometry": { "type": "Point", "coordinates": [ 46.638330010057828, 24.74666750437725 ] } },
{ "type": "Feature", "properties": { "residents": 14.3 }, "geometry": { "type": "Point", "coordinates": [ 46.638163666913215, 24.746590811980006 ] } },
{ "type": "Feature", "properties": { "residents": 12.9 }, "geometry": { "type": "Point", "coordinates": [ 46.638032583462739, 24.746542936655473 ] } },
{ "type": "Feature", "properties": { "residents": 12.9 }, "geometry": { "type": "Point", "coordinates": [ 46.637912483462742, 24.746486736655473 ] } },
{ "type": "Feature", "properties": { "residents": 12.9 }, "geometry": { "type": "Point", "coordinates": [ 46.637780583462735, 24.746432136655471 ] } },
{ "type": "Feature", "properties": { "residents": 39.8 }, "geometry": { "type": "Point", "coordinates": [ 46.637532147355827, 24.74632741564222 ] } },
{ "type": "Feature", "properties": { "residents": 11.9 }, "geometry": { "type": "Point", "coordinates": [ 46.637531700037449, 24.746606399999365 ] } },
{ "type": "Feature", "properties": { "residents": 11.9 }, "geometry": { "type": "Point", "coordinates": [ 46.637670600037445, 24.746663299999366 ] } },
{ "type": "Feature", "properties": { "residents": 11.9 }, "geometry": { "type": "Point", "coordinates": [ 46.637808800037448, 24.746720699999365 ] } },
{ "type": "Feature", "properties": { "residents": 11.9 }, "geometry": { "type": "Point", "coordinates": [ 46.637943500037437, 24.746779099999365 ] } },
{ "type": "Feature", "properties": { "residents": 28.6 }, "geometry": { "type": "Point", "coordinates": [ 46.638166138198308, 24.74686916268794 ] } },
{ "type": "Feature", "properties": { "residents": 17.3 }, "geometry": { "type": "Point", "coordinates": [ 46.63782609998907, 24.747105750038454 ] } },
{ "type": "Feature", "properties": { "residents": 15.1 }, "geometry": { "type": "Point", "coordinates": [ 46.638054791915714, 24.747199818863763 ] } }
]
}
