{
"type": "FeatureCollection",
"name": "streets",
"crs": { "type": "name", "properties": { "name": "urn:ogc:def:crs:OGC:1.3:CRS84" } },
"features": [
{ "type": "Feature", "properties": { }, "geometry": { "type": "LineString", "coordinates": [ [ 46.6338402, 24.7353165 ], [ 46.6337071, 24.7354265 ] ] } },
{ "type": "Feature", "properties": { }, "geometry": { "type": "LineString", "coordinates": [ [ 46.6334397, 24.7352999 ], [ 46.6337071, 24.7354265 ] ] } },
{ "type": "Feature", "properties": { }, "geometry": { "type": "LineString", "coordinates": [ [ 46.6335104, 24.7356125 ], [ 46.6336263, 24.7355029 ], [ 46.6337071, 24.7354265 ] ] } },
{ "type": "Feature", "properties": { }, "geometry": { "type": "LineString", "coordinates": [ [ 46.6347703, 24.7358812 ], [ 46.6338292, 24.7354767 ], [ 46.6337071, 24.7354265 ] ] } },
{ "type": "Feature", "properties": { }, "geometry": { "type": "LineString", "coordinates": [ [ 46.6322871, 24.7361872 ], [ 46.6329754, 24.7356283 ] ] } },
{ "type": "Feature", "properties": { }, "geometry": { "type": "LineString", "coordinates": [ [ 46.6334397, 24.7352999 ], [ 46.6333256, 24.7353787 ], [ 46.6329754, 24.7356283 ] ] } },
{ "type": "Feature", "properties": { }, "geometry": { "type": "LineString", "coordinates": [ [ 46.6325511, 24.7364021 ], [ 46.6334245, 24.7356851 ], [ 46.6335104, 24.7356125 ] ] } },
{ "type": "Feature", "properties": { }, "geometry": { "type": "LineString", "coordinates": [ [ 46.6357795, 24.7364096 ], [ 46.6354192, 24.7362793 ], [ 46.6348032, 24.7360152 ], [ 46.6338991, 24.7356257 ], [ 46.6338251, 24.7355932 ], [ 46.6336989, 24.7355735 ], [ 46.6336237, 24.7355832 ], [ 46.6335104, 24.7356125 ] ] } },
{ "type": "Feature", "properties": { }, "geometry": { "type": "LineString", "coordinates": [ [ 46.6275409, 24.7405374 ], [ 46.627982, 24.7401451 ], [ 46.628294, 24.7398574 ], [ 46.6283978, 24.7397624 ], [ 46.6289489, 24.739226 ] ] } },
{ "type": "Feature", "properties": { }, "geometry": { "type": "LineString", "coordinates": [ [ 46.6316633, 24.7371563 ], [ 46.6321803, 24.7367266 ] ] } },
{ "type": "Feature", "properties": { }, "geometry": { "type": "LineString", "coordinates": [ [ 46.6325511, 24.7364021 ], [ 46.6321803, 24.7367266 ] ] } },
{ "type": "Feature", "properties": { }, "geometry": { "type": "LineString", "coordinates": [ [ 46.6337362, 24.7383063 ], [ 46.6321803, 24.7367266 ] ] } },
{ "type": "Feature", "properties": { }, "geometry": { "type": "LineString", "coordinates": [ [ 46.6311156, 24.7376161 ], [ 46.6316633, 24.7371563 ] ] } },
{ "type": "Feature", "properties": { }, "geometry": { "type": "LineString", "coordinates": [ [ 46.633185, 24.7387598 ], [ 46.6316633, 24.7371563 ] ] } },
{ "type": "Feature", "properties": { }, "geometry": { "type": "LineString", "coordinates": [ [ 46.6398582, 24.7377457 ], [ 46.6391459, 24.7374108 ] ] } },
{ "type": "Feature", "properties": { }, "geometry": { "type": "LineString", "coordinates": [ [ 46.6358916, 24.7360504 ], [ 46.6361961, 24.7361814 ], [ 46.6391459, 24.7374108 ] ] } },
{ "type": "Feature", "properties": { }, "geometry": { "type": "LineString", "coordinates": [ [ 46.63859, 24.7373389 ], [ 46.6391058, 24.7374957 ], [ 46.6394856, 24.7376285 ], [ 46.6398582, 24.7377457 ] ] } },
{ "type": "Feature", "properties": { }, "geometry": { "type": "LineString", "coordinates": [ [ 46.633185, 24.7387598 ], [ 46.6337362, 24.7383063 ] ] } },
{ "type": "Feature", "properties": { }, "geometry": { "type": "LineString", "coordinates": [ [ 46.6339796, 24.7380988 ], [ 46.6337362, 24.7383063 ] ] } },
{ "type": "Feature", "properties": { }, "geometry": { "type": "LineString", "coordinates": [ [ 46.6313903, 24.7389802 ], [ 46.6319881, 24.7385127 ] ] } },
{ "type": "Feature", "properties": { }, "geometry": { "type": "LineString", "coordinates": [ [ 46.6326555, 24.7391892 ], [ 46.6319881, 24.7385127 ] ] } },
{ "type": "Feature", "properties": { }, "geometry": { "type": "LineString", "coordinates": [ [ 46.6311156, 24.7376161 ], [ 46.6319881, 24.7385127 ] ] } },
{ "type": "Feature", "properties": { }, "geometry": { "type": "LineString", "coordinates": [ [ 46.6326555, 24.7391892 ], [ 46.633185, 24.7387598 ] ] } },
{ "type": "Feature", "properties": { }, "geometry": { "type": "LineString", "coordinates": [ [ 46.630511, 24.7381138 ], [ 46.6313903, 24.7389802 ] ] } },
{ "type": "Feature", "properties": { }, "geometry": { "type": "LineString", "coordinates": [ [ 46.6326555, 24.7391892 ], [ 46.6320929, 24.7396419 ], [ 46.6313903, 24.7389802 ] ] } },
{ "type": "Feature", "properties": { }, "geometry": { "type": "LineString", "coordinates": [ [ 46.6363065, 24.7403767 ], [ 46.6364362, 24.7404297 ] ] } },
{ "type": "Feature", "properties": { }, "geometry": { "type": "LineString", "coordinates": [ [ 46.6365326, 24.7402276 ], [ 46.6365062, 24.7402878 ], [ 46.6364362, 24.7404297 ] ] } },
{ "type": "Feature", "properties": { }, "geometry": { "type": "LineString", "coordinates": [ [ 46.6379046, 24.7416359 ], [ 46.6378357, 24.7414416 ], [ 46.6377255, 24.7412016 ], [ 46.6375462, 24.7409823 ], [ 46.6374374, 24.7409004 ], [ 46.6373178, 24.7408239 ], [ 46.6372092, 24.7407612 ], [ 46.6370862, 24.7407007 ], [ 46.6364362, 24.7404297 ] ] } },
{ "type": "Feature", "properties": { }, "geometry": { "type": "LineString", "coordinates": [ [ 46.6326887, 24.7402523 ], [ 46.6329628, 24.7403608 ] ] } },
{ "type": "Feature", "properties": { }, "geometry": { "type": "LineString", "coordinates": [ [ 46.6329378, 24.7404673 ], [ 46.6329628, 24.7403608 ] ] } },
{ "type": "Feature", "properties": { }, "geometry": { "type": "LineString", "coordinates": [ [ 46.6331099, 24.7404023 ], [ 46.6329628, 24.7403608 ] ] } },
{ "type": "Feature", "properties": { }, "geometry": { "type": "LineString", "coordinates": [ [ 46.6344401, 24.7396503 ], [ 46.6343238, 24.7396335 ], [ 46.6338862, 24.7396721 ], [ 46.6336131, 24.739771 ], [ 46.633419, 24.7398866 ], [ 46.6332451, 24.7400267 ], [ 46.6331113, 24.7401703 ], [ 46.6330251, 24.7402685 ], [ 46.6329628, 24.7403608 ] ] } },
{ "type": "Feature", "properties": { }, "geometry": { "type": "LineString", "coordinates": [ [ 46.6326469, 24.7403539 ], [ 46.6329378, 24.7404673 ] ] } },
{ "type": "Feature", "properties": { }, "geometry": { "type": "LineString", "coordinates": [ [ 46.63307, 24.740513 ], [ 46.6329378, 24.7404673 ] ] } },
{ "type": "Feature", "properties": { }, "geometry": { "type": "LineString", "coordinates": [ [ 46.633, 24.7413836 ], [ 46.6329306, 24.7412306 ], [ 46.6328783, 24.7408807 ], [ 46.6329378, 24.7404673 ] ] } },
{ "type": "Feature", "properties": { }, "geometry": { "type": "LineString", "coordinates": [ [ 46.6381983, 24.7415859 ], [ 46.6379046, 24.7416359 ] ] } },
{ "type": "Feature", "properties": { }, "geometry": { "type": "LineString", "coordinates": [ [ 46.6379196, 24.7417709 ], [ 46.6379046, 24.7416359 ] ] } },
{ "type": "Feature", "properties": { }, "geometry": { "type": "LineString", "coordinates": [ [ 46.6377506, 24.7416477 ], [ 46.6379046, 24.7416359 ] ] } },
{ "type": "Feature", "properties": { }, "geometry": { "type": "LineString", "coordinates": [ [ 46.6374682, 24.743466 ], [ 46.6372181, 24.7429501 ] ] } },
{ "type": "Feature", "properties": { }, "geometry": { "type": "LineString", "coordinates": [ [ 46.6352444, 24.7426356 ], [ 46.6361201, 24.7429942 ], [ 46.6363375, 24.7430445 ], [ 46.6365126, 24.7430607 ], [ 46.6369364, 24.7430132 ], [ 46.6372181, 24.7429501 ] ] } },
{ "type": "Feature", "properties": { }, "geometry": { "type": "LineString", "coordinates": [ [ 46.6379196, 24.7417709 ], [ 46.6378948, 24.7421266 ], [ 46.6377717, 24.7424128 ], [ 46.6376471, 24.7426024 ], [ 46.6375193, 24.7427233 ], [ 46.6372181, 24.7429501 ] ] } },
{ "type": "Feature", "properties": { }, "geometry": { "type": "LineString", "coordinates": [ [ 46.6341893, 24.7441195 ], [ 46.6345242, 24.7444312 ] ] } },
{ "type": "Feature", "properties": { }, "geometry": { "type": "LineString", "coordinates": [ [ 46.6358252, 24.7451774 ], [ 46.6350005, 24.7448403 ], [ 46.634893, 24.7447613 ], [ 46.6347942, 24.7446861 ], [ 46.6345242, 24.7444312 ] ] } },
{ "type": "Feature", "properties": { }, "geometry": { "type": "LineString", "coordinates": [ [ 46.6345868, 24.7439501 ], [ 46.6345196, 24.7441794 ], [ 46.6345051, 24.7442386 ], [ 46.634502, 24.7442931 ], [ 46.6345242, 24.7444312 ] ] } },
{ "type": "Feature", "properties": { }, "geometry": { "type": "LineString", "coordinates": [ [ 46.636223, 24.7455226 ], [ 46.6360058, 24.7454384 ] ] } },
{ "type": "Feature", "properties": { }, "geometry": { "type": "LineString", "coordinates": [ [ 46.6334234, 24.7435291 ], [ 46.6340849, 24.7441718 ], [ 46.6348617, 24.7449051 ], [ 46.635028, 24.7450073 ], [ 46.6360058, 24.7454384 ] ] } },
{ "type": "Feature", "properties": { }, "geometry": { "type": "LineString", "coordinates": [ [ 46.6335105, 24.74664 ], [ 46.6345634, 24.7457479 ], [ 46.6360058, 24.7454384 ] ] } },
{ "type": "Feature", "properties": { }, "geometry": { "type": "LineString", "coordinates": [ [ 46.6385989, 24.7465349 ], [ 46.6392063, 24.7467854 ] ] } },
{ "type": "Feature", "properties": { }, "geometry": { "type": "LineString", "coordinates": [ [ 46.6397715, 24.7470152 ], [ 46.6392063, 24.7467854 ] ] } },
{ "type": "Feature", "properties": { }, "geometry": { "type": "LineString", "coordinates": [ [ 46.6372467, 24.745955 ], [ 46.6373553, 24.7459989 ] ] } },
{ "type": "Feature", "properties": { }, "geometry": { "type": "LineString", "coordinates": [ [ 46.6385989, 24.7465349 ], [ 46.6373553, 24.7459989 ] ] } },
{ "type": "Feature", "properties": { }, "geometry": { "type": "LineString", "coordinates": [ [ 46.637057, 24.7466219 ], [ 46.6373553, 24.7459989 ] ] } },
{ "type": "Feature", "properties": { }, "geometry": { "type": "LineString", "coordinates": [ [ 46.6374159, 24.7458878 ], [ 46.6373553, 24.7459989 ] ] } },
{ "type": "Feature", "properties": { }, "geometry": { "type": "LineString", "coordinates": [ [ 46.6356304, 24.7359366 ], [ 46.6350532, 24.7356967 ] ] } },
{ "type": "Feature", "properties": { }, "geometry": { "type": "LineString", "coordinates": [ [ 46.634425, 24.7355673 ], [ 46.6346039, 24.735599 ], [ 46.6348053, 24.7356433 ], [ 46.6350532, 24.7356967 ] ] } },
{ "type": "Feature", "properties": { }, "geometry": { "type": "LineString", "coordinates": [ [ 46.6377765, 24.7372557 ], [ 46.6379142, 24.7373155 ] ] } },
{ "type": "Feature", "properties": { }, "geometry": { "type": "LineString", "coordinates": [ [ 46.6393774, 24.7379529 ], [ 46.6379142, 24.7373155 ] ] } },
{ "type": "Feature", "properties": { }, "geometry": { "type": "LineString", "coordinates": [ [ 46.6378085, 24.7375262 ], [ 46.6379142, 24.7373155 ] ] } },
{ "type": "Feature", "properties": { }, "geometry": { "type": "LineString", "coordinates": [ [ 46.6376936, 24.7468829 ], [ 46.637057, 24.7466219 ] ] } },
{ "type": "Feature", "properties": { }, "geometry": { "type": "LineString", "coordinates": [ [ 46.6376936, 24.7468829 ], [ 46.6383111, 24.7471226 ] ] } },
{ "type": "Feature", "properties": { }, "geometry": { "type": "LineString", "coordinates": [ [ 46.6385989, 24.7465349 ], [ 46.6383111, 24.7471226 ] ] } },
{ "type": "Feature", "properties": { }, "geometry": { "type": "LineString", "coordinates": [ [ 46.6293324, 24.739062 ], [ 46.6301811, 24.7383796 ] ] } },
{ "type": "Feature", "properties": { }, "geometry": { "type": "LineString", "coordinates": [ [ 46.6303845, 24.7382128 ], [ 46.6301811, 24.7383796 ] ] } },
{ "type": "Feature", "properties": { }, "geometry": { "type": "LineString", "coordinates": [ [ 46.6304083, 24.7385362 ], [ 46.6302889, 24.7384342 ], [ 46.6301811, 24.7383796 ] ] } },
{ "type": "Feature", "properties": { }, "geometry": { "type": "LineString", "coordinates": [ [ 46.630511, 24.7381138 ], [ 46.6303845, 24.7382128 ] ] } },
{ "type": "Feature", "properties": { }, "geometry": { "type": "LineString", "coordinates": [ [ 46.63051, 24.7384501 ], [ 46.6304201, 24.7383386 ], [ 46.6303845, 24.7382128 ] ] } },
{ "type": "Feature", "properties": { }, "geometry": { "type": "LineString", "coordinates": [ [ 46.630511, 24.7381138 ], [ 46.6311156, 24.7376161 ] ] } },
{ "type": "Feature", "properties": { }, "geometry": { "type": "LineString", "coordinates": [ [ 46.6288549, 24.739442 ], [ 46.6280984, 24.7401043 ], [ 46.6275409, 24.7405374 ] ] } },
{ "type": "Feature", "properties": { }, "geometry": { "type": "LineString", "coordinates": [ [ 46.6293324, 24.739062 ], [ 46.6288549, 24.739442 ] ] } },
{ "type": "Feature", "properties": { }, "geometry": { "type": "LineString", "coordinates": [ [ 46.6292246, 24.7394925 ], [ 46.6291644, 24.7394357 ], [ 46.6291257, 24.7394018 ], [ 46.6290612, 24.7393836 ], [ 46.6289665, 24.7393957 ], [ 46.6288549, 24.739442 ] ] } },
{ "type": "Feature", "properties": { }, "geometry": { "type": "LineString", "coordinates": [ [ 46.6377695, 24.7417911 ], [ 46.6379196, 24.7417709 ] ] } },
{ "type": "Feature", "properties": { }, "geometry": { "type": "LineString", "coordinates": [ [ 46.6382268, 24.7417071 ], [ 46.6381768, 24.7417173 ], [ 46.6379196, 24.7417709 ] ] } },
{ "type": "Feature", "properties": { }, "geometry": { "type": "LineString", "coordinates": [ [ 46.6365326, 24.7402276 ], [ 46.6378053, 24.7407591 ], [ 46.6379417, 24.7407643 ], [ 46.6380212, 24.7406878 ], [ 46.6385617, 24.7395249 ], [ 46.6393774, 24.7379529 ] ] } },
{ "type": "Feature", "properties": { }, "geometry": { "type": "LineString", "coordinates": [ [ 46.6359926, 24.7365073 ], [ 46.6377765, 24.7372557 ] ] } },
{ "type": "Feature", "properties": { }, "geometry": { "type": "LineString", "coordinates": [ [ 46.6376798, 24.7374722 ], [ 46.6377765, 24.7372557 ] ] } },
{ "type": "Feature", "properties": { }, "geometry": { "type": "LineString", "coordinates": [ [ 46.6364026, 24.740118 ], [ 46.6363794, 24.7402312 ], [ 46.6363065, 24.7403767 ] ] } },
{ "type": "Feature", "properties": { }, "geometry": { "type": "LineString", "coordinates": [ [ 46.63471, 24.7397086 ], [ 46.6358926, 24.7402119 ], [ 46.6363065, 24.7403767 ] ] } },
{ "type": "Feature", "properties": { }, "geometry": { "type": "LineString", "coordinates": [ [ 46.6365428, 24.740167 ], [ 46.6365326, 24.7402276 ] ] } },
{ "type": "Feature", "properties": { }, "geometry": { "type": "LineString", "coordinates": [ [ 46.6356275, 24.7367845 ], [ 46.6359926, 24.7365073 ] ] } },
{ "type": "Feature", "properties": { }, "geometry": { "type": "LineString", "coordinates": [ [ 46.6357795, 24.7364096 ], [ 46.6359926, 24.7365073 ] ] } },
{ "type": "Feature", "properties": { }, "geometry": { "type": "LineString", "coordinates": [ [ 46.6368856, 24.7456445 ], [ 46.6358252, 24.7451774 ] ] } },
{ "type": "Feature", "properties": { }, "geometry": { "type": "LineString", "coordinates": [ [ 46.6361657, 24.7444897 ], [ 46.635934, 24.7449703 ], [ 46.6358252, 24.7451774 ] ] } },
{ "type": "Feature", "properties": { }, "geometry": { "type": "LineString", "coordinates": [ [ 46.6372343, 24.7449364 ], [ 46.6361657, 24.7444897 ] ] } },
{ "type": "Feature", "properties": { }, "geometry": { "type": "LineString", "coordinates": [ [ 46.6363665, 24.7440815 ], [ 46.6362747, 24.7442786 ], [ 46.6361657, 24.7444897 ] ] } },
{ "type": "Feature", "properties": { }, "geometry": { "type": "LineString", "coordinates": [ [ 46.6368856, 24.7456445 ], [ 46.6372343, 24.7449364 ] ] } },
{ "type": "Feature", "properties": { }, "geometry": { "type": "LineString", "coordinates": [ [ 46.6374598, 24.7443946 ], [ 46.6374811, 24.7444591 ], [ 46.6372343, 24.7449364 ] ] } },
{ "type": "Feature", "properties": { }, "geometry": { "type": "LineString", "coordinates": [ [ 46.638976, 24.7442309 ], [ 46.6392223, 24.7437282 ] ] } },
{ "type": "Feature", "properties": { }, "geometry": { "type": "LineString", "coordinates": [ [ 46.6383499, 24.745467 ], [ 46.6380261, 24.7453192 ], [ 46.6378856, 24.7450327 ], [ 46.638658, 24.7434993 ], [ 46.6392223, 24.7437282 ] ] } },
{ "type": "Feature", "properties": { }, "geometry": { "type": "LineString", "coordinates": [ [ 46.6380234, 24.7461304 ], [ 46.6374159, 24.7458878 ] ] } },
{ "type": "Feature", "properties": { }, "geometry": { "type": "LineString", "coordinates": [ [ 46.637299, 24.7458371 ], [ 46.6374159, 24.7458878 ] ] } },
{ "type": "Feature", "properties": { }, "geometry": { "type": "LineString", "coordinates": [ [ 46.638597, 24.7463697 ], [ 46.6380234, 24.7461304 ] ] } },
{ "type": "Feature", "properties": { }, "geometry": { "type": "LineString", "coordinates": [ [ 46.6383499, 24.745467 ], [ 46.6380234, 24.7461304 ] ] } },
{ "type": "Feature", "properties": { }, "geometry": { "type": "LineString", "coordinates": [ [ 46.6383499, 24.745467 ], [ 46.638976, 24.7442309 ] ] } },
{ "type": "Feature", "properties": { }, "geometry": { "type": "LineString", "coordinates": [ [ 46.6395616, 24.7444859 ], [ 46.638976, 24.7442309 ] ] } },
{ "type": "Feature", "properties": { }, "geometry": { "type": "LineString", "coordinates": [ [ 46.6389353, 24.7457124 ], [ 46.639463, 24.7459394 ] ] } },
{ "type": "Feature", "properties": { }, "geometry": { "type": "LineString", "coordinates": [ [ 46.6389353, 24.7457124 ], [ 46.6395616, 24.7444859 ] ] } },
{ "type": "Feature", "properties": { }, "geometry": { "type": "LineString", "coordinates": [ [ 46.6398391, 24.7468906 ], [ 46.638597, 24.7463697 ] ] } },
{ "type": "Feature", "properties": { }, "geometry": { "type": "LineString", "coordinates": [ [ 46.6389353, 24.7457124 ], [ 46.638597, 24.7463697 ] ] } },
{ "type": "Feature", "properties": { }, "geometry": { "type": "LineString", "coordinates": [ [ 46.6397715, 24.7470152 ], [ 46.6398391, 24.7468906 ] ] } },
{ "type": "Feature", "properties": { }, "geometry": { "type": "LineString", "coordinates": [ [ 46.6293145, 24.7394219 ], [ 46.6292574, 24.7393672 ], [ 46.6292112, 24.7392904 ], [ 46.6292212, 24.7392296 ], [ 46.6292623, 24.7391556 ], [ 46.6293324, 24.739062 ] ] } },
{ "type": "Feature", "properties": { }, "geometry": { "type": "LineString", "coordinates": [ [ 46.6366461, 24.7457121 ], [ 46.6372467, 24.745955 ] ] } },
{ "type": "Feature", "properties": { }, "geometry": { "type": "LineString", "coordinates": [ [ 46.637299, 24.7458371 ], [ 46.6372467, 24.745955 ] ] } },
{ "type": "Feature", "properties": { }, "geometry": { "type": "LineString", "coordinates": [ [ 46.634425, 24.7355673 ], [ 46.6340454, 24.7353941 ], [ 46.6338402, 24.7353165 ] ] } },
{ "type": "Feature", "properties": { }, "geometry": { "type": "LineString", "coordinates": [ [ 46.631421, 24.7368765 ], [ 46.6320217, 24.7363938 ], [ 46.6322871, 24.7361872 ] ] } },
{ "type": "Feature", "properties": { }, "geometry": { "type": "LineString", "coordinates": [ [ 46.6325511, 24.7364021 ], [ 46.6325947, 24.7363646 ], [ 46.6326212, 24.7363157 ], [ 46.6326329, 24.7362622 ], [ 46.6326231, 24.7362077 ], [ 46.6325927, 24.73616 ], [ 46.6325462, 24.7361254 ], [ 46.6324906, 24.7361079 ], [ 46.6324449, 24.7361069 ], [ 46.6323864, 24.7361231 ], [ 46.6323389, 24.7361562 ], [ 46.6322871, 24.7361872 ] ] } },
{ "type": "Feature", "properties": { }, "geometry": { "type": "LineString", "coordinates": [ [ 46.6347703, 24.7358812 ], [ 46.6351487, 24.7360859 ], [ 46.6354375, 24.7362346 ], [ 46.6357795, 24.7364096 ] ] } },
{ "type": "Feature", "properties": { }, "geometry": { "type": "LineString", "coordinates": [ [ 46.6273465, 24.7401968 ], [ 46.6277044, 24.739972 ], [ 46.628729, 24.739239 ] ] } },
{ "type": "Feature", "properties": { }, "geometry": { "type": "LineString", "coordinates": [ [ 46.631421, 24.7368765 ], [ 46.6307535, 24.7374274 ], [ 46.6295508, 24.7384175 ], [ 46.6286686, 24.7391211 ], [ 46.6283532, 24.7393739 ], [ 46.6280009, 24.7396563 ], [ 46.6276496, 24.7399404 ], [ 46.6273465, 24.7401968 ] ] } },
{ "type": "Feature", "properties": { }, "geometry": { "type": "LineString", "coordinates": [ [ 46.6334198, 24.7467302 ], [ 46.6335105, 24.74664 ] ] } },
{ "type": "Feature", "properties": { }, "geometry": { "type": "LineString", "coordinates": [ [ 46.6311053, 24.7444116 ], [ 46.6332536, 24.746402 ], [ 46.6335105, 24.74664 ] ] } },
{ "type": "Feature", "properties": { }, "geometry": { "type": "LineString", "coordinates": [ [ 46.6307639, 24.7443214 ], [ 46.6307854, 24.7443744 ], [ 46.6308237, 24.7444189 ], [ 46.6308753, 24.7444506 ], [ 46.630935, 24.7444664 ], [ 46.6309972, 24.7444648 ], [ 46.6310559, 24.7444459 ], [ 46.6311053, 24.7444116 ] ] } },
{ "type": "Feature", "properties": { }, "geometry": { "type": "LineString", "coordinates": [ [ 46.6310168, 24.7441113 ], [ 46.6310699, 24.7441335 ], [ 46.6311136, 24.7441686 ], [ 46.6311443, 24.7442137 ], [ 46.6311594, 24.744265 ], [ 46.6311576, 24.744318 ], [ 46.6311391, 24.7443683 ], [ 46.6311053, 24.7444116 ] ] } },
{ "type": "Feature", "properties": { }, "geometry": { "type": "LineString", "coordinates": [ [ 46.6290259, 24.7457908 ], [ 46.6290046, 24.7458496 ], [ 46.6290063, 24.7459116 ], [ 46.6290309, 24.7459694 ], [ 46.6290753, 24.7460164 ], [ 46.6291346, 24.7460472 ], [ 46.6292018, 24.7460581 ], [ 46.6292691, 24.7460479 ], [ 46.6293244, 24.7460208 ], [ 46.6293426, 24.7460035 ], [ 46.6293949, 24.7459281 ] ] } },
{ "type": "Feature", "properties": { }, "geometry": { "type": "LineString", "coordinates": [ [ 46.6293918, 24.7458154 ], [ 46.6294032, 24.7458715 ], [ 46.6293949, 24.7459281 ] ] } },
{ "type": "Feature", "properties": { }, "geometry": { "type": "LineString", "coordinates": [ [ 46.6289142, 24.7456069 ], [ 46.6287165, 24.7456391 ], [ 46.6285166, 24.7456476 ] ] } },
{ "type": "Feature", "properties": { }, "geometry": { "type": "LineString", "coordinates": [ [ 46.6289484, 24.7457299 ], [ 46.6287854, 24.7456747 ], [ 46.6285166, 24.7456476 ] ] } },
{ "type": "Feature", "properties": { }, "geometry": { "type": "LineString", "coordinates": [ [ 46.6299719, 24.7422638 ], [ 46.6302547, 24.7420423 ] ] } },
{ "type": "Feature", "properties": { }, "geometry": { "type": "LineString", "coordinates": [ [ 46.6305661, 24.7424969 ], [ 46.6304553, 24.7423083 ], [ 46.6302547, 24.7420423 ] ] } },
{ "type": "Feature", "properties": { }, "geometry": { "type": "LineString", "coordinates": [ [ 46.6334234, 24.7435291 ], [ 46.6332921, 24.7435159 ], [ 46.6331682, 24.7434243 ], [ 46.6329882, 24.7432323 ], [ 46.6323701, 24.7426114 ], [ 46.6320305, 24.7422633 ], [ 46.6317752, 24.742039 ], [ 46.6315983, 24.741877 ], [ 46.6315392, 24.7418389 ], [ 46.6314456, 24.7417933 ], [ 46.631362, 24.7417204 ], [ 46.6313284, 24.7416804 ], [ 46.6312349, 24.7415686 ], [ 46.6311079, 24.7414502 ], [ 46.6310544, 24.7414441 ], [ 46.6310029, 24.7414833 ], [ 46.6307033, 24.7417113 ], [ 46.6302547, 24.7420423 ] ] } },
{ "type": "Feature", "properties": { }, "geometry": { "type": "LineString", "coordinates": [ [ 46.6290419, 24.7455836 ], [ 46.629099, 24.7455732 ], [ 46.6292838, 24.7455214 ], [ 46.6294544, 24.7454596 ], [ 46.6296484, 24.7453748 ] ] } },
{ "type": "Feature", "properties": { }, "geometry": { "type": "LineString", "coordinates": [ [ 46.6307639, 24.7443214 ], [ 46.6305302, 24.7446589 ], [ 46.6304024, 24.7448105 ], [ 46.6302699, 24.7449455 ], [ 46.6301471, 24.7450557 ], [ 46.629982, 24.7451812 ], [ 46.6298092, 24.7452933 ], [ 46.6296484, 24.7453748 ] ] } },
{ "type": "Feature", "properties": { }, "geometry": { "type": "LineString", "coordinates": [ [ 46.6293918, 24.7458154 ], [ 46.6294064, 24.7456817 ], [ 46.6294267, 24.7455792 ], [ 46.6294855, 24.7455004 ], [ 46.6296484, 24.7453748 ] ] } },
{ "type": "Feature", "properties": { }, "geometry": { "type": "LineString", "coordinates": [ [ 46.6290419, 24.7455836 ], [ 46.6289142, 24.7456069 ] ] } },
{ "type": "Feature", "properties": { }, "geometry": { "type": "LineString", "coordinates": [ [ 46.6288774, 24.7454261 ], [ 46.6289142, 24.7456069 ] ] } },
{ "type": "Feature", "properties": { }, "geometry": { "type": "LineString", "coordinates": [ [ 46.6289484, 24.7457299 ], [ 46.6289142, 24.7456069 ] ] } },
{ "type": "Feature", "properties": { }, "geometry": { "type": "LineString", "coordinates": [ [ 46.6307834, 24.7442007 ], [ 46.6308251, 24.7441517 ], [ 46.6308826, 24.7441182 ], [ 46.630949, 24.7441042 ], [ 46.6310168, 24.7441113 ] ] } },
{ "type": "Feature", "properties": { }, "geometry": { "type": "LineString", "coordinates": [ [ 46.6307208, 24.7430148 ], [ 46.6307752, 24.743304 ], [ 46.6307867, 24.7433816 ], [ 46.6308215, 24.7434387 ], [ 46.6308673, 24.7434636 ], [ 46.6309258, 24.7434782 ], [ 46.6309619, 24.7434878 ], [ 46.6309867, 24.7435141 ], [ 46.6309956, 24.7435548 ], [ 46.6309931, 24.7436005 ], [ 46.6309772, 24.7436761 ], [ 46.6309512, 24.743838 ], [ 46.6309375, 24.743969 ], [ 46.630963, 24.7440415 ], [ 46.6310168, 24.7441113 ] ] } },
{ "type": "Feature", "properties": { }, "geometry": { "type": "LineString", "coordinates": [ [ 46.6307692, 24.7442316 ], [ 46.6307603, 24.7442762 ], [ 46.6307639, 24.7443214 ] ] } },
{ "type": "Feature", "properties": { }, "geometry": { "type": "LineString", "coordinates": [ [ 46.6307692, 24.7442316 ], [ 46.6307834, 24.7442007 ] ] } },
{ "type": "Feature", "properties": { }, "geometry": { "type": "LineString", "coordinates": [ [ 46.6307972, 24.7441446 ], [ 46.6307834, 24.7442007 ] ] } },
{ "type": "Feature", "properties": { }, "geometry": { "type": "LineString", "coordinates": [ [ 46.6305661, 24.7424969 ], [ 46.6306138, 24.7425781 ], [ 46.6306793, 24.7427855 ], [ 46.6307208, 24.7430148 ] ] } },
{ "type": "Feature", "properties": { }, "geometry": { "type": "LineString", "coordinates": [ [ 46.6307972, 24.7441446 ], [ 46.6308572, 24.7439051 ], [ 46.6308974, 24.7437363 ], [ 46.6308949, 24.7436776 ], [ 46.630884, 24.7436241 ], [ 46.6307605, 24.7434701 ], [ 46.6307341, 24.7434208 ], [ 46.6307189, 24.7433702 ], [ 46.6307208, 24.7430148 ] ] } },
{ "type": "Feature", "properties": { }, "geometry": { "type": "LineString", "coordinates": [ [ 46.6291528, 24.7457025 ], [ 46.6291916, 24.7456944 ], [ 46.6292594, 24.7457015 ], [ 46.6293162, 24.745726 ], [ 46.6293618, 24.7457652 ], [ 46.6293918, 24.7458154 ] ] } },
{ "type": "Feature", "properties": { }, "geometry": { "type": "LineString", "coordinates": [ [ 46.6289484, 24.7457299 ], [ 46.6290259, 24.7457908 ] ] } },
{ "type": "Feature", "properties": { }, "geometry": { "type": "LineString", "coordinates": [ [ 46.6291528, 24.7457025 ], [ 46.6291252, 24.7457083 ], [ 46.6290677, 24.7457418 ], [ 46.6290259, 24.7457908 ] ] } },
{ "type": "Feature", "properties": { }, "geometry": { "type": "LineString", "coordinates": [ [ 46.633618, 24.7419545 ], [ 46.6334537, 24.7418656 ], [ 46.6331823, 24.7416357 ], [ 46.6330191, 24.7414132 ], [ 46.633, 24.7413836 ] ] } },
{ "type": "Feature", "properties": { }, "geometry": { "type": "LineString", "coordinates": [ [ 46.633618, 24.7419545 ], [ 46.6335538, 24.7420374 ], [ 46.6335109, 24.7420983 ], [ 46.6334841, 24.7421031 ], [ 46.6334224, 24.7420885 ], [ 46.6332856, 24.742013 ], [ 46.6330925, 24.7418547 ], [ 46.6329879, 24.7417451 ], [ 46.6329181, 24.7416525 ], [ 46.6328618, 24.7415624 ], [ 46.6328443, 24.7414896 ], [ 46.6328311, 24.7414396 ], [ 46.6328521, 24.7414313 ], [ 46.633, 24.7413836 ] ] } },
{ "type": "Feature", "properties": { }, "geometry": { "type": "LineString", "coordinates": [ [ 46.6352444, 24.7426356 ], [ 46.6342947, 24.7422253 ], [ 46.6339121, 24.7420709 ], [ 46.633618, 24.7419545 ] ] } },
{ "type": "Feature", "properties": { }, "geometry": { "type": "LineString", "coordinates": [ [ 46.6331099, 24.7404023 ], [ 46.63307, 24.740513 ] ] } },
{ "type": "Feature", "properties": { }, "geometry": { "type": "LineString", "coordinates": [ [ 46.6352967, 24.7425158 ], [ 46.6337296, 24.7418648 ], [ 46.6335123, 24.7417416 ], [ 46.6333225, 24.7415703 ], [ 46.6331702, 24.7413602 ], [ 46.6330576, 24.7410922 ], [ 46.6330147, 24.7408535 ], [ 46.6330522, 24.7406196 ], [ 46.63307, 24.740513 ] ] } },
{ "type": "Feature", "properties": { }, "geometry": { "type": "LineString", "coordinates": [ [ 46.6377506, 24.7416477 ], [ 46.6377498, 24.7416414 ], [ 46.6376998, 24.7414336 ], [ 46.6376099, 24.7412866 ], [ 46.637477, 24.7411068 ], [ 46.637369, 24.7410071 ], [ 46.6372415, 24.7409145 ], [ 46.6367839, 24.7407095 ], [ 46.6360653, 24.7404152 ], [ 46.6349712, 24.73996 ], [ 46.6347962, 24.7398868 ], [ 46.6345522, 24.7398111 ], [ 46.6344577, 24.73979 ], [ 46.6343182, 24.7397719 ], [ 46.6341573, 24.7397694 ], [ 46.6339964, 24.7397841 ], [ 46.6338641, 24.7398136 ], [ 46.6336708, 24.7398894 ], [ 46.6335088, 24.7399938 ], [ 46.6333427, 24.7401124 ], [ 46.6332233, 24.7402307 ], [ 46.6331099, 24.7404023 ] ] } },
{ "type": "Feature", "properties": { }, "geometry": { "type": "LineString", "coordinates": [ [ 46.6344401, 24.7396503 ], [ 46.63471, 24.7397086 ] ] } },
{ "type": "Feature", "properties": { }, "geometry": { "type": "LineString", "coordinates": [ [ 46.6343747, 24.7377835 ], [ 46.6345, 24.7378863 ], [ 46.6345556, 24.7379692 ], [ 46.6345896, 24.7380521 ], [ 46.6346037, 24.7381061 ], [ 46.634605, 24.7381425 ], [ 46.6346178, 24.7385094 ], [ 46.6346651, 24.7391812 ], [ 46.6346758, 24.7394535 ], [ 46.6346824, 24.739586 ], [ 46.63471, 24.7397086 ] ] } },
{ "type": "Feature", "properties": { }, "geometry": { "type": "LineString", "coordinates": [ [ 46.6343148, 24.7378316 ], [ 46.6343747, 24.7377835 ] ] } },
{ "type": "Feature", "properties": { }, "geometry": { "type": "LineString", "coordinates": [ [ 46.6350993, 24.7371914 ], [ 46.6349577, 24.7373036 ], [ 46.6343747, 24.7377835 ] ] } },
{ "type": "Feature", "properties": { }, "geometry": { "type": "LineString", "coordinates": [ [ 46.6346882, 24.7437616 ], [ 46.6345868, 24.7439501 ] ] } },
{ "type": "Feature", "properties": { }, "geometry": { "type": "LineString", "coordinates": [ [ 46.6341893, 24.7441195 ], [ 46.6343298, 24.7441351 ], [ 46.6344002, 24.7441117 ], [ 46.6344644, 24.7440836 ], [ 46.6345868, 24.7439501 ] ] } },
{ "type": "Feature", "properties": { }, "geometry": { "type": "LineString", "coordinates": [ [ 46.6369376, 24.7436099 ], [ 46.6374682, 24.743466 ] ] } },
{ "type": "Feature", "properties": { }, "geometry": { "type": "LineString", "coordinates": [ [ 46.637471, 24.7438461 ], [ 46.6375262, 24.7436412 ], [ 46.6374682, 24.743466 ] ] } },
{ "type": "Feature", "properties": { }, "geometry": { "type": "LineString", "coordinates": [ [ 46.6372973, 24.7439737 ], [ 46.6373644, 24.7439579 ], [ 46.637471, 24.7438461 ] ] } },
{ "type": "Feature", "properties": { }, "geometry": { "type": "LineString", "coordinates": [ [ 46.6374598, 24.7443946 ], [ 46.6375636, 24.7442383 ], [ 46.6375315, 24.7440905 ], [ 46.6377341, 24.7440422 ], [ 46.6377062, 24.7439725 ], [ 46.637471, 24.7438461 ] ] } },
{ "type": "Feature", "properties": { }, "geometry": { "type": "LineString", "coordinates": [ [ 46.6357741, 24.7426954 ], [ 46.6352967, 24.7425158 ] ] } },
{ "type": "Feature", "properties": { }, "geometry": { "type": "LineString", "coordinates": [ [ 46.6352444, 24.7426356 ], [ 46.6352967, 24.7425158 ] ] } },
{ "type": "Feature", "properties": { }, "geometry": { "type": "LineString", "coordinates": [ [ 46.6347969, 24.7435597 ], [ 46.6352444, 24.7426356 ] ] } },
{ "type": "Feature", "properties": { }, "geometry": { "type": "LineString", "coordinates": [ [ 46.6356971, 24.7438925 ], [ 46.6347969, 24.7435597 ] ] } },
{ "type": "Feature", "properties": { }, "geometry": { "type": "LineString", "coordinates": [ [ 46.6346882, 24.7437616 ], [ 46.6347969, 24.7435597 ] ] } },
{ "type": "Feature", "properties": { }, "geometry": { "type": "LineString", "coordinates": [ [ 46.635997, 24.7439942 ], [ 46.6363665, 24.7440815 ] ] } },
{ "type": "Feature", "properties": { }, "geometry": { "type": "LineString", "coordinates": [ [ 46.6372973, 24.7439737 ], [ 46.637038, 24.7440349 ], [ 46.6367161, 24.7440738 ], [ 46.6363665, 24.7440815 ] ] } },
{ "type": "Feature", "properties": { }, "geometry": { "type": "LineString", "coordinates": [ [ 46.6361527, 24.7458246 ], [ 46.6357927, 24.7459397 ] ] } },
{ "type": "Feature", "properties": { }, "geometry": { "type": "LineString", "coordinates": [ [ 46.6356911, 24.7460916 ], [ 46.6357416, 24.7460429 ], [ 46.6357754, 24.7459834 ], [ 46.6357927, 24.7459397 ] ] } },
{ "type": "Feature", "properties": { }, "geometry": { "type": "LineString", "coordinates": [ [ 46.6357616, 24.7457937 ], [ 46.6357849, 24.7458541 ], [ 46.6357927, 24.7459397 ] ] } },
{ "type": "Feature", "properties": { }, "geometry": { "type": "LineString", "coordinates": [ [ 46.6361307, 24.7457038 ], [ 46.6357616, 24.7457937 ] ] } },
{ "type": "Feature", "properties": { }, "geometry": { "type": "LineString", "coordinates": [ [ 46.6356264, 24.7461265 ], [ 46.6355654, 24.746142 ], [ 46.635502, 24.746144 ], [ 46.63544, 24.7461324 ], [ 46.6353827, 24.7461078 ], [ 46.6353413, 24.7460785 ], [ 46.635307, 24.7460424 ], [ 46.6352811, 24.7460009 ], [ 46.6352648, 24.7459557 ], [ 46.6352585, 24.7459083 ], [ 46.6352626, 24.7458608 ], [ 46.6352769, 24.7458149 ], [ 46.6352999, 24.7457738 ], [ 46.6353311, 24.7457374 ], [ 46.6353694, 24.745707 ], [ 46.6354133, 24.7456838 ], [ 46.6354614, 24.7456686 ], [ 46.6355117, 24.745662 ], [ 46.6355624, 24.7456642 ], [ 46.6356118, 24.7456751 ], [ 46.635658, 24.7456944 ], [ 46.6356993, 24.7457212 ], [ 46.6357343, 24.7457548 ], [ 46.6357616, 24.7457937 ] ] } },
{ "type": "Feature", "properties": { }, "geometry": { "type": "LineString", "coordinates": [ [ 46.6354153, 24.7467412 ], [ 46.6355317, 24.7468494 ] ] } },
{ "type": "Feature", "properties": { }, "geometry": { "type": "LineString", "coordinates": [ [ 46.6354153, 24.7467412 ], [ 46.6350853, 24.747031 ], [ 46.6350558, 24.7470895 ], [ 46.6350639, 24.7471358 ], [ 46.635139, 24.7471942 ], [ 46.6355317, 24.7468494 ] ] } },
{ "type": "Feature", "properties": { }, "geometry": { "type": "LineString", "coordinates": [ [ 46.6356911, 24.7460916 ], [ 46.6359571, 24.7464342 ], [ 46.635949, 24.746483 ], [ 46.6355317, 24.7468494 ] ] } },
{ "type": "Feature", "properties": { }, "geometry": { "type": "LineString", "coordinates": [ [ 46.6356264, 24.7461265 ], [ 46.6356601, 24.7461111 ], [ 46.6356911, 24.7460916 ] ] } },
{ "type": "Feature", "properties": { }, "geometry": { "type": "LineString", "coordinates": [ [ 46.6356264, 24.7461265 ], [ 46.635485, 24.7464513 ], [ 46.6354448, 24.7466413 ], [ 46.6354153, 24.7467412 ] ] } },
{ "type": "Feature", "properties": { }, "geometry": { "type": "LineString", "coordinates": [ [ 46.6361307, 24.7457038 ], [ 46.6361527, 24.7458246 ] ] } },
{ "type": "Feature", "properties": { }, "geometry": { "type": "LineString", "coordinates": [ [ 46.6366461, 24.7457121 ], [ 46.6361527, 24.7458246 ] ] } },
{ "type": "Feature", "properties": { }, "geometry": { "type": "LineString", "coordinates": [ [ 46.636223, 24.7455226 ], [ 46.6361888, 24.7456779 ], [ 46.6361307, 24.7457038 ] ] } },
{ "type": "Feature", "properties": { }, "geometry": { "type": "LineString", "coordinates": [ [ 46.6366461, 24.7457121 ], [ 46.636223, 24.7455226 ] ] } },
{ "type": "Feature", "properties": { }, "geometry": { "type": "LineString", "coordinates": [ [ 46.6293145, 24.7394219 ], [ 46.6307279, 24.7407736 ], [ 46.6341893, 24.7441195 ] ] } },
{ "type": "Feature", "properties": { }, "geometry": { "type": "LineString", "coordinates": [ [ 46.6304407, 24.7426083 ], [ 46.6305661, 24.7424969 ] ] } },
{ "type": "Feature", "properties": { }, "geometry": { "type": "LineString", "coordinates": [ [ 46.6300631, 24.743878 ], [ 46.6298846, 24.7438131 ] ] } },
{ "type": "Feature", "properties": { }, "geometry": { "type": "LineString", "coordinates": [ [ 46.6296811, 24.7437392 ], [ 46.6298846, 24.7438131 ] ] } },
{ "type": "Feature", "properties": { }, "geometry": { "type": "LineString", "coordinates": [ [ 46.6299585, 24.7434271 ], [ 46.6299585, 24.7434869 ], [ 46.6299198, 24.7436769 ], [ 46.6298846, 24.7438131 ] ] } },
{ "type": "Feature", "properties": { }, "geometry": { "type": "LineString", "coordinates": [ [ 46.6301024, 24.7428399 ], [ 46.630005, 24.7429066 ], [ 46.6299585, 24.7429628 ], [ 46.6299391, 24.7430402 ], [ 46.6299585, 24.7433146 ], [ 46.6299585, 24.7434271 ] ] } },
{ "type": "Feature", "properties": { }, "geometry": { "type": "LineString", "coordinates": [ [ 46.6296811, 24.7437392 ], [ 46.6297106, 24.7435678 ], [ 46.6297416, 24.7434799 ], [ 46.6299585, 24.7434271 ] ] } },
{ "type": "Feature", "properties": { }, "geometry": { "type": "LineString", "coordinates": [ [ 46.6302793, 24.7427188 ], [ 46.6301024, 24.7428399 ] ] } },
{ "type": "Feature", "properties": { }, "geometry": { "type": "LineString", "coordinates": [ [ 46.6300631, 24.743878 ], [ 46.6300867, 24.743815 ], [ 46.6301091, 24.7436846 ], [ 46.630145, 24.7434891 ], [ 46.6301719, 24.7432731 ], [ 46.6301405, 24.7430246 ], [ 46.6301024, 24.7428399 ] ] } },
{ "type": "Feature", "properties": { }, "geometry": { "type": "LineString", "coordinates": [ [ 46.6307972, 24.7441446 ], [ 46.6304538, 24.7440199 ] ] } },
{ "type": "Feature", "properties": { }, "geometry": { "type": "LineString", "coordinates": [ [ 46.6302526, 24.7439468 ], [ 46.6304538, 24.7440199 ] ] } },
{ "type": "Feature", "properties": { }, "geometry": { "type": "LineString", "coordinates": [ [ 46.6304188, 24.7441055 ], [ 46.6304538, 24.7440199 ] ] } },
{ "type": "Feature", "properties": { }, "geometry": { "type": "LineString", "coordinates": [ [ 46.6304407, 24.7426083 ], [ 46.6304731, 24.7426554 ], [ 46.6305387, 24.7428639 ], [ 46.6305832, 24.743079 ], [ 46.6305768, 24.7434731 ], [ 46.6305249, 24.743779 ], [ 46.6304538, 24.7440199 ] ] } },
{ "type": "Feature", "properties": { }, "geometry": { "type": "LineString", "coordinates": [ [ 46.6302793, 24.7427188 ], [ 46.6304407, 24.7426083 ] ] } },
{ "type": "Feature", "properties": { }, "geometry": { "type": "LineString", "coordinates": [ [ 46.6288038, 24.7450642 ], [ 46.6288423, 24.7452536 ] ] } },
{ "type": "Feature", "properties": { }, "geometry": { "type": "LineString", "coordinates": [ [ 46.6288774, 24.7454261 ], [ 46.6288423, 24.7452536 ] ] } },
{ "type": "Feature", "properties": { }, "geometry": { "type": "LineString", "coordinates": [ [ 46.6289332, 24.7452341 ], [ 46.6288423, 24.7452536 ] ] } },
{ "type": "Feature", "properties": { }, "geometry": { "type": "LineString", "coordinates": [ [ 46.6289702, 24.7454042 ], [ 46.6289332, 24.7452341 ] ] } },
{ "type": "Feature", "properties": { }, "geometry": { "type": "LineString", "coordinates": [ [ 46.6288934, 24.7450513 ], [ 46.6289332, 24.7452341 ] ] } },
{ "type": "Feature", "properties": { }, "geometry": { "type": "LineString", "coordinates": [ [ 46.6304188, 24.7441055 ], [ 46.6303695, 24.7442261 ], [ 46.6299549, 24.7446967 ], [ 46.6297282, 24.744885 ], [ 46.6294173, 24.7450673 ], [ 46.6291064, 24.7451967 ], [ 46.6289332, 24.7452341 ] ] } },
{ "type": "Feature", "properties": { }, "geometry": { "type": "LineString", "coordinates": [ [ 46.6302148, 24.7440321 ], [ 46.6304188, 24.7441055 ] ] } },
{ "type": "Feature", "properties": { }, "geometry": { "type": "LineString", "coordinates": [ [ 46.6306177, 24.7441771 ], [ 46.6304188, 24.7441055 ] ] } },
{ "type": "Feature", "properties": { }, "geometry": { "type": "LineString", "coordinates": [ [ 46.6306177, 24.7441771 ], [ 46.6307692, 24.7442316 ] ] } },
{ "type": "Feature", "properties": { }, "geometry": { "type": "LineString", "coordinates": [ [ 46.6300302, 24.7439657 ], [ 46.6296497, 24.7438288 ] ] } },
{ "type": "Feature", "properties": { }, "geometry": { "type": "LineString", "coordinates": [ [ 46.6296811, 24.7437392 ], [ 46.6296497, 24.7438288 ] ] } },
{ "type": "Feature", "properties": { }, "geometry": { "type": "LineString", "coordinates": [ [ 46.6287655, 24.7444634 ], [ 46.628848, 24.7444437 ], [ 46.629092, 24.7443523 ], [ 46.6293399, 24.7441905 ], [ 46.6295297, 24.7440005 ], [ 46.6296497, 24.7438288 ] ] } },
{ "type": "Feature", "properties": { }, "geometry": { "type": "LineString", "coordinates": [ [ 46.6287655, 24.7444634 ], [ 46.6286854, 24.7444824 ] ] } },
{ "type": "Feature", "properties": { }, "geometry": { "type": "LineString", "coordinates": [ [ 46.6287635, 24.7448664 ], [ 46.6286854, 24.7444824 ] ] } },
{ "type": "Feature", "properties": { }, "geometry": { "type": "LineString", "coordinates": [ [ 46.6272717, 24.7444308 ], [ 46.6275622, 24.7442151 ], [ 46.6276358, 24.7442116 ], [ 46.6277404, 24.744289 ], [ 46.6280115, 24.7444156 ], [ 46.6282012, 24.7444578 ], [ 46.6284607, 24.744493 ], [ 46.6286854, 24.7444824 ] ] } },
{ "type": "Feature", "properties": { }, "geometry": { "type": "LineString", "coordinates": [ [ 46.6289702, 24.7454042 ], [ 46.629061, 24.7453828 ], [ 46.629274, 24.7453195 ], [ 46.6295684, 24.7451929 ], [ 46.6299092, 24.7449784 ], [ 46.6301764, 24.7447568 ], [ 46.6304553, 24.7444437 ], [ 46.6306177, 24.7441771 ] ] } },
{ "type": "Feature", "properties": { }, "geometry": { "type": "LineString", "coordinates": [ [ 46.6291528, 24.7457025 ], [ 46.6290419, 24.7455836 ] ] } },
{ "type": "Feature", "properties": { }, "geometry": { "type": "LineString", "coordinates": [ [ 46.6289702, 24.7454042 ], [ 46.6289888, 24.7454901 ], [ 46.6290419, 24.7455836 ] ] } },
{ "type": "Feature", "properties": { }, "geometry": { "type": "LineString", "coordinates": [ [ 46.6289702, 24.7454042 ], [ 46.6288774, 24.7454261 ] ] } },
{ "type": "Feature", "properties": { }, "geometry": { "type": "LineString", "coordinates": [ [ 46.6288489, 24.7448469 ], [ 46.6287655, 24.7444634 ] ] } },
{ "type": "Feature", "properties": { }, "geometry": { "type": "LineString", "coordinates": [ [ 46.6288038, 24.7450642 ], [ 46.6287635, 24.7448664 ] ] } },
{ "type": "Feature", "properties": { }, "geometry": { "type": "LineString", "coordinates": [ [ 46.6288489, 24.7448469 ], [ 46.6287635, 24.7448664 ] ] } },
{ "type": "Feature", "properties": { }, "geometry": { "type": "LineString", "coordinates": [ [ 46.6272717, 24.7444308 ], [ 46.6273861, 24.744532 ], [ 46.6274938, 24.7446013 ], [ 46.6277405, 24.7447276 ], [ 46.6280097, 24.7448213 ], [ 46.628382, 24.7448824 ], [ 46.6285839, 24.7448743 ], [ 46.6287635, 24.7448664 ] ] } },
{ "type": "Feature", "properties": { }, "geometry": { "type": "LineString", "coordinates": [ [ 46.6270982, 24.7445597 ], [ 46.6272717, 24.7444308 ] ] } },
{ "type": "Feature", "properties": { }, "geometry": { "type": "LineString", "coordinates": [ [ 46.6288934, 24.7450513 ], [ 46.6288489, 24.7448469 ] ] } },
{ "type": "Feature", "properties": { }, "geometry": { "type": "LineString", "coordinates": [ [ 46.6300302, 24.7439657 ], [ 46.6300104, 24.7440187 ], [ 46.6299207, 24.7441409 ], [ 46.6297054, 24.7443976 ], [ 46.6294497, 24.7446013 ], [ 46.6292433, 24.7447194 ], [ 46.6290145, 24.7448091 ], [ 46.6288489, 24.7448469 ] ] } },
{ "type": "Feature", "properties": { }, "geometry": { "type": "LineString", "coordinates": [ [ 46.6302148, 24.7440321 ], [ 46.6300302, 24.7439657 ] ] } },
{ "type": "Feature", "properties": { }, "geometry": { "type": "LineString", "coordinates": [ [ 46.6300631, 24.743878 ], [ 46.6300302, 24.7439657 ] ] } },
{ "type": "Feature", "properties": { }, "geometry": { "type": "LineString", "coordinates": [ [ 46.6302526, 24.7439468 ], [ 46.6300631, 24.743878 ] ] } },
{ "type": "Feature", "properties": { }, "geometry": { "type": "LineString", "coordinates": [ [ 46.6288038, 24.7450642 ], [ 46.6286242, 24.7450902 ], [ 46.6283596, 24.7451024 ], [ 46.6281353, 24.7450861 ], [ 46.6278392, 24.7450087 ], [ 46.6275611, 24.7448865 ], [ 46.6273188, 24.7447439 ], [ 46.6270982, 24.7445597 ] ] } },
{ "type": "Feature", "properties": { }, "geometry": { "type": "LineString", "coordinates": [ [ 46.6302526, 24.7439468 ], [ 46.630293, 24.7438557 ], [ 46.6303513, 24.7437213 ], [ 46.6303962, 24.7435094 ], [ 46.6304052, 24.7432772 ], [ 46.6303648, 24.7430002 ], [ 46.6303155, 24.7428291 ], [ 46.6302793, 24.7427188 ] ] } },
{ "type": "Feature", "properties": { }, "geometry": { "type": "LineString", "coordinates": [ [ 46.6288934, 24.7450513 ], [ 46.6288038, 24.7450642 ] ] } },
{ "type": "Feature", "properties": { }, "geometry": { "type": "LineString", "coordinates": [ [ 46.6302148, 24.7440321 ], [ 46.6301719, 24.7441287 ], [ 46.6300642, 24.7443406 ], [ 46.6299117, 24.7444954 ], [ 46.6297547, 24.7446502 ], [ 46.6295528, 24.7447969 ], [ 46.6292568, 24.7449639 ], [ 46.629019, 24.7450331 ], [ 46.6288934, 24.7450513 ] ] } },
{ "type": "Feature", "properties": { }, "geometry": { "type": "LineString", "coordinates": [ [ 46.6302526, 24.7439468 ], [ 46.6302148, 24.7440321 ] ] } },
{ "type": "Feature", "properties": { }, "geometry": { "type": "LineString", "coordinates": [ [ 46.6306372, 24.7408264 ], [ 46.6334234, 24.7435291 ] ] } },
{ "type": "Feature", "properties": { }, "geometry": { "type": "LineString", "coordinates": [ [ 46.6292246, 24.7394925 ], [ 46.6306372, 24.7408264 ] ] } },
{ "type": "Feature", "properties": { }, "geometry": { "type": "LineString", "coordinates": [ [ 46.6307864, 24.7415121 ], [ 46.6309289, 24.7414004 ], [ 46.6309883, 24.7413538 ], [ 46.6309759, 24.7413171 ], [ 46.6308454, 24.7412014 ], [ 46.6307031, 24.7410753 ], [ 46.6306466, 24.7409663 ], [ 46.6306372, 24.7408264 ] ] } },
{ "type": "Feature", "properties": { }, "geometry": { "type": "LineString", "coordinates": [ [ 46.6299719, 24.7422638 ], [ 46.6296064, 24.74255 ] ] } },
{ "type": "Feature", "properties": { }, "geometry": { "type": "LineString", "coordinates": [ [ 46.6298587, 24.7428169 ], [ 46.6296064, 24.74255 ] ] } },
{ "type": "Feature", "properties": { }, "geometry": { "type": "LineString", "coordinates": [ [ 46.6295517, 24.7424685 ], [ 46.629215, 24.7427266 ], [ 46.629284, 24.7428025 ], [ 46.6296064, 24.74255 ] ] } },
{ "type": "Feature", "properties": { }, "geometry": { "type": "LineString", "coordinates": [ [ 46.629704, 24.7429362 ], [ 46.6298587, 24.7428169 ] ] } },
{ "type": "Feature", "properties": { }, "geometry": { "type": "LineString", "coordinates": [ [ 46.6299296, 24.7427678 ], [ 46.6298587, 24.7428169 ] ] } },
{ "type": "Feature", "properties": { }, "geometry": { "type": "LineString", "coordinates": [ [ 46.6300847, 24.7426603 ], [ 46.6301461, 24.7426178 ], [ 46.6301678, 24.7425901 ], [ 46.6301809, 24.7425408 ], [ 46.6301613, 24.7424895 ], [ 46.6300961, 24.7424086 ], [ 46.6300223, 24.7423218 ], [ 46.6299719, 24.7422638 ] ] } },
{ "type": "Feature", "properties": { }, "geometry": { "type": "LineString", "coordinates": [ [ 46.6300847, 24.7426603 ], [ 46.6299296, 24.7427678 ] ] } },
{ "type": "Feature", "properties": { }, "geometry": { "type": "LineString", "coordinates": [ [ 46.6300847, 24.7426603 ], [ 46.6299245, 24.7424915 ], [ 46.6298724, 24.7424579 ], [ 46.6298311, 24.7424599 ], [ 46.6297703, 24.7425053 ], [ 46.6297529, 24.7425566 ], [ 46.6297703, 24.7425961 ], [ 46.6299296, 24.7427678 ] ] } },
{ "type": "Feature", "properties": { }, "geometry": { "type": "LineString", "coordinates": [ [ 46.629704, 24.7429362 ], [ 46.6295702, 24.7430393 ], [ 46.6294183, 24.742892 ], [ 46.6293857, 24.7428348 ], [ 46.6294074, 24.7427776 ], [ 46.6294552, 24.742746 ], [ 46.6295008, 24.7427302 ], [ 46.6295334, 24.742746 ], [ 46.629704, 24.7429362 ] ] } },
{ "type": "Feature", "properties": { }, "geometry": { "type": "LineString", "coordinates": [ [ 46.6295517, 24.7424685 ], [ 46.6299105, 24.7421935 ] ] } },
{ "type": "Feature", "properties": { }, "geometry": { "type": "LineString", "coordinates": [ [ 46.6302295, 24.7419488 ], [ 46.6302147, 24.7419604 ], [ 46.6299105, 24.7421935 ] ] } },
{ "type": "Feature", "properties": { }, "geometry": { "type": "LineString", "coordinates": [ [ 46.6295246, 24.7420586 ], [ 46.6296894, 24.7419449 ], [ 46.6299105, 24.7421935 ] ] } },
{ "type": "Feature", "properties": { }, "geometry": { "type": "LineString", "coordinates": [ [ 46.6293003, 24.7422134 ], [ 46.6291494, 24.7423176 ] ] } },
{ "type": "Feature", "properties": { }, "geometry": { "type": "LineString", "coordinates": [ [ 46.6291494, 24.7423176 ], [ 46.6289894, 24.7424279 ], [ 46.62911, 24.7425718 ], [ 46.6291571, 24.7425917 ], [ 46.6292104, 24.7426117 ], [ 46.6292575, 24.7425889 ], [ 46.629314, 24.7425376 ], [ 46.629292, 24.7424949 ], [ 46.6291494, 24.7423176 ] ] } },
{ "type": "Feature", "properties": { }, "geometry": { "type": "LineString", "coordinates": [ [ 46.6293658, 24.7421683 ], [ 46.6293003, 24.7422134 ] ] } },
{ "type": "Feature", "properties": { }, "geometry": { "type": "LineString", "coordinates": [ [ 46.6295517, 24.7424685 ], [ 46.6293003, 24.7422134 ] ] } },
{ "type": "Feature", "properties": { }, "geometry": { "type": "LineString", "coordinates": [ [ 46.6295246, 24.7420586 ], [ 46.6293658, 24.7421683 ] ] } },
{ "type": "Feature", "properties": { }, "geometry": { "type": "LineString", "coordinates": [ [ 46.6295246, 24.7420586 ], [ 46.6296716, 24.7422157 ], [ 46.6296653, 24.7422584 ], [ 46.6296151, 24.742304 ], [ 46.6295492, 24.7423353 ], [ 46.6295085, 24.7423182 ], [ 46.6293658, 24.7421683 ] ] } },
{ "type": "Feature", "properties": { }, "geometry": { "type": "LineString", "coordinates": [ [ 46.6301531, 24.7416412 ], [ 46.6301217, 24.7416332 ], [ 46.6300372, 24.7415803 ], [ 46.6299762, 24.7415054 ], [ 46.6299454, 24.7414165 ], [ 46.629948, 24.7413233 ], [ 46.6299839, 24.741236 ], [ 46.630049, 24.741164 ], [ 46.6301364, 24.7411152 ], [ 46.6302365, 24.7410948 ], [ 46.6303385, 24.7411051 ], [ 46.6304313, 24.741145 ], [ 46.6305047, 24.74121 ], [ 46.6305508, 24.741293 ], [ 46.6305648, 24.741385 ], [ 46.6305452, 24.7414762 ], [ 46.6304941, 24.7415566 ], [ 46.630417, 24.7416177 ], [ 46.6303223, 24.7416529 ], [ 46.6302202, 24.7416582 ], [ 46.6301531, 24.7416412 ] ] } },
{ "type": "Feature", "properties": { }, "geometry": { "type": "LineString", "coordinates": [ [ 46.6302295, 24.7419488 ], [ 46.6301754, 24.7419095 ], [ 46.630124, 24.7418406 ], [ 46.6300942, 24.7417693 ], [ 46.6301213, 24.7417028 ], [ 46.6301531, 24.7416412 ] ] } },
{ "type": "Feature", "properties": { }, "geometry": { "type": "LineString", "coordinates": [ [ 46.6307864, 24.7415121 ], [ 46.6302295, 24.7419488 ] ] } },
{ "type": "Feature", "properties": { }, "geometry": { "type": "LineString", "coordinates": [ [ 46.6294992, 24.740136 ], [ 46.6296376, 24.7402343 ], [ 46.6297634, 24.7403257 ], [ 46.6299672, 24.7404308 ], [ 46.6301988, 24.7406023 ], [ 46.6304152, 24.7408262 ], [ 46.6305284, 24.7410022 ], [ 46.630609, 24.7411394 ], [ 46.6306593, 24.7412491 ], [ 46.6307247, 24.7413999 ], [ 46.6307864, 24.7415121 ] ] } },
{ "type": "Feature", "properties": { }, "geometry": { "type": "LineString", "coordinates": [ [ 46.6294413, 24.7400621 ], [ 46.6294992, 24.740136 ] ] } },
{ "type": "Feature", "properties": { }, "geometry": { "type": "LineString", "coordinates": [ [ 46.6293119, 24.7402396 ], [ 46.6293397, 24.7402369 ], [ 46.6293535, 24.7402359 ], [ 46.6293679, 24.7402341 ], [ 46.62938, 24.7402299 ], [ 46.6293937, 24.7402213 ], [ 46.6294272, 24.7401982 ], [ 46.6294992, 24.740136 ] ] } },
{ "type": "Feature", "properties": { }, "geometry": { "type": "LineString", "coordinates": [ [ 46.6392653, 24.7361303 ], [ 46.6394909, 24.7359363 ] ] } },
{ "type": "Feature", "properties": { }, "geometry": { "type": "LineString", "coordinates": [ [ 46.6388063, 24.7365154 ], [ 46.6391563, 24.7362143 ] ] } },
{ "type": "Feature", "properties": { }, "geometry": { "type": "LineString", "coordinates": [ [ 46.6391563, 24.7362143 ], [ 46.63917, 24.7362288 ], [ 46.6392094, 24.7362396 ], [ 46.6392489, 24.7362293 ], [ 46.639276, 24.7362013 ], [ 46.6392821, 24.7361643 ], [ 46.6392653, 24.7361303 ] ] } },
{ "type": "Feature", "properties": { }, "geometry": { "type": "LineString", "coordinates": [ [ 46.6391563, 24.7362143 ], [ 46.6391433, 24.7362005 ], [ 46.6391377, 24.7361635 ], [ 46.639155, 24.7361296 ], [ 46.6391898, 24.7361096 ], [ 46.6392309, 24.7361099 ], [ 46.6392653, 24.7361303 ] ] } },
{ "type": "Feature", "properties": { }, "geometry": { "type": "LineString", "coordinates": [ [ 46.638102, 24.7358712 ], [ 46.6388063, 24.7365154 ] ] } },
{ "type": "Feature", "properties": { }, "geometry": { "type": "LineString", "coordinates": [ [ 46.6377903, 24.7356293 ], [ 46.6378239, 24.735728 ], [ 46.6387399, 24.7365843 ], [ 46.6387694, 24.7365928 ], [ 46.6387935, 24.736594 ], [ 46.638827, 24.7365697 ], [ 46.6388337, 24.7365538 ], [ 46.6388243, 24.7365319 ], [ 46.6388063, 24.7365154 ] ] } },
{ "type": "Feature", "properties": { }, "geometry": { "type": "LineString", "coordinates": [ [ 46.6383134, 24.7356354 ], [ 46.6382088, 24.7356878 ], [ 46.6381578, 24.7357268 ], [ 46.6381203, 24.7357755 ], [ 46.638102, 24.7358712 ] ] } },
{ "type": "Feature", "properties": { }, "geometry": { "type": "LineString", "coordinates": [ [ 46.6377903, 24.7356293 ], [ 46.6378829, 24.7356708 ], [ 46.638102, 24.7358712 ] ] } },
{ "type": "Feature", "properties": { }, "geometry": { "type": "LineString", "coordinates": [ [ 46.6377013, 24.7355366 ], [ 46.6378078, 24.7355733 ], [ 46.6379178, 24.7356038 ], [ 46.6380331, 24.7356184 ], [ 46.6381095, 24.7356208 ], [ 46.6382249, 24.7356257 ], [ 46.6383134, 24.7356354 ] ] } },
{ "type": "Feature", "properties": { }, "geometry": { "type": "LineString", "coordinates": [ [ 46.6377903, 24.7356293 ], [ 46.6377013, 24.7355366 ] ] } },
{ "type": "Feature", "properties": { }, "geometry": { "type": "LineString", "coordinates": [ [ 46.6375677, 24.7353975 ], [ 46.6377013, 24.7355366 ] ] } },
{ "type": "Feature", "properties": { }, "geometry": { "type": "LineString", "coordinates": [ [ 46.6371072, 24.7357688 ], [ 46.6365928, 24.7361836 ] ] } },
{ "type": "Feature", "properties": { }, "geometry": { "type": "LineString", "coordinates": [ [ 46.6368301, 24.7362859 ], [ 46.6365928, 24.7361836 ] ] } },
{ "type": "Feature", "properties": { }, "geometry": { "type": "LineString", "coordinates": [ [ 46.6360121, 24.7356441 ], [ 46.6361086, 24.7357402 ], [ 46.6361649, 24.7358169 ], [ 46.6362481, 24.7359339 ], [ 46.6363312, 24.7360228 ], [ 46.6364358, 24.7361032 ], [ 46.6365928, 24.7361836 ] ] } },
{ "type": "Feature", "properties": { }, "geometry": { "type": "LineString", "coordinates": [ [ 46.6374481, 24.735494 ], [ 46.6375677, 24.7353975 ] ] } },
{ "type": "Feature", "properties": { }, "geometry": { "type": "LineString", "coordinates": [ [ 46.6358916, 24.7360504 ], [ 46.6356304, 24.7359366 ] ] } },
{ "type": "Feature", "properties": { }, "geometry": { "type": "LineString", "coordinates": [ [ 46.6359356, 24.7357158 ], [ 46.6358508, 24.7357624 ], [ 46.6357894, 24.7358309 ], [ 46.6356304, 24.7359366 ] ] } },
{ "type": "Feature", "properties": { }, "geometry": { "type": "LineString", "coordinates": [ [ 46.6359356, 24.7357158 ], [ 46.6359292, 24.735788 ], [ 46.6359128, 24.7358522 ], [ 46.6358934, 24.7359661 ], [ 46.6358916, 24.7360504 ] ] } },
{ "type": "Feature", "properties": { }, "geometry": { "type": "LineString", "coordinates": [ [ 46.6360121, 24.7356441 ], [ 46.6359356, 24.7357158 ] ] } },
{ "type": "Feature", "properties": { }, "geometry": { "type": "LineString", "coordinates": [ [ 46.6326887, 24.7402523 ], [ 46.6323314, 24.7400974 ] ] } },
{ "type": "Feature", "properties": { }, "geometry": { "type": "LineString", "coordinates": [ [ 46.6320728, 24.7399915 ], [ 46.6323314, 24.7400974 ] ] } },
{ "type": "Feature", "properties": { }, "geometry": { "type": "LineString", "coordinates": [ [ 46.6324245, 24.7397413 ], [ 46.6323246, 24.7398784 ], [ 46.6323124, 24.7399487 ], [ 46.6323088, 24.740017 ], [ 46.6323314, 24.7400974 ] ] } },
{ "type": "Feature", "properties": { }, "geometry": { "type": "LineString", "coordinates": [ [ 46.6315129, 24.7394578 ], [ 46.6319843, 24.739924 ], [ 46.6320728, 24.7399915 ] ] } },
{ "type": "Feature", "properties": { }, "geometry": { "type": "LineString", "coordinates": [ [ 46.6324245, 24.7397413 ], [ 46.6322645, 24.7398492 ], [ 46.6320728, 24.7399915 ] ] } },
{ "type": "Feature", "properties": { }, "geometry": { "type": "LineString", "coordinates": [ [ 46.634531, 24.7384898 ], [ 46.6340856, 24.7385768 ], [ 46.6335881, 24.738769 ], [ 46.6332723, 24.7389806 ], [ 46.6324245, 24.7397413 ] ] } },
{ "type": "Feature", "properties": { }, "geometry": { "type": "LineString", "coordinates": [ [ 46.6314167, 24.7395438 ], [ 46.6318244, 24.7399596 ], [ 46.6319088, 24.7400345 ], [ 46.6320964, 24.7401175 ], [ 46.6326469, 24.7403539 ] ] } },
{ "type": "Feature", "properties": { }, "geometry": { "type": "LineString", "coordinates": [ [ 46.6326887, 24.7402523 ], [ 46.6326961, 24.7402816 ], [ 46.6326893, 24.7403123 ], [ 46.6326699, 24.7403379 ], [ 46.6326469, 24.7403539 ] ] } },
{ "type": "Feature", "properties": { }, "geometry": { "type": "LineString", "coordinates": [ [ 46.6306724, 24.7388004 ], [ 46.6313063, 24.7394355 ] ] } },
{ "type": "Feature", "properties": { }, "geometry": { "type": "LineString", "coordinates": [ [ 46.6314167, 24.7395438 ], [ 46.6313063, 24.7394355 ] ] } },
{ "type": "Feature", "properties": { }, "geometry": { "type": "LineString", "coordinates": [ [ 46.6314033, 24.7393559 ], [ 46.6313868, 24.7393852 ], [ 46.6313653, 24.7394085 ], [ 46.6313363, 24.7394236 ], [ 46.6313063, 24.7394355 ] ] } },
{ "type": "Feature", "properties": { }, "geometry": { "type": "LineString", "coordinates": [ [ 46.6315129, 24.7394578 ], [ 46.6314033, 24.7393559 ] ] } },
{ "type": "Feature", "properties": { }, "geometry": { "type": "LineString", "coordinates": [ [ 46.6307746, 24.7387193 ], [ 46.6314033, 24.7393559 ] ] } },
{ "type": "Feature", "properties": { }, "geometry": { "type": "LineString", "coordinates": [ [ 46.6304083, 24.7385362 ], [ 46.6306724, 24.7388004 ] ] } },
{ "type": "Feature", "properties": { }, "geometry": { "type": "LineString", "coordinates": [ [ 46.6307746, 24.7387193 ], [ 46.6307434, 24.7387179 ], [ 46.6307075, 24.7387379 ], [ 46.6306826, 24.7387659 ], [ 46.6306724, 24.7388004 ] ] } },
{ "type": "Feature", "properties": { }, "geometry": { "type": "LineString", "coordinates": [ [ 46.63051, 24.7384501 ], [ 46.6307746, 24.7387193 ] ] } },
{ "type": "Feature", "properties": { }, "geometry": { "type": "LineString", "coordinates": [ [ 46.63051, 24.7384501 ], [ 46.6304727, 24.7384472 ], [ 46.6304301, 24.7384688 ], [ 46.6304116, 24.7385021 ], [ 46.6304083, 24.7385362 ] ] } },
{ "type": "Feature", "properties": { }, "geometry": { "type": "LineString", "coordinates": [ [ 46.6339796, 24.7380988 ], [ 46.6341681, 24.7379435 ] ] } },
{ "type": "Feature", "properties": { }, "geometry": { "type": "LineString", "coordinates": [ [ 46.6339796, 24.7380988 ], [ 46.6335, 24.7376016 ], [ 46.6335329, 24.7375689 ], [ 46.6335774, 24.7375477 ], [ 46.6339638, 24.7379257 ], [ 46.6339907, 24.7379395 ], [ 46.6340372, 24.7379471 ], [ 46.6341681, 24.7379435 ] ] } },
{ "type": "Feature", "properties": { }, "geometry": { "type": "LineString", "coordinates": [ [ 46.6343148, 24.7378316 ], [ 46.6341681, 24.7379435 ] ] } },
{ "type": "Feature", "properties": { }, "geometry": { "type": "LineString", "coordinates": [ [ 46.6372919, 24.7356199 ], [ 46.637584, 24.7359135 ] ] } },
{ "type": "Feature", "properties": { }, "geometry": { "type": "LineString", "coordinates": [ [ 46.637404, 24.736063 ], [ 46.637584, 24.7359135 ] ] } },
{ "type": "Feature", "properties": { }, "geometry": { "type": "LineString", "coordinates": [ [ 46.6374481, 24.735494 ], [ 46.6377193, 24.7357499 ], [ 46.6377253, 24.7357758 ], [ 46.6377193, 24.7358011 ], [ 46.637584, 24.7359135 ] ] } },
{ "type": "Feature", "properties": { }, "geometry": { "type": "LineString", "coordinates": [ [ 46.6371072, 24.7357688 ], [ 46.6372919, 24.7356199 ] ] } },
{ "type": "Feature", "properties": { }, "geometry": { "type": "LineString", "coordinates": [ [ 46.6374481, 24.735494 ], [ 46.6372919, 24.7356199 ] ] } },
{ "type": "Feature", "properties": { }, "geometry": { "type": "LineString", "coordinates": [ [ 46.637262, 24.7359253 ], [ 46.637404, 24.736063 ] ] } },
{ "type": "Feature", "properties": { }, "geometry": { "type": "LineString", "coordinates": [ [ 46.6368301, 24.7362859 ], [ 46.6369709, 24.7363517 ], [ 46.6370192, 24.7363553 ], [ 46.6370648, 24.7363419 ], [ 46.6371064, 24.7363102 ], [ 46.637404, 24.736063 ] ] } },
{ "type": "Feature", "properties": { }, "geometry": { "type": "LineString", "coordinates": [ [ 46.6377695, 24.7417911 ], [ 46.6377775, 24.7418516 ], [ 46.6377661, 24.7420602 ], [ 46.637698, 24.7422599 ], [ 46.6376304, 24.7423961 ], [ 46.6375415, 24.7425275 ], [ 46.6374354, 24.7426382 ], [ 46.6373067, 24.742723 ], [ 46.6371757, 24.7427997 ], [ 46.6370093, 24.742866 ], [ 46.6368223, 24.7429196 ], [ 46.6365885, 24.7429282 ], [ 46.63636, 24.742902 ], [ 46.636196, 24.7428739 ], [ 46.6360924, 24.7428289 ] ] } },
{ "type": "Feature", "properties": { }, "geometry": { "type": "LineString", "coordinates": [ [ 46.6357741, 24.7426954 ], [ 46.6359007, 24.7427487 ], [ 46.6360924, 24.7428289 ] ] } },
{ "type": "Feature", "properties": { }, "geometry": { "type": "LineString", "coordinates": [ [ 46.6357741, 24.7426954 ], [ 46.6358806, 24.7426208 ], [ 46.6359262, 24.742611 ], [ 46.6359866, 24.7426232 ], [ 46.6360845, 24.7426598 ], [ 46.6361059, 24.7426853 ], [ 46.6361113, 24.7427255 ], [ 46.6360924, 24.7428289 ] ] } },
{ "type": "Feature", "properties": { }, "geometry": { "type": "LineString", "coordinates": [ [ 46.637262, 24.7359253 ], [ 46.6371072, 24.7357688 ] ] } },
{ "type": "Feature", "properties": { }, "geometry": { "type": "LineString", "coordinates": [ [ 46.6368301, 24.7362859 ], [ 46.637262, 24.7359253 ] ] } },
{ "type": "Feature", "properties": { }, "geometry": { "type": "LineString", "coordinates": [ [ 46.6372421, 24.7387494 ], [ 46.6370922, 24.7390643 ] ] } },
{ "type": "Feature", "properties": { }, "geometry": { "type": "LineString", "coordinates": [ [ 46.6365428, 24.740167 ], [ 46.6365514, 24.7401159 ], [ 46.6370922, 24.7390643 ] ] } },
{ "type": "Feature", "properties": { }, "geometry": { "type": "LineString", "coordinates": [ [ 46.6373488, 24.7385317 ], [ 46.6374058, 24.7386318 ], [ 46.6374856, 24.7388992 ], [ 46.6373529, 24.7389603 ], [ 46.6372811, 24.7389887 ], [ 46.6370922, 24.7390643 ] ] } },
{ "type": "Feature", "properties": { }, "geometry": { "type": "LineString", "coordinates": [ [ 46.6372421, 24.7387494 ], [ 46.6373488, 24.7385317 ] ] } },
{ "type": "Feature", "properties": { }, "geometry": { "type": "LineString", "coordinates": [ [ 46.6378085, 24.7375262 ], [ 46.6373488, 24.7385317 ] ] } },
{ "type": "Feature", "properties": { }, "geometry": { "type": "LineString", "coordinates": [ [ 46.6374099, 24.7380076 ], [ 46.6373515, 24.7381285 ] ] } },
{ "type": "Feature", "properties": { }, "geometry": { "type": "LineString", "coordinates": [ [ 46.6370826, 24.7386858 ], [ 46.6372011, 24.7384462 ], [ 46.6373515, 24.7381285 ] ] } },
{ "type": "Feature", "properties": { }, "geometry": { "type": "LineString", "coordinates": [ [ 46.6369259, 24.7376872 ], [ 46.6372641, 24.737869 ], [ 46.6373553, 24.7377174 ], [ 46.6366669, 24.7373652 ], [ 46.6367689, 24.7372199 ], [ 46.6374241, 24.7375813 ], [ 46.6375291, 24.7374458 ], [ 46.636833, 24.737062 ], [ 46.6364528, 24.7376164 ], [ 46.6372307, 24.7380532 ], [ 46.6373515, 24.7381285 ] ] } },
{ "type": "Feature", "properties": { }, "geometry": { "type": "LineString", "coordinates": [ [ 46.6376798, 24.7374722 ], [ 46.6374099, 24.7380076 ] ] } },
{ "type": "Feature", "properties": { }, "geometry": { "type": "LineString", "coordinates": [ [ 46.6368744, 24.7377609 ], [ 46.6372946, 24.7379908 ], [ 46.6374099, 24.7380076 ] ] } },
{ "type": "Feature", "properties": { }, "geometry": { "type": "LineString", "coordinates": [ [ 46.6350993, 24.7371914 ], [ 46.6352292, 24.7370903 ] ] } },
{ "type": "Feature", "properties": { }, "geometry": { "type": "LineString", "coordinates": [ [ 46.6350993, 24.7371914 ], [ 46.6354355, 24.737506 ], [ 46.6355473, 24.7374191 ], [ 46.6352292, 24.7370903 ] ] } },
{ "type": "Feature", "properties": { }, "geometry": { "type": "LineString", "coordinates": [ [ 46.6356275, 24.7367845 ], [ 46.6352292, 24.7370903 ] ] } },
{ "type": "Feature", "properties": { }, "geometry": { "type": "LineString", "coordinates": [ [ 46.6358912, 24.737047 ], [ 46.6357639, 24.7369224 ] ] } },
{ "type": "Feature", "properties": { }, "geometry": { "type": "LineString", "coordinates": [ [ 46.6358912, 24.737047 ], [ 46.6362259, 24.7367799 ], [ 46.6360991, 24.7366722 ], [ 46.6357639, 24.7369224 ] ] } },
{ "type": "Feature", "properties": { }, "geometry": { "type": "LineString", "coordinates": [ [ 46.6358912, 24.737047 ], [ 46.6356168, 24.7372693 ], [ 46.6354877, 24.737146 ], [ 46.6357639, 24.7369224 ] ] } },
{ "type": "Feature", "properties": { }, "geometry": { "type": "LineString", "coordinates": [ [ 46.6356275, 24.7367845 ], [ 46.6357639, 24.7369224 ] ] } },
{ "type": "Feature", "properties": { }, "geometry": { "type": "LineString", "coordinates": [ [ 46.6356971, 24.7438925 ], [ 46.6356772, 24.7440124 ], [ 46.6356559, 24.7441525 ], [ 46.6354371, 24.744585 ] ] } },
{ "type": "Feature", "properties": { }, "geometry": { "type": "LineString", "coordinates": [ [ 46.635997, 24.7439942 ], [ 46.6359517, 24.7439837 ], [ 46.6356971, 24.7438925 ] ] } },
{ "type": "Feature", "properties": { }, "geometry": { "type": "LineString", "coordinates": [ [ 46.6293119, 24.7402396 ], [ 46.6293075, 24.7402088 ], [ 46.6293095, 24.7401936 ], [ 46.6293193, 24.7401763 ], [ 46.6293394, 24.7401501 ], [ 46.6293796, 24.7401111 ], [ 46.6294413, 24.7400621 ] ] } },
{ "type": "Feature", "properties": { }, "geometry": { "type": "LineString", "coordinates": [ [ 46.6291161, 24.7403931 ], [ 46.6294031, 24.7406939 ], [ 46.6295975, 24.740918 ], [ 46.6296592, 24.7409948 ], [ 46.6297249, 24.7411007 ], [ 46.6297625, 24.7411957 ], [ 46.6297813, 24.7413151 ], [ 46.6297813, 24.7414881 ], [ 46.6297625, 24.7415989 ] ] } },
{ "type": "Feature", "properties": { }, "geometry": { "type": "LineString", "coordinates": [ [ 46.6291161, 24.7403931 ], [ 46.6289699, 24.7405076 ], [ 46.6287687, 24.7406598 ] ] } },
{ "type": "Feature", "properties": { }, "geometry": { "type": "LineString", "coordinates": [ [ 46.6293119, 24.7402396 ], [ 46.6291161, 24.7403931 ] ] } },
{ "type": "Feature", "properties": { }, "geometry": { "type": "LineString", "coordinates": [ [ 46.634425, 24.7355673 ], [ 46.6346332, 24.7356561 ], [ 46.63859, 24.7373389 ] ] } },
{ "type": "Feature", "properties": { }, "geometry": { "type": "LineString", "coordinates": [ [ 46.6315129, 24.7394578 ], [ 46.6314705, 24.7394611 ], [ 46.6314423, 24.7394768 ], [ 46.6314202, 24.739503 ], [ 46.6314167, 24.7395438 ] ] } },
{ "type": "Feature", "properties": { }, "geometry": { "type": "LineString", "coordinates": [ [ 46.6343148, 24.7378316 ], [ 46.6344344, 24.7379362 ], [ 46.6344823, 24.7380072 ], [ 46.6345003, 24.738069 ], [ 46.634531, 24.7384898 ] ] } },
{ "type": "Feature", "properties": { }, "geometry": { "type": "LineString", "coordinates": [ [ 46.6344401, 24.7396503 ], [ 46.6345275, 24.7395874 ], [ 46.6346036, 24.7395095 ], [ 46.634531, 24.7384898 ] ] } },
{ "type": "Feature", "properties": { }, "geometry": { "type": "LineString", "coordinates": [ [ 46.6381983, 24.7415859 ], [ 46.6382268, 24.7417071 ] ] } },
{ "type": "Feature", "properties": { }, "geometry": { "type": "LineString", "coordinates": [ [ 46.6376798, 24.7374722 ], [ 46.6378085, 24.7375262 ] ] } },
{ "type": "Feature", "properties": { }, "geometry": { "type": "LineString", "coordinates": [ [ 46.6372421, 24.7387494 ], [ 46.6370826, 24.7386858 ] ] } },
{ "type": "Feature", "properties": { }, "geometry": { "type": "LineString", "coordinates": [ [ 46.6364026, 24.740118 ], [ 46.6364136, 24.7400642 ], [ 46.636802, 24.7392532 ], [ 46.6370826, 24.7386858 ] ] } },
{ "type": "Feature", "properties": { }, "geometry": { "type": "LineString", "coordinates": [ [ 46.6365428, 24.740167 ], [ 46.6364026, 24.740118 ] ] } },
{ "type": "Feature", "properties": { }, "geometry": { "type": "LineString", "coordinates": [ [ 46.6369259, 24.7376872 ], [ 46.6368744, 24.7377609 ] ] } },
{ "type": "Feature", "properties": { }, "geometry": { "type": "LineString", "coordinates": [ [ 46.6369259, 24.7376872 ], [ 46.6365865, 24.7375048 ], [ 46.6365347, 24.737575 ], [ 46.6368744, 24.7377609 ] ] } },
{ "type": "Feature", "properties": { }, "geometry": { "type": "LineString", "coordinates": [ [ 46.6358046, 24.7441995 ], [ 46.635868, 24.7440657 ], [ 46.635997, 24.7439942 ] ] } },
{ "type": "Feature", "properties": { }, "geometry": { "type": "LineString", "coordinates": [ [ 46.637299, 24.7458371 ], [ 46.6369662, 24.74568 ], [ 46.6368856, 24.7456445 ] ] } },
{ "type": "Feature", "properties": { }, "geometry": { "type": "LineString", "coordinates": [ [ 46.6374598, 24.7443946 ], [ 46.6374039, 24.7442254 ], [ 46.6372973, 24.7439737 ] ] } },
{ "type": "Feature", "properties": { }, "geometry": { "type": "LineString", "coordinates": [ [ 46.6348667, 24.7439725 ], [ 46.6349191, 24.7438699 ], [ 46.6346882, 24.7437616 ] ] } },
{ "type": "Feature", "properties": { }, "geometry": { "type": "LineString", "coordinates": [ [ 46.6293145, 24.7394219 ], [ 46.6292266, 24.7393765 ], [ 46.6292099, 24.7393839 ], [ 46.6291949, 24.7393945 ], [ 46.6291859, 24.739408 ], [ 46.6291797, 24.7394189 ], [ 46.6292246, 24.7394925 ] ] } },
{ "type": "Feature", "properties": { }, "geometry": { "type": "LineString", "coordinates": [ [ 46.6377695, 24.7417911 ], [ 46.6377506, 24.7416477 ] ] } }
]
}
