{"type":"FeatureCollection","features":[{"type":"Feature","properties":{"layer":"Cleaned Study Corridor"},"geometry":{"type":"MultiLineString","coordinates":[[[42.4988664,18.231947],[42.5005181,18.2321963]],[[42.5042143,18.2329049],[42.5041782,18.2328995]],[[42.5036129,18.2328043],[42.502028,18.2325568]],[[42.5053471,18.2330904],[42.5042143,18.2329049]],[[42.4939852,18.2311842],[42.4988664,18.231947]],[[42.5044254,18.2328052],[42.5058012,18.2330253]],[[42.4926033,18.2309723],[42.4936274,18.231128]],[[42.494894,18.2314379],[42.4939336,18.2312771]],[[42.4982206,18.231975],[42.494894,18.2314379]],[[42.5134726,18.2328906],[42.5137051,18.232643]],[[42.5105756,18.2337738],[42.511331,18.2339055],[42.5121237,18.2338768],[42.5128295,18.2335254],[42.5134726,18.2328906]],[[42.5041782,18.2328995],[42.5036129,18.2328043]],[[42.4988248,18.2320768],[42.4982206,18.231975]],[[42.5005181,18.2321963],[42.5022268,18.2324739]],[[42.4918293,18.2309575],[42.4917804,18.2313181],[42.4916962,18.2319398]],[[42.5058623,18.2362709],[42.5072892,18.2334019],[42.5073526,18.2332781],[42.5086902,18.2307792]],[[42.5058623,18.2362709],[42.5059499,18.2357819],[42.5069003,18.2338853]],[[42.5105904,18.2339174],[42.5084228,18.2335828]],[[42.5105904,18.2339174],[42.5095687,18.2338673]],[[42.4939336,18.2312771],[42.4918293,18.2309575]],[[42.4936274,18.231128],[42.4939852,18.2311842]],[[42.5058012,18.2330253],[42.5067349,18.2331775]],[[42.500824,18.2323751],[42.4988248,18.2320768]],[[42.502028,18.2325568],[42.500824,18.2323751]],[[42.5022268,18.2324739],[42.5038212,18.232709]],[[42.5138134,18.2327186],[42.512927,18.2336295],[42.5124336,18.2339017],[42.5118005,18.2340484],[42.5105904,18.2339174]],[[42.5137051,18.232643],[42.5157183,18.2302206]],[[42.5086712,18.2312712],[42.507988,18.2326614]],[[42.5075968,18.2333178],[42.5105756,18.2337738]],[[42.5067349,18.2331775],[42.5073526,18.2332781],[42.5075968,18.2333178]],[[42.5067349,18.2331775],[42.5071171,18.2330832],[42.5075041,18.2327378]],[[42.5084228,18.2335828],[42.5072892,18.2334019],[42.5068584,18.2333331]],[[42.5038212,18.232709],[42.5044254,18.2328052]],[[42.507988,18.2326614],[42.5079991,18.2330211],[42.5081312,18.2331754],[42.5089615,18.2333936]],[[42.5075041,18.2327378],[42.5082519,18.2312838],[42.5089461,18.2301571]],[[42.5153072,18.2312173],[42.5138134,18.2327186]],[[42.5089615,18.2333936],[42.5100223,18.2335828],[42.5105756,18.2337738]],[[42.5069003,18.2338853],[42.5070082,18.2336248],[42.5068584,18.2333331]],[[42.5068584,18.2333331],[42.5053471,18.2330904]],[[42.5095687,18.2338673],[42.5085767,18.2337113],[42.5080888,18.2336338],[42.5074109,18.2338474]]]}}]}