{"type": "FeatureCollection", "features": [{"type": "Feature", "properties": {"osmid": 1068128183, "name": null, "highway": "service", "lanes": null, "maxspeed": null, "oneway": false, "junction": null, "u": 9805682289, "v": 9805682282, "key": 1597, "length": 54.399893329076214, "road_segment_id": 1547, "segment_id": 55, "distance_to_poi_m": 2.6974960914115007}, "geometry": {"type": "LineString", "coordinates": [[42.5240931, 18.199428500000007], [42.5241286, 18.1994356], [42.5242326, 18.199460400000003], [42.5243412, 18.199499899999992], [42.5244015, 18.19955339999999], [42.5244217, 18.1996184], [42.5244352, 18.199714200000003]]}}, {"type": "Feature", "properties": {"osmid": 95503776, "name": null, "highway": "residential", "lanes": null, "maxspeed": null, "oneway": false, "junction": null, "u": 9805682282, "v": 1107450234, "key": 1046, "length": 40.57762814435727, "road_segment_id": 1027, "segment_id": 37, "distance_to_poi_m": 13.068633252764595}, "geometry": {"type": "LineString", "coordinates": [[42.5244352, 18.199714200000003], [42.5241007, 18.1995351]]}}, {"type": "Feature", "properties": {"osmid": 95503776, "name": null, "highway": "residential", "lanes": null, "maxspeed": null, "oneway": false, "junction": null, "u": 1107450234, "v": 9805695328, "key": 1047, "length": 3.5371848382565827, "road_segment_id": 1028, "segment_id": 38, "distance_to_poi_m": 23.889025656445856}, "geometry": {"type": "LineString", "coordinates": [[42.5241007, 18.1995351], [42.5240854, 18.1995635]]}}]}