{"type": "FeatureCollection", "features": [{"type": "Feature", "properties": {"osmid": 95503750, "name": null, "highway": "residential", "lanes": null, "maxspeed": null, "oneway": false, "junction": null, "u": 1107450286, "v": 1107450242, "key": 977, "length": 96.71250184529458, "road_segment_id": 958, "segment_id": 0}, "geometry": {"type": "LineString", "coordinates": [[42.5239072, 18.2009733], [42.523461, 18.2017355]]}}, {"type": "Feature", "properties": {"osmid": 95503752, "name": null, "highway": "residential", "lanes": null, "maxspeed": null, "oneway": false, "junction": null, "u": 1107450332, "v": 1107450353, "key": 978, "length": 22.218003596411574, "road_segment_id": 959, "segment_id": 1}, "geometry": {"type": "LineString", "coordinates": [[42.5255865, 18.2001532], [42.5254029, 18.200055900000002]]}}, {"type": "Feature", "properties": {"osmid": 95503752, "name": null, "highway": "residential", "lanes": null, "maxspeed": null, "oneway": false, "junction": null, "u": 1107450353, "v": 1107450296, "key": 979, "length": 108.43259942941546, "road_segment_id": 960, "segment_id": 2}, "geometry": {"type": "LineString", "coordinates": [[42.5254029, 18.200055900000002], [42.5252465, 18.1999735], [42.525546, 18.1994478], [42.5257645, 18.199425999999995]]}}, {"type": "Feature", "properties": {"osmid": 95503752, "name": null, "highway": "residential", "lanes": null, "maxspeed": null, "oneway": false, "junction": null, "u": 1107450296, "v": 1107450358, "key": 980, "length": 25.77258121889474, "road_segment_id": 961, "segment_id": 3}, "geometry": {"type": "LineString", "coordinates": [[42.5257645, 18.199425999999995], [42.5260076, 18.1994123]]}}, {"type": "Feature", "properties": {"osmid": 95503754, "name": null, "highway": "residential", "lanes": null, "maxspeed": null, "oneway": false, "junction": null, "u": 1107450247, "v": 9805604606, "key": 982, "length": 69.2413148676173, "road_segment_id": 963, "segment_id": 4}, "geometry": {"type": "LineString", "coordinates": [[42.5244372, 18.200807600000005], [42.5247283, 18.2002476]]}}, {"type": "Feature", "properties": {"osmid": 95503754, "name": null, "highway": "residential", "lanes": null, "maxspeed": null, "oneway": false, "junction": null, "u": 9805604606, "v": 9805604614, "key": 983, "length": 21.67384724721589, "road_segment_id": 964, "segment_id": 5}, "geometry": {"type": "LineString", "coordinates": [[42.5247283, 18.2002476], [42.524819400000005, 18.2000723]]}}, {"type": "Feature", "properties": {"osmid": 95503754, "name": null, "highway": "residential", "lanes": null, "maxspeed": null, "oneway": false, "junction": null, "u": 9805604614, "v": 1107450297, "key": 984, "length": 14.740269902913736, "road_segment_id": 965, "segment_id": 6}, "geometry": {"type": "LineString", "coordinates": [[42.524819400000005, 18.2000723], [42.5248814, 18.1999531]]}}, {"type": "Feature", "properties": {"osmid": 95503758, "name": null, "highway": "tertiary", "lanes": null, "maxspeed": null, "oneway": true, "junction": null, "u": 1107450280, "v": 1107450275, "key": 986, "length": 257.77879253374306, "road_segment_id": 967, "segment_id": 7}, "geometry": {"type": "LineString", "coordinates": [[42.525094, 18.2027241], [42.5262784, 18.200689899999997]]}}, {"type": "Feature", "properties": {"osmid": 95503758, "name": null, "highway": "tertiary", "lanes": null, "maxspeed": null, "oneway": true, "junction": null, "u": 1107450275, "v": 1107450329, "key": 987, "length": 285.6862880934354, "road_segment_id": 968, "segment_id": 8}, "geometry": {"type": "LineString", "coordinates": [[42.5262784, 18.200689899999997], [42.5275578, 18.1984181]]}}, {"type": "Feature", "properties": {"osmid": 95503762, "name": null, "highway": "residential", "lanes": null, "maxspeed": null, "oneway": false, "junction": null, "u": 1107450345, "v": 1107450247, "key": 996, "length": 99.91003816521525, "road_segment_id": 977, "segment_id": 9}, "geometry": {"type": "LineString", "coordinates": [[42.5252644, 18.201242399999998], [42.5244372, 18.200807600000005]]}}, {"type": "Feature", "properties": {"osmid": 95503762, "name": null, "highway": "residential", "lanes": null, "maxspeed": null, "oneway": false, "junction": null, "u": 1107450247, "v": 1107450286, "key": 997, "length": 68.92636386467026, "road_segment_id": 978, "segment_id": 10}, "geometry": {"type": "LineString", "coordinates": [[42.5244372, 18.200807600000005], [42.5243161, 18.2009691], [42.5241512, 18.201046400000003], [42.5240413, 18.201036], [42.5239072, 18.2009733]]}}, {"type": "Feature", "properties": {"osmid": 95503763, "name": null, "highway": "residential", "lanes": null, "maxspeed": null, "oneway": false, "junction": null, "u": 1107450304, "v": 1107450332, "key": 998, "length": 16.65727272288386, "road_segment_id": 979, "segment_id": 11}, "geometry": {"type": "LineString", "coordinates": [[42.525511400000006, 18.200285399999995], [42.5255865, 18.2001532]]}}, {"type": "Feature", "properties": {"osmid": 95503763, "name": null, "highway": "residential", "lanes": null, "maxspeed": null, "oneway": false, "junction": null, "u": 1107450332, "v": 1107450358, "key": 999, "length": 93.3644743269507, "road_segment_id": 980, "segment_id": 12}, "geometry": {"type": "LineString", "coordinates": [[42.5255865, 18.2001532], [42.5260076, 18.1994123]]}}, {"type": "Feature", "properties": {"osmid": 95503763, "name": null, "highway": "residential", "lanes": null, "maxspeed": null, "oneway": false, "junction": null, "u": 1107450358, "v": 1107450246, "key": 1000, "length": 20.158669709728148, "road_segment_id": 981, "segment_id": 13}, "geometry": {"type": "LineString", "coordinates": [[42.5260076, 18.1994123], [42.5260381, 18.199232599999995]]}}, {"type": "Feature", "properties": {"osmid": 95503763, "name": null, "highway": "residential", "lanes": null, "maxspeed": null, "oneway": false, "junction": null, "u": 1107450246, "v": 1107450316, "key": 1001, "length": 47.31106747618626, "road_segment_id": 982, "segment_id": 14}, "geometry": {"type": "LineString", "coordinates": [[42.5260381, 18.199232599999995], [42.5259774, 18.198809300000004]]}}, {"type": "Feature", "properties": {"osmid": 95503763, "name": null, "highway": "residential", "lanes": null, "maxspeed": null, "oneway": false, "junction": null, "u": 1107450316, "v": 1107450305, "key": 1002, "length": 120.73527255521947, "road_segment_id": 983, "segment_id": 15}, "geometry": {"type": "LineString", "coordinates": [[42.5259774, 18.198809300000004], [42.5264996, 18.1978399]]}}, {"type": "Feature", "properties": {"osmid": 95503764, "name": null, "highway": "tertiary", "lanes": null, "maxspeed": null, "oneway": false, "junction": null, "u": 2116500835, "v": 1107450326, "key": 1003, "length": 148.31047249130273, "road_segment_id": 984, "segment_id": 16}, "geometry": {"type": "LineString", "coordinates": [[42.5210092, 18.2005135], [42.522226, 18.201177900000005]]}}, {"type": "Feature", "properties": {"osmid": 95503764, "name": null, "highway": "tertiary", "lanes": null, "maxspeed": null, "oneway": false, "junction": null, "u": 1107450326, "v": 3469177468, "key": 1004, "length": 69.30030458603873, "road_segment_id": 985, "segment_id": 17}, "geometry": {"type": "LineString", "coordinates": [[42.522226, 18.201177900000005], [42.5227965, 18.201485099999996]]}}, {"type": "Feature", "properties": {"osmid": 95503764, "name": null, "highway": "tertiary", "lanes": null, "maxspeed": null, "oneway": false, "junction": null, "u": 3469177468, "v": 9805604587, "key": 1005, "length": 5.416818820272291, "road_segment_id": 986, "segment_id": 18}, "geometry": {"type": "LineString", "coordinates": [[42.5227965, 18.201485099999996], [42.5228411, 18.201509099999996]]}}, {"type": "Feature", "properties": {"osmid": 95503764, "name": null, "highway": "tertiary", "lanes": null, "maxspeed": null, "oneway": false, "junction": null, "u": 9805604587, "v": 9882289863, "key": 1006, "length": 145.14086621211212, "road_segment_id": 987, "segment_id": 19}, "geometry": {"type": "LineString", "coordinates": [[42.5228411, 18.201509099999996], [42.52403600000001, 18.202152400000003]]}}, {"type": "Feature", "properties": {"osmid": 95503764, "name": null, "highway": "tertiary", "lanes": null, "maxspeed": null, "oneway": false, "junction": null, "u": 9882289863, "v": 9882289852, "key": 1007, "length": 62.82928627372693, "road_segment_id": 988, "segment_id": 20}, "geometry": {"type": "LineString", "coordinates": [[42.52403600000001, 18.202152400000003], [42.5245533, 18.2024308]]}}, {"type": "Feature", "properties": {"osmid": 95503764, "name": null, "highway": "tertiary", "lanes": null, "maxspeed": null, "oneway": false, "junction": null, "u": 9882289852, "v": 9805604590, "key": 1008, "length": 39.68386622806437, "road_segment_id": 989, "segment_id": 21}, "geometry": {"type": "LineString", "coordinates": [[42.5245533, 18.2024308], [42.52488, 18.2026067]]}}, {"type": "Feature", "properties": {"osmid": 95503766, "name": null, "highway": "residential", "lanes": null, "maxspeed": null, "oneway": false, "junction": null, "u": 1107450316, "v": 1107450349, "key": 1022, "length": 147.80619971542953, "road_segment_id": 1003, "segment_id": 22}, "geometry": {"type": "LineString", "coordinates": [[42.5259774, 18.198809300000004], [42.5247471, 18.198177600000005]]}}, {"type": "Feature", "properties": {"osmid": 95503767, "name": null, "highway": "residential", "lanes": null, "maxspeed": null, "oneway": false, "junction": null, "u": 1107450355, "v": 1107450299, "key": 1023, "length": 88.47175726076512, "road_segment_id": 1004, "segment_id": 23}, "geometry": {"type": "LineString", "coordinates": [[42.5236783, 18.2003227], [42.5229494, 18.199931499999998]]}}, {"type": "Feature", "properties": {"osmid": 95503768, "name": null, "highway": "residential", "lanes": null, "maxspeed": null, "oneway": false, "junction": null, "u": 1107450326, "v": 1107450258, "key": 1024, "length": 71.30199414786236, "road_segment_id": 1005, "segment_id": 24}, "geometry": {"type": "LineString", "coordinates": [[42.522226, 18.201177900000005], [42.5225669, 18.200622500000005]]}}, {"type": "Feature", "properties": {"osmid": 95503768, "name": null, "highway": "residential", "lanes": null, "maxspeed": null, "oneway": false, "junction": null, "u": 1107450258, "v": 1107450336, "key": 1025, "length": 27.02164789433548, "road_segment_id": 1006, "segment_id": 25}, "geometry": {"type": "LineString", "coordinates": [[42.5225669, 18.200622500000005], [42.5226863, 18.200406799999996]]}}, {"type": "Feature", "properties": {"osmid": 95503768, "name": null, "highway": "residential", "lanes": null, "maxspeed": null, "oneway": false, "junction": null, "u": 1107450336, "v": 1107450299, "key": 1026, "length": 59.54281573484157, "road_segment_id": 1007, "segment_id": 26}, "geometry": {"type": "LineString", "coordinates": [[42.5226863, 18.200406799999996], [42.5229494, 18.199931499999998]]}}, {"type": "Feature", "properties": {"osmid": 95503770, "name": null, "highway": "residential", "lanes": null, "maxspeed": null, "oneway": false, "junction": null, "u": 1107450353, "v": 1107450296, "key": 1031, "length": 79.55880068619263, "road_segment_id": 1012, "segment_id": 27}, "geometry": {"type": "LineString", "coordinates": [[42.5254029, 18.200055900000002], [42.5257645, 18.199425999999995]]}}, {"type": "Feature", "properties": {"osmid": 95503772, "name": null, "highway": "residential", "lanes": null, "maxspeed": null, "oneway": false, "junction": null, "u": 1107450317, "v": 1107450336, "key": 1032, "length": 120.17077410031393, "road_segment_id": 1013, "segment_id": 28}, "geometry": {"type": "LineString", "coordinates": [[42.5216888, 18.199888300000005], [42.5226863, 18.200406799999996]]}}, {"type": "Feature", "properties": {"osmid": 95503774, "name": null, "highway": "residential", "lanes": null, "maxspeed": null, "oneway": false, "junction": null, "u": 1107450282, "v": 1107450246, "key": 1038, "length": 152.93074465645552, "road_segment_id": 1019, "segment_id": 29}, "geometry": {"type": "LineString", "coordinates": [[42.525013900000005, 18.200023], [42.5254294, 18.1993476], [42.5255789, 18.199287000000005], [42.525935, 18.199249400000003], [42.5260362, 18.199232699999996], [42.5260381, 18.199232599999995]]}}, {"type": "Feature", "properties": {"osmid": 95503774, "name": null, "highway": "residential", "lanes": null, "maxspeed": null, "oneway": false, "junction": null, "u": 1107450246, "v": 1107450230, "key": 1039, "length": 70.59113174066238, "road_segment_id": 1020, "segment_id": 30}, "geometry": {"type": "LineString", "coordinates": [[42.5260381, 18.199232599999995], [42.5262626, 18.1992139], [42.526467000000004, 18.199261999999997], [42.5266671, 18.199372599999997]]}}, {"type": "Feature", "properties": {"osmid": 95503775, "name": null, "highway": "residential", "lanes": null, "maxspeed": null, "oneway": false, "junction": null, "u": 1107450349, "v": 9805682267, "key": 1040, "length": 55.828532371722346, "road_segment_id": 1021, "segment_id": 31}, "geometry": {"type": "LineString", "coordinates": [[42.5247471, 18.198177600000005], [42.524689200000005, 18.1981864], [42.5246322, 18.1982221], [42.5244387, 18.198557499999996]]}}, {"type": "Feature", "properties": {"osmid": 95503775, "name": null, "highway": "residential", "lanes": null, "maxspeed": null, "oneway": false, "junction": null, "u": 9805682267, "v": 1107450319, "key": 1041, "length": 17.351326628588364, "road_segment_id": 1022, "segment_id": 32}, "geometry": {"type": "LineString", "coordinates": [[42.5244387, 18.198557499999996], [42.52435950000001, 18.1986947]]}}, {"type": "Feature", "properties": {"osmid": 95503776, "name": null, "highway": "residential", "lanes": null, "maxspeed": null, "oneway": false, "junction": null, "u": 1107450275, "v": 1107450304, "key": 1042, "length": 92.71092090359652, "road_segment_id": 1023, "segment_id": 33}, "geometry": {"type": "LineString", "coordinates": [[42.5262784, 18.200689899999997], [42.525511400000006, 18.200285399999995]]}}, {"type": "Feature", "properties": {"osmid": 95503776, "name": null, "highway": "residential", "lanes": null, "maxspeed": null, "oneway": false, "junction": null, "u": 1107450304, "v": 1107450282, "key": 1043, "length": 60.13683156744209, "road_segment_id": 1024, "segment_id": 34}, "geometry": {"type": "LineString", "coordinates": [[42.525511400000006, 18.200285399999995], [42.525013900000005, 18.200023]]}}, {"type": "Feature", "properties": {"osmid": 95503776, "name": null, "highway": "residential", "lanes": null, "maxspeed": null, "oneway": false, "junction": null, "u": 1107450282, "v": 1107450297, "key": 1044, "length": 16.01713686820222, "road_segment_id": 1025, "segment_id": 35}, "geometry": {"type": "LineString", "coordinates": [[42.525013900000005, 18.200023], [42.5248814, 18.1999531]]}}, {"type": "Feature", "properties": {"osmid": 95503776, "name": null, "highway": "residential", "lanes": null, "maxspeed": null, "oneway": false, "junction": null, "u": 1107450297, "v": 9805682282, "key": 1045, "length": 54.12731899348886, "road_segment_id": 1026, "segment_id": 36}, "geometry": {"type": "LineString", "coordinates": [[42.5248814, 18.1999531], [42.5244352, 18.199714200000003]]}}, {"type": "Feature", "properties": {"osmid": 95503776, "name": null, "highway": "residential", "lanes": null, "maxspeed": null, "oneway": false, "junction": null, "u": 9805682282, "v": 1107450234, "key": 1046, "length": 40.57762814435727, "road_segment_id": 1027, "segment_id": 37}, "geometry": {"type": "LineString", "coordinates": [[42.5244352, 18.199714200000003], [42.5241007, 18.1995351]]}}, {"type": "Feature", "properties": {"osmid": 95503776, "name": null, "highway": "residential", "lanes": null, "maxspeed": null, "oneway": false, "junction": null, "u": 1107450234, "v": 9805695328, "key": 1047, "length": 3.5371848382565827, "road_segment_id": 1028, "segment_id": 38}, "geometry": {"type": "LineString", "coordinates": [[42.5241007, 18.1995351], [42.5240854, 18.1995635]]}}, {"type": "Feature", "properties": {"osmid": 95503776, "name": null, "highway": "residential", "lanes": null, "maxspeed": null, "oneway": false, "junction": null, "u": 9805695328, "v": 1107450355, "key": 1048, "length": 94.46523896362194, "road_segment_id": 1029, "segment_id": 39}, "geometry": {"type": "LineString", "coordinates": [[42.5240854, 18.1995635], [42.5236783, 18.2003227]]}}, {"type": "Feature", "properties": {"osmid": 95503776, "name": null, "highway": "residential", "lanes": null, "maxspeed": null, "oneway": false, "junction": null, "u": 1107450355, "v": 1107450313, "key": 1049, "length": 87.26168946861803, "road_segment_id": 1030, "segment_id": 40}, "geometry": {"type": "LineString", "coordinates": [[42.5236783, 18.2003227], [42.5232681, 18.201006300000003]]}}, {"type": "Feature", "properties": {"osmid": 95503777, "name": null, "highway": "residential", "lanes": null, "maxspeed": null, "oneway": false, "junction": null, "u": 1107450342, "v": 1107450313, "key": 1050, "length": 129.81999681700324, "road_segment_id": 1031, "segment_id": 41}, "geometry": {"type": "LineString", "coordinates": [[42.5239492, 18.200251100000006], [42.5234414, 18.2011031], [42.5232681, 18.201006300000003]]}}, {"type": "Feature", "properties": {"osmid": 95503777, "name": null, "highway": "residential", "lanes": null, "maxspeed": null, "oneway": false, "junction": null, "u": 1107450313, "v": 1107450258, "key": 1051, "length": 85.51724414349331, "road_segment_id": 1032, "segment_id": 42}, "geometry": {"type": "LineString", "coordinates": [[42.5232681, 18.201006300000003], [42.5225669, 18.200622500000005]]}}, {"type": "Feature", "properties": {"osmid": 339712391, "name": null, "highway": "residential", "lanes": null, "maxspeed": null, "oneway": false, "junction": null, "u": 3469177468, "v": 9805604570, "key": 1183, "length": 61.187183890635545, "road_segment_id": 1164, "segment_id": 43}, "geometry": {"type": "LineString", "coordinates": [[42.5227965, 18.201485099999996], [42.5224162, 18.2019013]]}}, {"type": "Feature", "properties": {"osmid": 495785600, "name": null, "highway": "tertiary", "lanes": null, "maxspeed": null, "oneway": false, "junction": null, "u": 9805593713, "v": 1107450305, "key": 1324, "length": 315.88918791389926, "road_segment_id": 1302, "segment_id": 44}, "geometry": {"type": "LineString", "coordinates": [[42.5238853, 18.1964661], [42.525003, 18.197016999999995], [42.5257782, 18.197420699999995], [42.5262079, 18.1976781], [42.5264996, 18.1978399]]}}, {"type": "Feature", "properties": {"osmid": 495785600, "name": null, "highway": "tertiary", "lanes": null, "maxspeed": null, "oneway": false, "junction": null, "u": 1107450305, "v": 7705732416, "key": 1325, "length": 93.98746839836278, "road_segment_id": 1303, "segment_id": 45}, "geometry": {"type": "LineString", "coordinates": [[42.5264996, 18.1978399], [42.5272792, 18.198246399999995]]}}, {"type": "Feature", "properties": {"osmid": 1068117870, "name": null, "highway": "service", "lanes": null, "maxspeed": null, "oneway": false, "junction": null, "u": 9805604587, "v": 9805604604, "key": 1563, "length": 76.46092979035694, "road_segment_id": 1513, "segment_id": 46}, "geometry": {"type": "LineString", "coordinates": [[42.5228411, 18.201509099999996], [42.522813, 18.201616], [42.5228143, 18.201657100000002], [42.5228261, 18.201675599999998], [42.5233003, 18.201925399999997]]}}, {"type": "Feature", "properties": {"osmid": 1068117870, "name": null, "highway": "service", "lanes": null, "maxspeed": null, "oneway": false, "junction": null, "u": 9805604604, "v": 9805604583, "key": 1564, "length": 171.00621559061884, "road_segment_id": 1514, "segment_id": 47}, "geometry": {"type": "LineString", "coordinates": [[42.5233003, 18.201925399999997], [42.5247154, 18.2026709]]}}, {"type": "Feature", "properties": {"osmid": 1068118355, "name": null, "highway": "service", "lanes": null, "maxspeed": null, "oneway": false, "junction": null, "u": 9805604605, "v": 9805604604, "key": 1583, "length": 40.84311609106224, "road_segment_id": 1533, "segment_id": 48}, "geometry": {"type": "LineString", "coordinates": [[42.5231151, 18.202249], [42.5233003, 18.201925399999997]]}}, {"type": "Feature", "properties": {"osmid": 1068118541, "name": null, "highway": "service", "lanes": null, "maxspeed": null, "oneway": false, "junction": null, "u": 9805604614, "v": 9805604606, "key": 1584, "length": 98.22821895699153, "road_segment_id": 1534, "segment_id": 49}, "geometry": {"type": "LineString", "coordinates": [[42.524819400000005, 18.2000723], [42.525119, 18.200215899999996], [42.5251472, 18.20024769999999], [42.5251472, 18.200286], [42.5251016, 18.200371300000004], [42.5250734, 18.200386599999998], [42.525052, 18.200386599999998], [42.5250305, 18.200381499999995], [42.5247283, 18.2002476]]}}, {"type": "Feature", "properties": {"osmid": 1068128180, "name": null, "highway": "service", "lanes": null, "maxspeed": null, "oneway": false, "junction": null, "u": 9805682280, "v": 9805682267, "key": 1592, "length": 42.072051719283216, "road_segment_id": 1542, "segment_id": 50}, "geometry": {"type": "LineString", "coordinates": [[42.524082400000005, 18.198389], [42.5244387, 18.198557499999996]]}}, {"type": "Feature", "properties": {"osmid": 1068128181, "name": null, "highway": "service", "lanes": null, "maxspeed": null, "oneway": false, "junction": null, "u": 9805682276, "v": 9805682270, "key": 1593, "length": 16.84409095964548, "road_segment_id": 1543, "segment_id": 51}, "geometry": {"type": "LineString", "coordinates": [[42.52482, 18.197283100000003], [42.5248961, 18.1971495]]}}, {"type": "Feature", "properties": {"osmid": 1068128182, "name": null, "highway": "service", "lanes": null, "maxspeed": null, "oneway": false, "junction": null, "u": 9805695329, "v": 9805682280, "key": 1594, "length": 104.66541352609073, "road_segment_id": 1544, "segment_id": 52}, "geometry": {"type": "LineString", "coordinates": [[42.5236162, 18.19922259999999], [42.524082400000005, 18.198389]]}}, {"type": "Feature", "properties": {"osmid": 1068128182, "name": null, "highway": "service", "lanes": null, "maxspeed": null, "oneway": false, "junction": null, "u": 9805682280, "v": 9805682276, "key": 1595, "length": 148.18345846430023, "road_segment_id": 1545, "segment_id": 53}, "geometry": {"type": "LineString", "coordinates": [[42.524082400000005, 18.198389], [42.5246496, 18.197432199999998], [42.5247697, 18.197281199999995], [42.5247958, 18.197277999999997], [42.52482, 18.197283100000003]]}}, {"type": "Feature", "properties": {"osmid": 1068128182, "name": null, "highway": "service", "lanes": null, "maxspeed": null, "oneway": false, "junction": null, "u": 9805682276, "v": 9805682296, "key": 1596, "length": 73.4350571354118, "road_segment_id": 1546, "segment_id": 54}, "geometry": {"type": "LineString", "coordinates": [[42.52482, 18.197283100000003], [42.5252961, 18.1975354], [42.5253269, 18.197539199999998], [42.5253578, 18.1975341], [42.5254077, 18.197465899999997]]}}, {"type": "Feature", "properties": {"osmid": 1068128183, "name": null, "highway": "service", "lanes": null, "maxspeed": null, "oneway": false, "junction": null, "u": 9805682289, "v": 9805682282, "key": 1597, "length": 54.399893329076214, "road_segment_id": 1547, "segment_id": 55}, "geometry": {"type": "LineString", "coordinates": [[42.5240931, 18.199428500000003], [42.5241286, 18.1994356], [42.5242326, 18.199460400000003], [42.5243412, 18.199499899999996], [42.5244015, 18.199553399999992], [42.5244217, 18.1996184], [42.5244352, 18.199714200000003]]}}, {"type": "Feature", "properties": {"osmid": 1068128184, "name": null, "highway": "service", "lanes": null, "maxspeed": null, "oneway": true, "junction": null, "u": 9805695324, "v": 9805682295, "key": 1598, "length": 4.686061333330276, "road_segment_id": 1548, "segment_id": 56}, "geometry": {"type": "LineString", "coordinates": [[42.5236661, 18.1992804], [42.5236959, 18.1992491]]}}, {"type": "Feature", "properties": {"osmid": 1068128184, "name": null, "highway": "service", "lanes": null, "maxspeed": null, "oneway": true, "junction": null, "u": 9805682295, "v": 9805682289, "key": 1599, "length": 51.159206445384, "road_segment_id": 1549, "segment_id": 57}, "geometry": {"type": "LineString", "coordinates": [[42.5236959, 18.1992491], [42.5237146, 18.19923079999999], [42.5237535, 18.199219299999996], [42.5238363, 18.1992362], [42.5239771, 18.1993075], [42.5240247, 18.1993515], [42.5240931, 18.199428500000003]]}}, {"type": "Feature", "properties": {"osmid": 1068128184, "name": null, "highway": "service", "lanes": null, "maxspeed": null, "oneway": true, "junction": null, "u": 9805682289, "v": 9805682288, "key": 1600, "length": 7.861679082868901, "road_segment_id": 1550, "segment_id": 58}, "geometry": {"type": "LineString", "coordinates": [[42.5240931, 18.199428500000003], [42.5240637, 18.199493700000005]]}}, {"type": "Feature", "properties": {"osmid": 1068128184, "name": null, "highway": "service", "lanes": null, "maxspeed": null, "oneway": true, "junction": null, "u": 9805682288, "v": 9805682281, "key": 1601, "length": 4.126598121182555, "road_segment_id": 1551, "segment_id": 59}, "geometry": {"type": "LineString", "coordinates": [[42.5240637, 18.199493700000005], [42.524041, 18.199524]]}}, {"type": "Feature", "properties": {"osmid": 1068128185, "name": null, "highway": "service", "lanes": null, "maxspeed": null, "oneway": false, "junction": null, "u": 9805682308, "v": 9805682307, "key": 1602, "length": 8.331913674609371, "road_segment_id": 1552, "segment_id": 60}, "geometry": {"type": "LineString", "coordinates": [[42.5227105, 18.198951399999995], [42.522764, 18.198896199999997]]}}, {"type": "Feature", "properties": {"osmid": 1068128185, "name": null, "highway": "service", "lanes": null, "maxspeed": null, "oneway": false, "junction": null, "u": 9805682307, "v": 9805682309, "key": 1603, "length": 209.32880593608024, "road_segment_id": 1553, "segment_id": 61}, "geometry": {"type": "LineString", "coordinates": [[42.522764, 18.198896199999997], [42.522925, 18.198582599999995], [42.5229518, 18.198567299999997], [42.5229746, 18.1985648], [42.523389, 18.198738000000002], [42.523496300000005, 18.198759700000004], [42.5235701, 18.198744399999995], [42.5236425, 18.198678199999996], [42.5240314, 18.197987599999998]]}}, {"type": "Feature", "properties": {"osmid": 1068128185, "name": null, "highway": "service", "lanes": null, "maxspeed": null, "oneway": false, "junction": null, "u": 9805682309, "v": 9805682270, "key": 1604, "length": 155.37143900820138, "road_segment_id": 1554, "segment_id": 62}, "geometry": {"type": "LineString", "coordinates": [[42.5240314, 18.197987599999998], [42.5245705, 18.1970729], [42.5246201, 18.1970347], [42.5246979, 18.197042299999996], [42.5248961, 18.1971495]]}}, {"type": "Feature", "properties": {"osmid": 1068128185, "name": null, "highway": "service", "lanes": null, "maxspeed": null, "oneway": false, "junction": null, "u": 9805682270, "v": 9805682296, "key": 1605, "length": 66.22914874408474, "road_segment_id": 1555, "segment_id": 63}, "geometry": {"type": "LineString", "coordinates": [[42.5248961, 18.1971495], [42.5253953, 18.1974194], [42.5254087, 18.197441699999995], [42.5254077, 18.197465899999997]]}}, {"type": "Feature", "properties": {"osmid": 1068128186, "name": null, "highway": "service", "lanes": null, "maxspeed": null, "oneway": false, "junction": null, "u": 9805682314, "v": 10060607763, "key": 1606, "length": 4.1009624253585395, "road_segment_id": 1556, "segment_id": 64}, "geometry": {"type": "LineString", "coordinates": [[42.5231154, 18.1975672], [42.5231511, 18.197581600000003]]}}, {"type": "Feature", "properties": {"osmid": 1068128186, "name": null, "highway": "service", "lanes": null, "maxspeed": null, "oneway": false, "junction": null, "u": 10060607763, "v": 9805682312, "key": 1607, "length": 30.820836306670238, "road_segment_id": 1557, "segment_id": 65}, "geometry": {"type": "LineString", "coordinates": [[42.5231511, 18.197581600000003], [42.5232669, 18.1976284], [42.5234172, 18.1976946]]}}, {"type": "Feature", "properties": {"osmid": 1068128186, "name": null, "highway": "service", "lanes": null, "maxspeed": null, "oneway": false, "junction": null, "u": 9805682312, "v": 9805682309, "key": 1608, "length": 72.6898409771828, "road_segment_id": 1558, "segment_id": 66}, "geometry": {"type": "LineString", "coordinates": [[42.5234172, 18.1976946], [42.5235834, 18.197769800000003], [42.5238544, 18.1978921], [42.5240314, 18.197987599999998]]}}, {"type": "Feature", "properties": {"osmid": 1068128187, "name": null, "highway": "service", "lanes": null, "maxspeed": null, "oneway": true, "junction": null, "u": 9805695328, "v": 9805682281, "key": 1609, "length": 6.419619378388895, "road_segment_id": 1559, "segment_id": 67}, "geometry": {"type": "LineString", "coordinates": [[42.5240854, 18.1995635], [42.524041, 18.199524]]}}, {"type": "Feature", "properties": {"osmid": 1068128187, "name": null, "highway": "service", "lanes": null, "maxspeed": null, "oneway": true, "junction": null, "u": 9805682281, "v": 9805695324, "key": 1610, "length": 48.20144725508203, "road_segment_id": 1560, "segment_id": 68}, "geometry": {"type": "LineString", "coordinates": [[42.524041, 18.199524], [42.5239516, 18.1994445], [42.5238872, 18.1994126], [42.5236661, 18.1992804]]}}, {"type": "Feature", "properties": {"osmid": 1068128187, "name": null, "highway": "service", "lanes": null, "maxspeed": null, "oneway": true, "junction": null, "u": 9805695324, "v": 9805682308, "key": 1611, "length": 111.09599347432822, "road_segment_id": 1561, "segment_id": 69}, "geometry": {"type": "LineString", "coordinates": [[42.5236661, 18.1992804], [42.5235915, 18.1992792], [42.5234909, 18.199290800000004], [42.5234187, 18.199294200000004], [42.5233032, 18.1992796], [42.5230521, 18.199138999999995], [42.5227105, 18.198951399999995]]}}, {"type": "Feature", "properties": {"osmid": 1068128187, "name": null, "highway": "service", "lanes": null, "maxspeed": null, "oneway": true, "junction": null, "u": 9805682308, "v": 9805695317, "key": 1612, "length": 67.51516167566562, "road_segment_id": 1562, "segment_id": 70}, "geometry": {"type": "LineString", "coordinates": [[42.5227105, 18.198951399999995], [42.5225584, 18.1988311], [42.5221754, 18.198623099999995]]}}, {"type": "Feature", "properties": {"osmid": 1068128188, "name": null, "highway": "service", "lanes": null, "maxspeed": null, "oneway": true, "junction": null, "u": 2116500833, "v": 9805682307, "key": 1613, "length": 69.54374910071945, "road_segment_id": 1563, "segment_id": 71}, "geometry": {"type": "LineString", "coordinates": [[42.5222348, 18.1985239], [42.522764, 18.198896199999997]]}}, {"type": "Feature", "properties": {"osmid": 1068128188, "name": null, "highway": "service", "lanes": null, "maxspeed": null, "oneway": true, "junction": null, "u": 9805682307, "v": 9805695329, "key": 1614, "length": 100.56734093712565, "road_segment_id": 1564, "segment_id": 72}, "geometry": {"type": "LineString", "coordinates": [[42.522764, 18.198896199999997], [42.523351, 18.1992323], [42.523469, 18.1992363], [42.5236162, 18.19922259999999]]}}, {"type": "Feature", "properties": {"osmid": 1068128188, "name": null, "highway": "service", "lanes": null, "maxspeed": null, "oneway": true, "junction": null, "u": 9805695329, "v": 9805682295, "key": 1615, "length": 8.930726602727022, "road_segment_id": 1565, "segment_id": 73}, "geometry": {"type": "LineString", "coordinates": [[42.5236162, 18.19922259999999], [42.5236959, 18.1992491]]}}, {"type": "Feature", "properties": {"osmid": 1068128188, "name": null, "highway": "service", "lanes": null, "maxspeed": null, "oneway": true, "junction": null, "u": 9805682295, "v": 9805682288, "key": 1616, "length": 47.70406217633575, "road_segment_id": 1566, "segment_id": 74}, "geometry": {"type": "LineString", "coordinates": [[42.5236959, 18.1992491], [42.5240193, 18.1994438], [42.5240637, 18.199493700000005]]}}, {"type": "Feature", "properties": {"osmid": 1068128188, "name": null, "highway": "service", "lanes": null, "maxspeed": null, "oneway": true, "junction": null, "u": 9805682288, "v": 1107450234, "key": 1617, "length": 6.0290541529724795, "road_segment_id": 1567, "segment_id": 75}, "geometry": {"type": "LineString", "coordinates": [[42.5240637, 18.199493700000005], [42.5241007, 18.1995351]]}}, {"type": "Feature", "properties": {"osmid": 1077854875, "name": null, "highway": "service", "lanes": null, "maxspeed": null, "oneway": false, "junction": null, "u": 9882289848, "v": 9882289847, "key": 1671, "length": 67.28816972020083, "road_segment_id": 1621, "segment_id": 76}, "geometry": {"type": "LineString", "coordinates": [[42.524251, 18.2017176], [42.5247976, 18.20202799999999]]}}, {"type": "Feature", "properties": {"osmid": 1077854876, "name": null, "highway": "service", "lanes": null, "maxspeed": null, "oneway": false, "junction": null, "u": 9882289850, "v": 9882289849, "key": 1672, "length": 70.72872960580703, "road_segment_id": 1622, "segment_id": 77}, "geometry": {"type": "LineString", "coordinates": [[42.524137, 18.201843500000003], [42.5247178, 18.2021595]]}}, {"type": "Feature", "properties": {"osmid": 1077854877, "name": null, "highway": "service", "lanes": null, "maxspeed": null, "oneway": false, "junction": null, "u": 9882289862, "v": 9882289851, "key": 1673, "length": 61.98809945666602, "road_segment_id": 1623, "segment_id": 78}, "geometry": {"type": "LineString", "coordinates": [[42.5241172, 18.202033899999996], [42.5246311, 18.202302499999995]]}}, {"type": "Feature", "properties": {"osmid": 1077854878, "name": null, "highway": "service", "lanes": null, "maxspeed": null, "oneway": false, "junction": null, "u": 9882289863, "v": 9882289862, "key": 1674, "length": 15.685309650542678, "road_segment_id": 1624, "segment_id": 79}, "geometry": {"type": "LineString", "coordinates": [[42.52403600000001, 18.202152400000003], [42.5241172, 18.202033899999996]]}}, {"type": "Feature", "properties": {"osmid": 1077854878, "name": null, "highway": "service", "lanes": null, "maxspeed": null, "oneway": false, "junction": null, "u": 9882289862, "v": 9882289850, "key": 1675, "length": 28.203779005774408, "road_segment_id": 1625, "segment_id": 80}, "geometry": {"type": "LineString", "coordinates": [[42.5241172, 18.202033899999996], [42.5240649, 18.2019957], [42.5240435, 18.2019727], [42.5240488, 18.201940899999997], [42.524137, 18.201843500000003]]}}, {"type": "Feature", "properties": {"osmid": 1077854878, "name": null, "highway": "service", "lanes": null, "maxspeed": null, "oneway": false, "junction": null, "u": 9882289850, "v": 9882289848, "key": 1676, "length": 18.436793480531215, "road_segment_id": 1626, "segment_id": 81}, "geometry": {"type": "LineString", "coordinates": [[42.524137, 18.201843500000003], [42.524251, 18.2017176]]}}, {"type": "Feature", "properties": {"osmid": 1077854878, "name": null, "highway": "service", "lanes": null, "maxspeed": null, "oneway": false, "junction": null, "u": 9882289848, "v": 9882289847, "key": 1677, "length": 94.31662931198093, "road_segment_id": 1627, "segment_id": 82}, "geometry": {"type": "LineString", "coordinates": [[42.524251, 18.2017176], [42.5243372, 18.201622400000005], [42.5243694, 18.201616000000005], [42.5244015, 18.2016275], [42.5248387, 18.2018708], [42.5248589, 18.2018976], [42.5248535, 18.201935800000005], [42.5247976, 18.20202799999999]]}}, {"type": "Feature", "properties": {"osmid": 1077854878, "name": null, "highway": "service", "lanes": null, "maxspeed": null, "oneway": false, "junction": null, "u": 9882289847, "v": 9882289849, "key": 1678, "length": 16.833136057610357, "road_segment_id": 1628, "segment_id": 83}, "geometry": {"type": "LineString", "coordinates": [[42.5247976, 18.20202799999999], [42.5247178, 18.2021595]]}}, {"type": "Feature", "properties": {"osmid": 1077854878, "name": null, "highway": "service", "lanes": null, "maxspeed": null, "oneway": false, "junction": null, "u": 9882289849, "v": 9882289851, "key": 1679, "length": 18.30105538040561, "road_segment_id": 1629, "segment_id": 84}, "geometry": {"type": "LineString", "coordinates": [[42.5247178, 18.2021595], [42.5246311, 18.202302499999995]]}}, {"type": "Feature", "properties": {"osmid": 1077854878, "name": null, "highway": "service", "lanes": null, "maxspeed": null, "oneway": false, "junction": null, "u": 9882289851, "v": 9882289852, "key": 1680, "length": 16.420420180720914, "road_segment_id": 1630, "segment_id": 85}, "geometry": {"type": "LineString", "coordinates": [[42.5246311, 18.202302499999995], [42.5245533, 18.2024308]]}}, {"type": "Feature", "properties": {"osmid": 1098781219, "name": null, "highway": "service", "lanes": null, "maxspeed": null, "oneway": false, "junction": null, "u": 10060607762, "v": 9805682312, "key": 1738, "length": 45.63347924581192, "road_segment_id": 1686, "segment_id": 86}, "geometry": {"type": "LineString", "coordinates": [[42.5232442, 18.1974283], [42.5234668, 18.197536599999996], [42.523476200000005, 18.197554499999992], [42.523476200000005, 18.1975812], [42.5234172, 18.1976946]]}}, {"type": "Feature", "properties": {"osmid": 1098781220, "name": null, "highway": "service", "lanes": null, "maxspeed": null, "oneway": false, "junction": null, "u": 10060607763, "v": 10060607762, "key": 1739, "length": 19.6276289001983, "road_segment_id": 1687, "segment_id": 87}, "geometry": {"type": "LineString", "coordinates": [[42.5231511, 18.197581600000003], [42.5232442, 18.1974283]]}}, {"type": "Feature", "properties": {"osmid": 1098781220, "name": null, "highway": "service", "lanes": null, "maxspeed": null, "oneway": false, "junction": null, "u": 10060607762, "v": 10060607750, "key": 1740, "length": 161.26609030485565, "road_segment_id": 1688, "segment_id": 88}, "geometry": {"type": "LineString", "coordinates": [[42.5232442, 18.1974283], [42.52322, 18.1973876], [42.5232066, 18.1973481], [42.5232053, 18.1973162], [42.5232133, 18.1972818], [42.5235271, 18.196733999999996], [42.5236197, 18.196597699999998], [42.5236465, 18.196589999999993], [42.523672, 18.196592600000002], [42.5241038, 18.196801499999996]]}}, {"type": "Feature", "properties": {"osmid": 1098781221, "name": null, "highway": "service", "lanes": null, "maxspeed": null, "oneway": true, "junction": null, "u": 9805682314, "v": 9805682316, "key": 1741, "length": 34.02288559369614, "road_segment_id": 1689, "segment_id": 89}, "geometry": {"type": "LineString", "coordinates": [[42.5231154, 18.1975672], [42.5229826, 18.197559500000004], [42.5227944, 18.197550599999996]]}}, {"type": "Feature", "properties": {"osmid": 1098781222, "name": null, "highway": "service", "lanes": null, "maxspeed": null, "oneway": true, "junction": null, "u": 10060607764, "v": 9805682314, "key": 1742, "length": 33.29556431110198, "road_segment_id": 1690, "segment_id": 90}, "geometry": {"type": "LineString", "coordinates": [[42.522923, 18.1973293], [42.5231154, 18.1975672]]}}, {"type": "Feature", "properties": {"osmid": 1534333871, "name": "\u0637\u0631\u064a\u0642 \u0627\u0644\u0645\u0644\u0643 \u0639\u0628\u062f\u0627\u0644\u0644\u0647", "highway": "trunk", "lanes": null, "maxspeed": null, "oneway": true, "junction": null, "u": 2116500832, "v": 10060607764, "key": 1881, "length": 134.3893605960915, "road_segment_id": 1829, "segment_id": 91}, "geometry": {"type": "LineString", "coordinates": [[42.52353970000001, 18.196268400000005], [42.522923, 18.1973293]]}}, {"type": "Feature", "properties": {"osmid": 1534333871, "name": "\u0637\u0631\u064a\u0642 \u0627\u0644\u0645\u0644\u0643 \u0639\u0628\u062f\u0627\u0644\u0644\u0647", "highway": "trunk", "lanes": null, "maxspeed": null, "oneway": true, "junction": null, "u": 10060607764, "v": 9805682316, "key": 1882, "length": 28.031001052786195, "road_segment_id": 1830, "segment_id": 92}, "geometry": {"type": "LineString", "coordinates": [[42.522923, 18.1973293], [42.5227944, 18.197550599999996]]}}, {"type": "Feature", "properties": {"osmid": 1534333871, "name": "\u0637\u0631\u064a\u0642 \u0627\u0644\u0645\u0644\u0643 \u0639\u0628\u062f\u0627\u0644\u0644\u0647", "highway": "trunk", "lanes": null, "maxspeed": null, "oneway": true, "junction": null, "u": 9805682316, "v": 2116500833, "key": 1883, "length": 122.97628101467214, "road_segment_id": 1831, "segment_id": 93}, "geometry": {"type": "LineString", "coordinates": [[42.5227944, 18.197550599999996], [42.5222348, 18.1985239]]}}, {"type": "Feature", "properties": {"osmid": 1534333871, "name": "\u0637\u0631\u064a\u0642 \u0627\u0644\u0645\u0644\u0643 \u0639\u0628\u062f\u0627\u0644\u0644\u0647", "highway": "trunk", "lanes": null, "maxspeed": null, "oneway": true, "junction": null, "u": 2116500833, "v": 9805695317, "key": 1884, "length": 12.65632965961845, "road_segment_id": 1832, "segment_id": 94}, "geometry": {"type": "LineString", "coordinates": [[42.5222348, 18.1985239], [42.5221754, 18.198623099999995]]}}, {"type": "Feature", "properties": {"osmid": 1534333871, "name": "\u0637\u0631\u064a\u0642 \u0627\u0644\u0645\u0644\u0643 \u0639\u0628\u062f\u0627\u0644\u0644\u0647", "highway": "trunk", "lanes": null, "maxspeed": null, "oneway": true, "junction": null, "u": 9805695317, "v": 2116500835, "key": 1885, "length": 243.0346654561937, "road_segment_id": 1833, "segment_id": 95}, "geometry": {"type": "LineString", "coordinates": [[42.5221754, 18.198623099999995], [42.5218255, 18.199221499999993], [42.5210092, 18.2005135]]}}]}