{
  "type": "FeatureCollection",
  "features": [
    {
      "type": "Feature",
      "geometry": {
        "type": "Point",
        "coordinates": [
          35.226976,
          27.993823
        ]
      },
      "properties": {
        "destination_id": "managed_exit_gate",
        "destination_weight": 1.0,
        "exit_way_osm_id": 849104008,
        "description": "Trunk road managed exit gate, 3380m network distance from exit origin (network-validated, within search_radius=3500)",
        "network_distance_m": 3380
      }
    }
  ]
}