{
"type": "FeatureCollection",
"name": "amenities",
"crs": { "type": "name", "properties": { "name": "urn:ogc:def:crs:OGC:1.3:CRS84" } },
"features": [
{"type":"Feature","properties":{"floor_area":50.0},"geometry":{"type":"Point","coordinates":[46.6303161,24.7373084]}},
{"type":"Feature","properties":{"floor_area":50.0},"geometry":{"type":"Point","coordinates":[46.6317341,24.7357262]}},
{"type":"Feature","properties":{"floor_area":50.0},"geometry":{"type":"Point","coordinates":[46.6346355,24.7405868]}},
{"type":"Feature","properties":{"floor_area":50.0},"geometry":{"type":"Point","coordinates":[46.6335083,24.7405758]}},
{"type":"Feature","properties":{"floor_area":50.0},"geometry":{"type":"Point","coordinates":[46.6261988,24.7400803]}},
{"type":"Feature","properties":{"floor_area":50.0},"geometry":{"type":"Point","coordinates":[46.6268432,24.7398437]}},
{"type":"Feature","properties":{"floor_area":50.0},"geometry":{"type":"Point","coordinates":[46.6284819,24.7388638]}},
{"type":"Feature","properties":{"floor_area":50.0},"geometry":{"type":"Point","coordinates":[46.6306498,24.7367036]}},
{"type":"Feature","properties":{"floor_area":50.0},"geometry":{"type":"Point","coordinates":[46.629902,24.7376622]}},
{"type":"Feature","properties":{"floor_area":50.0},"geometry":{"type":"Point","coordinates":[46.62968,24.737873]}},
{"type":"Feature","properties":{"floor_area":50.0},"geometry":{"type":"Point","coordinates":[46.6305944,24.7368048]}},
{"type":"Feature","properties":{"floor_area":50.0},"geometry":{"type":"Point","coordinates":[46.6289198,24.7385064]}},
{"type":"Feature","properties":{"floor_area":50.0},"geometry":{"type":"Point","coordinates":[46.6286517,24.7387261]}},
{"type":"Feature","properties":{"floor_area":50.0},"geometry":{"type":"Point","coordinates":[46.6292888,24.7382013]}},
{"type":"Feature","properties":{"floor_area":50.0},"geometry":{"type":"Point","coordinates":[46.6303004,24.7371937]}},
{"type":"Feature","properties":{"floor_area":50.0},"geometry":{"type":"Point","coordinates":[46.6277436,24.7393871]}},
{"type":"Feature","properties":{"floor_area":50.0},"geometry":{"type":"Point","coordinates":[46.6309053,24.7362371]}},
{"type":"Feature","properties":{"floor_area":50.0},"geometry":{"type":"Point","coordinates":[46.6315121,24.7353174]}},
{"type":"Feature","properties":{"floor_area":50.0},"geometry":{"type":"Point","coordinates":[46.6304078,24.7370634]}},
{"type":"Feature","properties":{"floor_area":50.0},"geometry":{"type":"Point","coordinates":[46.6303549,24.7371244]}},
{"type":"Feature","properties":{"floor_area":50.0},"geometry":{"type":"Point","coordinates":[46.631169,24.735757]}},
{"type":"Feature","properties":{"floor_area":50.0},"geometry":{"type":"Point","coordinates":[46.6285564,24.7387955]}},
{"type":"Feature","properties":{"floor_area":50.0},"geometry":{"type":"Point","coordinates":[46.6283952,24.7389358]}},
{"type":"Feature","properties":{"floor_area":50.0},"geometry":{"type":"Point","coordinates":[46.6285205,24.7388296]}},
{"type":"Feature","properties":{"floor_area":50.0},"geometry":{"type":"Point","coordinates":[46.6354544,24.7374529]}},
{"type":"Feature","properties":{"floor_area":8815134.3},"geometry":{"type":"Point","coordinates":[46.623504546392823,24.724636074421287]}},
{"type":"Feature","properties":{"floor_area":61156.0},"geometry":{"type":"Point","coordinates":[46.629071777831051,24.744473494146121]}},
{"type":"Feature","properties":{"floor_area":16164.5},"geometry":{"type":"Point","coordinates":[46.626664151139337,24.743819295400531]}},
{"type":"Feature","properties":{"floor_area":3793.6},"geometry":{"type":"Point","coordinates":[46.626758552162308,24.742837073765315]}},
{"type":"Feature","properties":{"floor_area":1189.4},"geometry":{"type":"Point","coordinates":[46.634279816766224,24.738244290959539]}},
{"type":"Feature","properties":{"floor_area":17027.4},"geometry":{"type":"Point","coordinates":[46.625280894692771,24.740604676983747]}},
{"type":"Feature","properties":{"floor_area":122514.7},"geometry":{"type":"Point","coordinates":[46.628945054126135,24.737947588896066]}},
{"type":"Feature","properties":{"floor_area":12021.3},"geometry":{"type":"Point","coordinates":[46.631949536681631,24.735037766815566]}},
{"type":"Feature","properties":{"floor_area":1244366.3},"geometry":{"type":"Point","coordinates":[46.636387279982941,24.726893738053594]}},
{"type":"Feature","properties":{"floor_area":18726.7},"geometry":{"type":"Point","coordinates":[46.632050108794033,24.74087287155303]}},
{"type":"Feature","properties":{"floor_area":4189.2},"geometry":{"type":"Point","coordinates":[46.635856195653901,24.736995576394929]}},
{"type":"Feature","properties":{"floor_area":399.1},"geometry":{"type":"Point","coordinates":[46.635353211358911,24.737332038629301]}},
{"type":"Feature","properties":{"floor_area":3552.0},"geometry":{"type":"Point","coordinates":[46.637060166743652,24.737464200860657]}},
{"type":"Feature","properties":{"floor_area":1160.7},"geometry":{"type":"Point","coordinates":[46.625633355698412,24.749020019110805]}},
{"type":"Feature","properties":{"floor_area":2357.1},"geometry":{"type":"Point","coordinates":[46.64173749708754,24.736662549967868]}},
{"type":"Feature","properties":{"floor_area":422.3},"geometry":{"type":"Point","coordinates":[46.631607174599424,24.736285966435776]}},
{"type":"Feature","properties":{"floor_area":211.0},"geometry":{"type":"Point","coordinates":[46.62684665109952,24.740259501390138]}}
]
}
