{
"type": "FeatureCollection",
"name": "residential",
"crs": { "type": "name", "properties": { "name": "urn:ogc:def:crs:OGC:1.3:CRS84" } },
"features": [
{"type":"Feature","properties":{"residents":7.6},"geometry":{"type":"Point","coordinates":[46.639909599970814,24.737235800033648]}},
{"type":"Feature","properties":{"residents":9.8},"geometry":{"type":"Point","coordinates":[46.640354917015053,24.736391350552001]}},
{"type":"Feature","properties":{"residents":8.9},"geometry":{"type":"Point","coordinates":[46.640427924356601,24.736249603886005]}},
{"type":"Feature","properties":{"residents":13.1},"geometry":{"type":"Point","coordinates":[46.640797751851657,24.736409934099036]}},
{"type":"Feature","properties":{"residents":13.6},"geometry":{"type":"Point","coordinates":[46.640729149954922,24.736549300058623]}},
{"type":"Feature","properties":{"residents":25.9},"geometry":{"type":"Point","coordinates":[46.64182751860838,24.73725560497989]}},
{"type":"Feature","properties":{"residents":24.0},"geometry":{"type":"Point","coordinates":[46.641573081400303,24.737155544607326]}},
{"type":"Feature","properties":{"residents":27.1},"geometry":{"type":"Point","coordinates":[46.642095161863175,24.737371708687736]}},
{"type":"Feature","properties":{"residents":16.5},"geometry":{"type":"Point","coordinates":[46.64171230005347,24.736077050000368]}},
{"type":"Feature","properties":{"residents":15.9},"geometry":{"type":"Point","coordinates":[46.641876150051722,24.736142199999986]}},
{"type":"Feature","properties":{"residents":16.5},"geometry":{"type":"Point","coordinates":[46.641460300053481,24.735969450000365]}},
{"type":"Feature","properties":{"residents":23.7},"geometry":{"type":"Point","coordinates":[46.640690341199139,24.735634655570067]}},
{"type":"Feature","properties":{"residents":14.0},"geometry":{"type":"Point","coordinates":[46.640869983887654,24.735708637537751]}},
{"type":"Feature","properties":{"residents":24.6},"geometry":{"type":"Point","coordinates":[46.640836368359238,24.734041505141541]}},
{"type":"Feature","properties":{"residents":9.3},"geometry":{"type":"Point","coordinates":[46.640921399977969,24.733853850029401]}},
{"type":"Feature","properties":{"residents":9.3},"geometry":{"type":"Point","coordinates":[46.640988999977978,24.733735650029395]}},
{"type":"Feature","properties":{"residents":32.0},"geometry":{"type":"Point","coordinates":[46.641985602459997,24.734541274344362]}},
{"type":"Feature","properties":{"residents":28.7},"geometry":{"type":"Point","coordinates":[46.642105192819209,24.734289475471101]}},
{"type":"Feature","properties":{"residents":39.3},"geometry":{"type":"Point","coordinates":[46.640102615387889,24.733503035578515]}},
{"type":"Feature","properties":{"residents":9.9},"geometry":{"type":"Point","coordinates":[46.641053847600396,24.733616886314014]}},
{"type":"Feature","properties":{"residents":9.3},"geometry":{"type":"Point","coordinates":[46.641135299977975,24.733507050029402]}},
{"type":"Feature","properties":{"residents":9.3},"geometry":{"type":"Point","coordinates":[46.640826699977978,24.733523650029401]}},
{"type":"Feature","properties":{"residents":31.1},"geometry":{"type":"Point","coordinates":[46.640644953655823,24.733671580006643]}},
{"type":"Feature","properties":{"residents":36.3},"geometry":{"type":"Point","coordinates":[46.640493422224552,24.733874658668338]}},
{"type":"Feature","properties":{"residents":12.1},"geometry":{"type":"Point","coordinates":[46.641321233989295,24.734031616662215]}},
{"type":"Feature","properties":{"residents":12.1},"geometry":{"type":"Point","coordinates":[46.641367128778256,24.733912326970117]}},
{"type":"Feature","properties":{"residents":17.2},"geometry":{"type":"Point","coordinates":[46.641717599981114,24.733880200045341]}},
{"type":"Feature","properties":{"residents":12.1},"geometry":{"type":"Point","coordinates":[46.641648233989294,24.734023316662213]}},
{"type":"Feature","properties":{"residents":12.1},"geometry":{"type":"Point","coordinates":[46.641587133989297,24.734145416662205]}},
{"type":"Feature","properties":{"residents":55.9},"geometry":{"type":"Point","coordinates":[46.641343993972313,24.734273990275032]}},
{"type":"Feature","properties":{"residents":11.0},"geometry":{"type":"Point","coordinates":[46.639618641015069,24.737107449461732]}},
{"type":"Feature","properties":{"residents":19.7},"geometry":{"type":"Point","coordinates":[46.639695917573505,24.736970351399069]}},
{"type":"Feature","properties":{"residents":14.7},"geometry":{"type":"Point","coordinates":[46.639784202165352,24.736819467420293]}},
{"type":"Feature","properties":{"residents":13.5},"geometry":{"type":"Point","coordinates":[46.639856733853001,24.7366771659457]}},
{"type":"Feature","properties":{"residents":14.1},"geometry":{"type":"Point","coordinates":[46.639924684370371,24.73654936642675]}},
{"type":"Feature","properties":{"residents":16.1},"geometry":{"type":"Point","coordinates":[46.639994187289766,24.736412966812974]}},
{"type":"Feature","properties":{"residents":13.8},"geometry":{"type":"Point","coordinates":[46.640056251725682,24.736257366820322]}},
{"type":"Feature","properties":{"residents":8.4},"geometry":{"type":"Point","coordinates":[46.640150031682865,24.736135915009974]}},
{"type":"Feature","properties":{"residents":7.7},"geometry":{"type":"Point","coordinates":[46.639953675800115,24.737150204197029]}},
{"type":"Feature","properties":{"residents":7.9},"geometry":{"type":"Point","coordinates":[46.640005964089362,24.737061138102774]}},
{"type":"Feature","properties":{"residents":26.0},"geometry":{"type":"Point","coordinates":[46.640092299124042,24.736872664907512]}},
{"type":"Feature","properties":{"residents":22.9},"geometry":{"type":"Point","coordinates":[46.640241907422563,24.736594345630131]}},
{"type":"Feature","properties":{"residents":20.7},"geometry":{"type":"Point","coordinates":[46.640502428074058,24.736982565584444]}},
{"type":"Feature","properties":{"residents":28.9},"geometry":{"type":"Point","coordinates":[46.640617470924056,24.736771545643215]}},
{"type":"Feature","properties":{"residents":9.9},"geometry":{"type":"Point","coordinates":[46.640720298637298,24.737228556565316]}},
{"type":"Feature","properties":{"residents":15.0},"geometry":{"type":"Point","coordinates":[46.640788893329677,24.737093052526777]}},
{"type":"Feature","properties":{"residents":10.8},"geometry":{"type":"Point","coordinates":[46.641311806085916,24.737791716463164]}},
{"type":"Feature","properties":{"residents":10.8},"geometry":{"type":"Point","coordinates":[46.641200406085915,24.737735016463162]}},
{"type":"Feature","properties":{"residents":26.2},"geometry":{"type":"Point","coordinates":[46.640994906502158,24.737652361089953]}},
{"type":"Feature","properties":{"residents":17.0},"geometry":{"type":"Point","coordinates":[46.641568851996745,24.737456632307328]}},
{"type":"Feature","properties":{"residents":18.0},"geometry":{"type":"Point","coordinates":[46.641746173706878,24.737533155384465]}},
{"type":"Feature","properties":{"residents":17.6},"geometry":{"type":"Point","coordinates":[46.641053550047836,24.735474500000542]}},
{"type":"Feature","properties":{"residents":15.2},"geometry":{"type":"Point","coordinates":[46.641346048534508,24.735597167664121]}},
{"type":"Feature","properties":{"residents":16.7},"geometry":{"type":"Point","coordinates":[46.64159886738576,24.73572006090248]}},
{"type":"Feature","properties":{"residents":30.2},"geometry":{"type":"Point","coordinates":[46.640900712319301,24.736218962871735]}},
{"type":"Feature","properties":{"residents":20.7},"geometry":{"type":"Point","coordinates":[46.641181323214035,24.736329509394938]}},
{"type":"Feature","properties":{"residents":26.2},"geometry":{"type":"Point","coordinates":[46.641035472246877,24.736589437997154]}},
{"type":"Feature","properties":{"residents":23.6},"geometry":{"type":"Point","coordinates":[46.640887300024175,24.736874950025125]}},
{"type":"Feature","properties":{"residents":47.9},"geometry":{"type":"Point","coordinates":[46.64126483317807,24.737328700421081]}},
{"type":"Feature","properties":{"residents":25.4},"geometry":{"type":"Point","coordinates":[46.641312972551439,24.737041444401562]}},
{"type":"Feature","properties":{"residents":15.6},"geometry":{"type":"Point","coordinates":[46.641989511871664,24.735896727375803]}},
{"type":"Feature","properties":{"residents":18.3},"geometry":{"type":"Point","coordinates":[46.641822070521435,24.735819653840156]}},
{"type":"Feature","properties":{"residents":12.8},"geometry":{"type":"Point","coordinates":[46.641231450061845,24.735121999991861]}},
{"type":"Feature","properties":{"residents":12.8},"geometry":{"type":"Point","coordinates":[46.641368250061845,24.735175599991859]}},
{"type":"Feature","properties":{"residents":12.8},"geometry":{"type":"Point","coordinates":[46.64152655006184,24.73524619999186]}},
{"type":"Feature","properties":{"residents":12.8},"geometry":{"type":"Point","coordinates":[46.641668650061838,24.735307099991864]}},
{"type":"Feature","properties":{"residents":12.3},"geometry":{"type":"Point","coordinates":[46.641922383312355,24.735408811746101]}},
{"type":"Feature","properties":{"residents":12.8},"geometry":{"type":"Point","coordinates":[46.641789350061842,24.735360799991867]}},
{"type":"Feature","properties":{"residents":57.0},"geometry":{"type":"Point","coordinates":[46.641810925974518,24.735055358598125]}},
{"type":"Feature","properties":{"residents":120.1},"geometry":{"type":"Point","coordinates":[46.640954387428174,24.734843543104269]}},
{"type":"Feature","properties":{"residents":112.5},"geometry":{"type":"Point","coordinates":[46.636649575704268,24.735753162346761]}},
{"type":"Feature","properties":{"residents":21.4},"geometry":{"type":"Point","coordinates":[46.632199901397634,24.737017416704703]}},
{"type":"Feature","properties":{"residents":9.6},"geometry":{"type":"Point","coordinates":[46.632327340905427,24.737138686085231]}},
{"type":"Feature","properties":{"residents":12.1},"geometry":{"type":"Point","coordinates":[46.632417191876925,24.737232261228151]}},
{"type":"Feature","properties":{"residents":12.1},"geometry":{"type":"Point","coordinates":[46.632517491876918,24.737333061228149]}},
{"type":"Feature","properties":{"residents":12.1},"geometry":{"type":"Point","coordinates":[46.632618991876917,24.737432061228148]}},
{"type":"Feature","properties":{"residents":12.2},"geometry":{"type":"Point","coordinates":[46.632715871725331,24.737531670146556]}},
{"type":"Feature","properties":{"residents":10.4},"geometry":{"type":"Point","coordinates":[46.632800264096133,24.737619655227775]}},
{"type":"Feature","properties":{"residents":12.1},"geometry":{"type":"Point","coordinates":[46.632888991876925,24.737712461228153]}},
{"type":"Feature","properties":{"residents":12.1},"geometry":{"type":"Point","coordinates":[46.63298399187692,24.737809861228151]}},
{"type":"Feature","properties":{"residents":12.1},"geometry":{"type":"Point","coordinates":[46.633079691876915,24.737906661228148]}},
{"type":"Feature","properties":{"residents":12.1},"geometry":{"type":"Point","coordinates":[46.633172991876926,24.73800346122815]}},
{"type":"Feature","properties":{"residents":12.1},"geometry":{"type":"Point","coordinates":[46.633266891876922,24.738101861228145]}},
{"type":"Feature","properties":{"residents":12.1},"geometry":{"type":"Point","coordinates":[46.633362491876923,24.738196861228147]}},
{"type":"Feature","properties":{"residents":15.6},"geometry":{"type":"Point","coordinates":[46.633469754613039,24.73831056619181]}},
{"type":"Feature","properties":{"residents":19.9},"geometry":{"type":"Point","coordinates":[46.633253750030491,24.738474900034536]}},
{"type":"Feature","properties":{"residents":13.3},"geometry":{"type":"Point","coordinates":[46.633121408804286,24.738357064451645]}},
{"type":"Feature","properties":{"residents":13.3},"geometry":{"type":"Point","coordinates":[46.633035308804288,24.738257964451648]}},
{"type":"Feature","properties":{"residents":13.3},"geometry":{"type":"Point","coordinates":[46.632935408804293,24.738162464451644]}},
{"type":"Feature","properties":{"residents":13.3},"geometry":{"type":"Point","coordinates":[46.632843308804283,24.738067564451647]}},
{"type":"Feature","properties":{"residents":13.3},"geometry":{"type":"Point","coordinates":[46.632752008804282,24.737971964451638]}},
{"type":"Feature","properties":{"residents":11.2},"geometry":{"type":"Point","coordinates":[46.632661538568478,24.737888687006048]}},
{"type":"Feature","properties":{"residents":11.2},"geometry":{"type":"Point","coordinates":[46.632585038568479,24.737804787006034]}},
{"type":"Feature","properties":{"residents":12.8},"geometry":{"type":"Point","coordinates":[46.632487809747872,24.737715264102395]}},
{"type":"Feature","properties":{"residents":13.7},"geometry":{"type":"Point","coordinates":[46.632385664750963,24.737606604254335]}},
{"type":"Feature","properties":{"residents":13.7},"geometry":{"type":"Point","coordinates":[46.632289164750972,24.737505304254338]}},
{"type":"Feature","properties":{"residents":13.7},"geometry":{"type":"Point","coordinates":[46.632188073495612,24.737409168940651]}},
{"type":"Feature","properties":{"residents":9.0},"geometry":{"type":"Point","coordinates":[46.632109646192873,24.737326697679915]}},
{"type":"Feature","properties":{"residents":12.4},"geometry":{"type":"Point","coordinates":[46.632099727786596,24.737925780694926]}},
{"type":"Feature","properties":{"residents":12.4},"geometry":{"type":"Point","coordinates":[46.632210327786588,24.738031480694939]}},
{"type":"Feature","properties":{"residents":12.4},"geometry":{"type":"Point","coordinates":[46.632316927786597,24.738129980694922]}},
{"type":"Feature","properties":{"residents":12.4},"geometry":{"type":"Point","coordinates":[46.632419027786597,24.738234480694928]}},
{"type":"Feature","properties":{"residents":11.6},"geometry":{"type":"Point","coordinates":[46.632523942649691,24.738334685020916]}},
{"type":"Feature","properties":{"residents":57.6},"geometry":{"type":"Point","coordinates":[46.631976399682323,24.738184200128643]}},
{"type":"Feature","properties":{"residents":23.8},"geometry":{"type":"Point","coordinates":[46.632281250015261,24.738482600040602]}},
{"type":"Feature","properties":{"residents":23.8},"geometry":{"type":"Point","coordinates":[46.632450550015257,24.73866120004061]}},
{"type":"Feature","properties":{"residents":14.6},"geometry":{"type":"Point","coordinates":[46.632589770858665,24.738804140382967]}},
{"type":"Feature","properties":{"residents":22.0},"geometry":{"type":"Point","coordinates":[46.632728558625288,24.7389147440263]}},
{"type":"Feature","properties":{"residents":44.2},"geometry":{"type":"Point","coordinates":[46.632832287042653,24.738628580589175]}},
{"type":"Feature","properties":{"residents":9.0},"geometry":{"type":"Point","coordinates":[46.632612200062901,24.738422200024878]}},
{"type":"Feature","properties":{"residents":36.1},"geometry":{"type":"Point","coordinates":[46.631146176681533,24.737935925483033]}},
{"type":"Feature","properties":{"residents":24.3},"geometry":{"type":"Point","coordinates":[46.631353696559458,24.738144733606397]}},
{"type":"Feature","properties":{"residents":24.3},"geometry":{"type":"Point","coordinates":[46.631530296559461,24.7383210336064]}},
{"type":"Feature","properties":{"residents":24.3},"geometry":{"type":"Point","coordinates":[46.631711796559458,24.738500233606398]}},
{"type":"Feature","properties":{"residents":24.3},"geometry":{"type":"Point","coordinates":[46.63144869655946,24.738681133606402]}},
{"type":"Feature","properties":{"residents":24.3},"geometry":{"type":"Point","coordinates":[46.631288996559462,24.7385149336064]}},
{"type":"Feature","properties":{"residents":25.2},"geometry":{"type":"Point","coordinates":[46.631117400016649,24.738340400043022]}},
{"type":"Feature","properties":{"residents":30.6},"geometry":{"type":"Point","coordinates":[46.630923549962233,24.738119500052811]}},
{"type":"Feature","properties":{"residents":28.3},"geometry":{"type":"Point","coordinates":[46.631974651972691,24.738778283012838]}},
{"type":"Feature","properties":{"residents":24.5},"geometry":{"type":"Point","coordinates":[46.632155150028709,24.738961050041684]}},
{"type":"Feature","properties":{"residents":30.2},"geometry":{"type":"Point","coordinates":[46.632349117481766,24.739161115584512]}},
{"type":"Feature","properties":{"residents":30.2},"geometry":{"type":"Point","coordinates":[46.632123017481767,24.739338715584513]}},
{"type":"Feature","properties":{"residents":24.5},"geometry":{"type":"Point","coordinates":[46.631929350028699,24.73914615004168]}},
{"type":"Feature","properties":{"residents":27.3},"geometry":{"type":"Point","coordinates":[46.63174675001499,24.738971100046044]}},
{"type":"Feature","properties":{"residents":12.9},"geometry":{"type":"Point","coordinates":[46.633685974254121,24.738985672227109]}},
{"type":"Feature","properties":{"residents":12.9},"geometry":{"type":"Point","coordinates":[46.633824991456592,24.73890807819269]}},
{"type":"Feature","properties":{"residents":12.9},"geometry":{"type":"Point","coordinates":[46.633968453239156,24.73883737400601]}},
{"type":"Feature","properties":{"residents":15.3},"geometry":{"type":"Point","coordinates":[46.634133066658329,24.738786569931172]}},
{"type":"Feature","properties":{"residents":14.8},"geometry":{"type":"Point","coordinates":[46.634356476530527,24.738711532296239]}},
{"type":"Feature","properties":{"residents":14.1},"geometry":{"type":"Point","coordinates":[46.634367116622556,24.738862024073658]}},
{"type":"Feature","properties":{"residents":14.1},"geometry":{"type":"Point","coordinates":[46.634372316622553,24.739007324073658]}},
{"type":"Feature","properties":{"residents":14.1},"geometry":{"type":"Point","coordinates":[46.634384616622555,24.739153824073661]}},
{"type":"Feature","properties":{"residents":14.0},"geometry":{"type":"Point","coordinates":[46.634383951304606,24.739293810327478]}},
{"type":"Feature","properties":{"residents":16.8},"geometry":{"type":"Point","coordinates":[46.634393148100685,24.739443127818628]}},
{"type":"Feature","properties":{"residents":14.0},"geometry":{"type":"Point","coordinates":[46.634147039217424,24.739390525374233]}},
{"type":"Feature","properties":{"residents":14.0},"geometry":{"type":"Point","coordinates":[46.633981138039189,24.739407431175142]}},
{"type":"Feature","properties":{"residents":14.0},"geometry":{"type":"Point","coordinates":[46.633811040411956,24.739439645511041]}},
{"type":"Feature","properties":{"residents":782.7},"geometry":{"type":"Point","coordinates":[46.641702649338242,24.745487751805122]}},
{"type":"Feature","properties":{"residents":25.7},"geometry":{"type":"Point","coordinates":[46.638279644361617,24.745218195350542]}},
{"type":"Feature","properties":{"residents":28.3},"geometry":{"type":"Point","coordinates":[46.638420194070449,24.744958162534374]}},
{"type":"Feature","properties":{"residents":19.8},"geometry":{"type":"Point","coordinates":[46.638543686479672,24.744714265790257]}},
{"type":"Feature","properties":{"residents":17.0},"geometry":{"type":"Point","coordinates":[46.638640750357354,24.744517824012711]}},
{"type":"Feature","properties":{"residents":14.4},"geometry":{"type":"Point","coordinates":[46.638728376303121,24.744361942063858]}},
{"type":"Feature","properties":{"residents":111.4},"geometry":{"type":"Point","coordinates":[46.638791674140464,24.743936960253027]}},
{"type":"Feature","properties":{"residents":15.5},"geometry":{"type":"Point","coordinates":[46.638501371456648,24.744254066009674]}},
{"type":"Feature","properties":{"residents":15.7},"geometry":{"type":"Point","coordinates":[46.638370865234158,24.744532547510492]}},
{"type":"Feature","properties":{"residents":88.3},"geometry":{"type":"Point","coordinates":[46.638473500056342,24.745946800116609]}},
{"type":"Feature","properties":{"residents":62.8},"geometry":{"type":"Point","coordinates":[46.638667109264247,24.745580531901197]}},
{"type":"Feature","properties":{"residents":64.8},"geometry":{"type":"Point","coordinates":[46.638826008219873,24.745249597996008]}},
{"type":"Feature","properties":{"residents":132.2},"geometry":{"type":"Point","coordinates":[46.639085578485144,24.744764576022092]}},
{"type":"Feature","properties":{"residents":16.6},"geometry":{"type":"Point","coordinates":[46.638895194363734,24.74626660500908]}},
{"type":"Feature","properties":{"residents":16.1},"geometry":{"type":"Point","coordinates":[46.638981259307137,24.746104683789845]}},
{"type":"Feature","properties":{"residents":14.6},"geometry":{"type":"Point","coordinates":[46.63906491604012,24.745943577424793]}},
{"type":"Feature","properties":{"residents":47.0},"geometry":{"type":"Point","coordinates":[46.639559294138941,24.746301995425263]}},
{"type":"Feature","properties":{"residents":5.8},"geometry":{"type":"Point","coordinates":[46.639050359650348,24.746379681692762]}},
{"type":"Feature","properties":{"residents":113.6},"geometry":{"type":"Point","coordinates":[46.640168803781911,24.745309679765246]}},
{"type":"Feature","properties":{"residents":48.4},"geometry":{"type":"Point","coordinates":[46.640371451793065,24.744943717001849]}},
{"type":"Feature","properties":{"residents":95.0},"geometry":{"type":"Point","coordinates":[46.640552550018974,24.744623950150348]}},
{"type":"Feature","properties":{"residents":11.7},"geometry":{"type":"Point","coordinates":[46.641882897959377,24.746656667898378]}},
{"type":"Feature","properties":{"residents":11.7},"geometry":{"type":"Point","coordinates":[46.641448697959376,24.746473867898374]}},
{"type":"Feature","properties":{"residents":13.4},"geometry":{"type":"Point","coordinates":[46.641691150039897,24.746583899999802]}},
{"type":"Feature","properties":{"residents":217.7},"geometry":{"type":"Point","coordinates":[46.641303280766266,24.747096442552493]}},
{"type":"Feature","properties":{"residents":16.2},"geometry":{"type":"Point","coordinates":[46.640489621658631,24.746352835515253]}},
{"type":"Feature","properties":{"residents":16.2},"geometry":{"type":"Point","coordinates":[46.64054302165863,24.746247135515251]}},
{"type":"Feature","properties":{"residents":14.9},"geometry":{"type":"Point","coordinates":[46.640593073701062,24.746142486086139]}},
{"type":"Feature","properties":{"residents":18.2},"geometry":{"type":"Point","coordinates":[46.640604212279065,24.745971203167276]}},
{"type":"Feature","properties":{"residents":6.9},"geometry":{"type":"Point","coordinates":[46.640767733700983,24.746039453955976]}},
{"type":"Feature","properties":{"residents":6.9},"geometry":{"type":"Point","coordinates":[46.640867533700977,24.746081853955975]}},
{"type":"Feature","properties":{"residents":6.9},"geometry":{"type":"Point","coordinates":[46.640985233700981,24.746135453955976]}},
{"type":"Feature","properties":{"residents":6.9},"geometry":{"type":"Point","coordinates":[46.64087013209307,24.746258083510114]}},
{"type":"Feature","properties":{"residents":6.9},"geometry":{"type":"Point","coordinates":[46.640814732093069,24.746360183510109]}},
{"type":"Feature","properties":{"residents":6.9},"geometry":{"type":"Point","coordinates":[46.640769932093065,24.746455983510113]}},
{"type":"Feature","properties":{"residents":73.9},"geometry":{"type":"Point","coordinates":[46.639396737964589,24.744095440445275]}},
{"type":"Feature","properties":{"residents":9.1},"geometry":{"type":"Point","coordinates":[46.639760050170992,24.744122083219345]}},
{"type":"Feature","properties":{"residents":9.1},"geometry":{"type":"Point","coordinates":[46.639889150170987,24.74417458321934]}},
{"type":"Feature","properties":{"residents":9.1},"geometry":{"type":"Point","coordinates":[46.64004145017099,24.744240883219341]}},
{"type":"Feature","properties":{"residents":8.3},"geometry":{"type":"Point","coordinates":[46.639651100041064,24.744330099994908]}},
{"type":"Feature","properties":{"residents":8.3},"geometry":{"type":"Point","coordinates":[46.639791000041058,24.744387899994901]}},
{"type":"Feature","properties":{"residents":8.3},"geometry":{"type":"Point","coordinates":[46.639921600041063,24.744446099994907]}},
{"type":"Feature","properties":{"residents":17.5},"geometry":{"type":"Point","coordinates":[46.64014244377573,24.744353614342856]}},
{"type":"Feature","properties":{"residents":16.9},"geometry":{"type":"Point","coordinates":[46.639191784968922,24.745628350009536]}},
{"type":"Feature","properties":{"residents":15.5},"geometry":{"type":"Point","coordinates":[46.639656049995395,24.744726600029761]}},
{"type":"Feature","properties":{"residents":15.5},"geometry":{"type":"Point","coordinates":[46.63987514999539,24.744820600029765]}},
{"type":"Feature","properties":{"residents":17.4},"geometry":{"type":"Point","coordinates":[46.639573968581871,24.744901553836616]}},
{"type":"Feature","properties":{"residents":14.1},"geometry":{"type":"Point","coordinates":[46.639782900009124,24.744988550017929]}},
{"type":"Feature","properties":{"residents":8.0},"geometry":{"type":"Point","coordinates":[46.639504249967523,24.745035800041684]}},
{"type":"Feature","properties":{"residents":8.0},"geometry":{"type":"Point","coordinates":[46.639462649967527,24.745128200041687]}},
{"type":"Feature","properties":{"residents":6.6},"geometry":{"type":"Point","coordinates":[46.639679799979824,24.745216500028121]}},
{"type":"Feature","properties":{"residents":6.6},"geometry":{"type":"Point","coordinates":[46.639723099979811,24.745122000028125]}},
{"type":"Feature","properties":{"residents":21.0},"geometry":{"type":"Point","coordinates":[46.639568904295345,24.745382681627589]}},
{"type":"Feature","properties":{"residents":13.3},"geometry":{"type":"Point","coordinates":[46.639381250002671,24.745261050021092]}},
{"type":"Feature","properties":{"residents":15.3},"geometry":{"type":"Point","coordinates":[46.639315842145663,24.745447519857951]}},
{"type":"Feature","properties":{"residents":26.3},"geometry":{"type":"Point","coordinates":[46.63942440127007,24.745677517893778]}},
{"type":"Feature","properties":{"residents":227.4},"geometry":{"type":"Point","coordinates":[46.641010037605078,24.748248188156357]}},
{"type":"Feature","properties":{"residents":136.0},"geometry":{"type":"Point","coordinates":[46.640061022507908,24.748198322259942]}},
{"type":"Feature","properties":{"residents":154.2},"geometry":{"type":"Point","coordinates":[46.639256438458993,24.747861558505011]}},
{"type":"Feature","properties":{"residents":33.6},"geometry":{"type":"Point","coordinates":[46.63837125285518,24.747536704411633]}},
{"type":"Feature","properties":{"residents":32.7},"geometry":{"type":"Point","coordinates":[46.638925229745219,24.746973009570414]}},
{"type":"Feature","properties":{"residents":95.1},"geometry":{"type":"Point","coordinates":[46.640499783798582,24.747718987726987]}},
{"type":"Feature","properties":{"residents":20.3},"geometry":{"type":"Point","coordinates":[46.640078044248305,24.747681668590953]}},
{"type":"Feature","properties":{"residents":42.2},"geometry":{"type":"Point","coordinates":[46.639911283897234,24.747470235829148]}},
{"type":"Feature","properties":{"residents":20.8},"geometry":{"type":"Point","coordinates":[46.639653100004416,24.747502750032762]}},
{"type":"Feature","properties":{"residents":25.2},"geometry":{"type":"Point","coordinates":[46.639758981349651,24.747275444403638]}},
{"type":"Feature","properties":{"residents":18.3},"geometry":{"type":"Point","coordinates":[46.639427923047684,24.747408187304444]}},
{"type":"Feature","properties":{"residents":26.9},"geometry":{"type":"Point","coordinates":[46.639208499982701,24.747325750058145]}},
{"type":"Feature","properties":{"residents":32.2},"geometry":{"type":"Point","coordinates":[46.639325700013316,24.747082950046099]}},
{"type":"Feature","properties":{"residents":20.0},"geometry":{"type":"Point","coordinates":[46.639575700045278,24.74718310000576]}},
{"type":"Feature","properties":{"residents":28.9},"geometry":{"type":"Point","coordinates":[46.639157811350017,24.748739232300558]}},
{"type":"Feature","properties":{"residents":21.0},"geometry":{"type":"Point","coordinates":[46.638330010057828,24.74666750437725]}},
{"type":"Feature","properties":{"residents":14.3},"geometry":{"type":"Point","coordinates":[46.638163666913215,24.746590811980006]}},
{"type":"Feature","properties":{"residents":12.9},"geometry":{"type":"Point","coordinates":[46.638032583462739,24.746542936655473]}},
{"type":"Feature","properties":{"residents":12.9},"geometry":{"type":"Point","coordinates":[46.637912483462742,24.746486736655473]}},
{"type":"Feature","properties":{"residents":12.9},"geometry":{"type":"Point","coordinates":[46.637780583462735,24.746432136655471]}},
{"type":"Feature","properties":{"residents":39.8},"geometry":{"type":"Point","coordinates":[46.637532147355827,24.74632741564222]}},
{"type":"Feature","properties":{"residents":11.9},"geometry":{"type":"Point","coordinates":[46.637531700037449,24.746606399999365]}},
{"type":"Feature","properties":{"residents":11.9},"geometry":{"type":"Point","coordinates":[46.637670600037445,24.746663299999366]}},
{"type":"Feature","properties":{"residents":11.9},"geometry":{"type":"Point","coordinates":[46.637808800037448,24.746720699999365]}},
{"type":"Feature","properties":{"residents":11.9},"geometry":{"type":"Point","coordinates":[46.637943500037437,24.746779099999365]}},
{"type":"Feature","properties":{"residents":28.6},"geometry":{"type":"Point","coordinates":[46.638166138198308,24.74686916268794]}},
{"type":"Feature","properties":{"residents":187.2},"geometry":{"type":"Point","coordinates":[46.640302406544777,24.748995506939547]}},
{"type":"Feature","properties":{"residents":17.3},"geometry":{"type":"Point","coordinates":[46.63782609998907,24.747105750038454]}},
{"type":"Feature","properties":{"residents":17.3},"geometry":{"type":"Point","coordinates":[46.637734499989072,24.747279750038452]}},
{"type":"Feature","properties":{"residents":15.1},"geometry":{"type":"Point","coordinates":[46.637971091915716,24.747366018863762]}},
{"type":"Feature","properties":{"residents":15.1},"geometry":{"type":"Point","coordinates":[46.638054791915714,24.747199818863763]}},
{"type":"Feature","properties":{"residents":30.3},"geometry":{"type":"Point","coordinates":[46.637838098364291,24.747613667762106]}},
{"type":"Feature","properties":{"residents":15.2},"geometry":{"type":"Point","coordinates":[46.637651918151555,24.747437352183361]}},
{"type":"Feature","properties":{"residents":15.2},"geometry":{"type":"Point","coordinates":[46.637567218151553,24.747600052183362]}},
{"type":"Feature","properties":{"residents":16.4},"geometry":{"type":"Point","coordinates":[46.637489340667457,24.74776271834547]}},
{"type":"Feature","properties":{"residents":16.4},"geometry":{"type":"Point","coordinates":[46.63741414066746,24.74793051834547]}},
{"type":"Feature","properties":{"residents":13.1},"geometry":{"type":"Point","coordinates":[46.63771386448483,24.747861612360154]}},
{"type":"Feature","properties":{"residents":13.1},"geometry":{"type":"Point","coordinates":[46.637630864484834,24.748022412360147]}},
{"type":"Feature","properties":{"residents":62.5},"geometry":{"type":"Point","coordinates":[46.637216549964123,24.748544450133306]}},
{"type":"Feature","properties":{"residents":14.2},"geometry":{"type":"Point","coordinates":[46.636470100030543,24.748747950004457]}},
{"type":"Feature","properties":{"residents":14.1},"geometry":{"type":"Point","coordinates":[46.636338968408445,24.748946507175514]}},
{"type":"Feature","properties":{"residents":14.1},"geometry":{"type":"Point","coordinates":[46.636164268408436,24.748871707175507]}},
{"type":"Feature","properties":{"residents":14.1},"geometry":{"type":"Point","coordinates":[46.63598946840844,24.748798207175501]}},
{"type":"Feature","properties":{"residents":51.9},"geometry":{"type":"Point","coordinates":[46.625169499877551,24.748124000181235]}},
{"type":"Feature","properties":{"residents":110.5},"geometry":{"type":"Point","coordinates":[46.625363986612186,24.747746945407993]}},
{"type":"Feature","properties":{"residents":33.8},"geometry":{"type":"Point","coordinates":[46.625736210303288,24.748756467371503]}},
{"type":"Feature","properties":{"residents":27.1},"geometry":{"type":"Point","coordinates":[46.625152600021551,24.748855300032208]}},
{"type":"Feature","properties":{"residents":28.9},"geometry":{"type":"Point","coordinates":[46.625286000028503,24.748600950030379]}},
{"type":"Feature","properties":{"residents":35.3},"geometry":{"type":"Point","coordinates":[46.624899396832554,24.746690124533345]}},
{"type":"Feature","properties":{"residents":30.0},"geometry":{"type":"Point","coordinates":[46.625167299985343,24.746898450054324]}},
{"type":"Feature","properties":{"residents":11.6},"geometry":{"type":"Point","coordinates":[46.62535390716355,24.747037013416829]}},
{"type":"Feature","properties":{"residents":11.6},"geometry":{"type":"Point","coordinates":[46.625460606890186,24.747116913461486]}},
{"type":"Feature","properties":{"residents":72.9},"geometry":{"type":"Point","coordinates":[46.625751339348064,24.747183674600116]}},
{"type":"Feature","properties":{"residents":11.6},"geometry":{"type":"Point","coordinates":[46.625672105977117,24.746913863625341]}},
{"type":"Feature","properties":{"residents":21.9},"geometry":{"type":"Point","coordinates":[46.625529702025432,24.746794533132228]}},
{"type":"Feature","properties":{"residents":14.5},"geometry":{"type":"Point","coordinates":[46.625327150033783,24.746617550017483]}},
{"type":"Feature","properties":{"residents":7.9},"geometry":{"type":"Point","coordinates":[46.625194505937685,24.746533013303882]}},
{"type":"Feature","properties":{"residents":30.3},"geometry":{"type":"Point","coordinates":[46.625023345396322,24.746414727289043]}},
{"type":"Feature","properties":{"residents":22.9},"geometry":{"type":"Point","coordinates":[46.626713049994358,24.748886700043322]}},
{"type":"Feature","properties":{"residents":9.3},"geometry":{"type":"Point","coordinates":[46.626800399961439,24.748742150048606]}},
{"type":"Feature","properties":{"residents":23.8},"geometry":{"type":"Point","coordinates":[46.626878074146909,24.748580637012317]}},
{"type":"Feature","properties":{"residents":9.3},"geometry":{"type":"Point","coordinates":[46.62695549996144,24.74841775004861]}},
{"type":"Feature","properties":{"residents":12.2},"geometry":{"type":"Point","coordinates":[46.626492849921441,24.748625250093813]}},
{"type":"Feature","properties":{"residents":20.1},"geometry":{"type":"Point","coordinates":[46.626549167508067,24.748514633800212]}},
{"type":"Feature","properties":{"residents":13.2},"geometry":{"type":"Point","coordinates":[46.6266110280853,24.748397587156433]}},
{"type":"Feature","properties":{"residents":13.2},"geometry":{"type":"Point","coordinates":[46.626656128085294,24.748306187156437]}},
{"type":"Feature","properties":{"residents":27.0},"geometry":{"type":"Point","coordinates":[46.626723399959531,24.748165100079611]}},
{"type":"Feature","properties":{"residents":54.3},"geometry":{"type":"Point","coordinates":[46.62687818335305,24.74789307219304]}},
{"type":"Feature","properties":{"residents":22.9},"geometry":{"type":"Point","coordinates":[46.627170835442428,24.748056166188494]}},
{"type":"Feature","properties":{"residents":25.5},"geometry":{"type":"Point","coordinates":[46.627490549993752,24.748958500048111]}},
{"type":"Feature","properties":{"residents":53.2},"geometry":{"type":"Point","coordinates":[46.625729151186171,24.748251500730365]}},
{"type":"Feature","properties":{"residents":41.1},"geometry":{"type":"Point","coordinates":[46.626012027817652,24.748417311772279]}},
{"type":"Feature","properties":{"residents":41.1},"geometry":{"type":"Point","coordinates":[46.626181427817649,24.748087311772281]}},
{"type":"Feature","properties":{"residents":25.9},"geometry":{"type":"Point","coordinates":[46.625896873035238,24.747941565541929]}},
{"type":"Feature","properties":{"residents":25.9},"geometry":{"type":"Point","coordinates":[46.62600407303524,24.747731265541923]}},
{"type":"Feature","properties":{"residents":102.8},"geometry":{"type":"Point","coordinates":[46.626288440956131,24.747487463729978]}},
{"type":"Feature","properties":{"residents":27.0},"geometry":{"type":"Point","coordinates":[46.641065450028002,24.735791550029752]}},
{"type":"Feature","properties":{"residents":12.4},"geometry":{"type":"Point","coordinates":[46.64120244029521,24.735538997953626]}},
{"type":"Feature","properties":{"residents":9.8},"geometry":{"type":"Point","coordinates":[46.641474914266112,24.73565314940894]}},
{"type":"Feature","properties":{"residents":18.1},"geometry":{"type":"Point","coordinates":[46.64035291818896,24.735983676420254]}},
{"type":"Feature","properties":{"residents":19.4},"geometry":{"type":"Point","coordinates":[46.640528737203539,24.736064412150192]}},
{"type":"Feature","properties":{"residents":79.4},"geometry":{"type":"Point","coordinates":[46.640469451006261,24.737451912864991]}},
{"type":"Feature","properties":{"residents":16.8},"geometry":{"type":"Point","coordinates":[46.640110585578199,24.735086740884217]}},
{"type":"Feature","properties":{"residents":16.8},"geometry":{"type":"Point","coordinates":[46.640181385578202,24.734939640884217]}}
]
}
